Source,Name,Main Phone,Main Email,Website,Website Valid,Email extension,Linkedin,Instagram,Facebook,X (formerly Twitter),Pinterest,TikTok,Youtube,Mission,Veteran Owned Business Y/N,Is certified Veteran Owned Business Y/N,Is Veteran Service Organization Y/N,Is VA or GOV Organization Y/N,VA or GOV Type,VA or GOV Subtype,Service Area,Address Line one,Address Line Two,Latitude,Longitude,Zip Code,Country,State,County,Municipality - Place,Notes,Owner,Owner Phone,Owner Email
https://www.britishveteranowned.co.uk/business-profile?recordId=recXK2VCfc2onv0JY,5C Consulting Ltd,+441295722808,simon.george@5cconsulting.co.uk,www.5Cconsulting.co.uk,,,https://www.linkedin.com/company/91639708/admin/feed/posts/,,,,,,,,,,,,,,,"Bloxham Mill, Barford Road",,52.01192,-1.37092,OX15 4FF,UK,,Oxfordshire,Bloxham,,,,
https://www.britishveteranowned.co.uk/business-profile?recordId=rece8eu8HL3JtT3cP,ABRH Ltd,+447388675288,admin@abrh.solutions,www.abrh.solutions,,,https://www.linkedin.com/company/rethinking-trauma-and-transition/?viewAsMember=true,,https://facebook.com/,,,,https://www.youtube.com/channel/UC-ftHKkMAeKCLP552hV0CuA,,,,,,,,,272 Bath Street,,55.86547,-4.26896,G2 4JR,UK,,"Scotland,",Glasgow,,,,
https://www.britishveteranowned.co.uk/business-profile?recordId=rec6lgO5cFxB4KNpN,ACA Health & Safety Services,+441473313116,info@acasafety.com,www.acasafety.com,,,,,,,,,,,,,,,,,,"Birchwood House, Mill Hill",,52.00442,1.03485,IP92JE,UK,,Suffolk,Capel St Mary,,,,
https://www.britishveteranowned.co.uk/business-profile?recordId=recjGD3EdUQQVoWHH,Advanced Gas Solutions,,lee.waite82@gmail.com,https://www.britishveteranowned.co.uk/business-profile?recordId=recjGD3EdUQQVoWHH,,,,,,,,,,,,,,,,,,,,,,,UK,,,,,,,
https://www.britishveteranowned.co.uk/business-profile?recordId=recxhie2TBXpFtOry,Agri - Wildlife Management Herefordshire ,01432 381749,Admin@agri-wmh.co.uk,www.agri-wmh.co.uk,,,,https://www.instagram.com/agri_wildlife_management_hfd,"https://static.wixstatic.com/media/e316f544f9094143b9eac01f1f19e697.png/v1/fill/w_63,h_63,al_c,q_85,usm_0.66_1.00_0.01,enc_auto/e316f544f9094143b9eac01f1f19e697.png",,,,,,,,,,,,,,,,,HR11BZ,UK,,Herefordshire ,Hereford,,,,
https://www.britishveteranowned.co.uk/business-profile?recordId=recHx4p77cPUX8eXo,Al Topping Photos & Film,+447980900480,info@altopping.com,https://www.altopping.com,,,https://www.linkedin.com/in/altopping,https://www.instagram.com/altoppingphotography,https://www.facebook.com/altoppingphotography,,,,https://www.youtube.com/channel/UCdjPgvNsr5kW09mk57S3L6A,,,,,,,,,Old Hall Road,,54.39348,-2.92973,LA23 1,UK,,Cumbria,Windermere,,,,
https://www.britishveteranowned.co.uk/business-profile?recordId=recehBfXXq7i3bcwj,All Out Heating & Plumbing limited ,,Alloutheat@gmail.com,https://www.britishveteranowned.co.uk/business-profile?recordId=recehBfXXq7i3bcwj,,,,,,,,,,,,,,,,,,,,,,HG4 2EQ,UK,,North Yorkshire,Ripon,,,,
https://www.britishveteranowned.co.uk/business-profile?recordId=recnu9kWSIO8mjVCe,Ambassador Security Solutions Group Training Academy Ltd,+447909610849,info@ambassadorsecuritysolutionsgroup.co.uk,https://www.ambassadorsecuritysolutionsgroup.co.uk,,,,https://www.instagram.com/ambassadorsecuritysolutions,,,,,,,,,,,,,,13 nelson avenue,,53.40999,-2.79791,l35 3pg,UK,,merseyside,liverpool,,,,
https://www.britishveteranowned.co.uk/business-profile?recordId=recNxYjFPjXVH8eU7,Ambush Veteran Adventures,,matthew.g.rugman@outlook.com,www.ambush-veterans.co.uk,,,,,,,,,,,,,,,,,,,,,,Po94pp,UK,,Hants,Havant,,,,
https://www.britishveteranowned.co.uk/business-profile?recordId=recokgsWL1cc7P2iW,Arrowforth,+447796505350,contact@arrowforth.com,https://www.arrowforth.com,,,https://www.linkedin.com/company/arrowforth/about/?viewAsMember=true,,,https://twitter.com/arrowforth1,,,,,,,,,,,,128 City Road,,51.5273,-0.08892,EC1V 2NX,UK,,Middlesex,London,,,,
https://www.britishveteranowned.co.uk/business-profile?recordId=recgHFiMvoNiX87fX,Audax Global Solutions Ltd,+441752264950,info@audaxuk.com,www.audaxuk.com,,,https://www.linkedin.com/company/19277675,,,https://twitter.com/audaxsolutions,,,https://www.youtube.com/@audaxBWV,,,,,,,,,16 Mary Seacole Road,,50.37125,-4.15752,PL1 3JY,UK,,Devon,Plymouth,,,,
https://www.britishveteranowned.co.uk/business-profile?recordId=recvPOrotx31tEv2N,Awaking Giants ,,gareth@awakinggiants.com,www.awakinggiants.com,,,,,,,,,,,,,,,,,,,,,,DN9 3GE,UK,,South Yorkshire,Doncaster,,,,
https://www.britishveteranowned.co.uk/business-profile?recordId=recWJKSXMyacZFxRc,Bells and Two tones Fire and Rescue Ltd,+441753785658,ewan@bellsandtwotones.co.uk,www.bellsandtwotones.co.uk,,,https://www.linkedin.com/company/68489240/admin/feed/posts/,https://www.instagram.com/bells_and_two_tones/,https://www.facebook.com/BTTFRS,https://www.facebook.com/BTTFRS,,,,,,,,,,,,"Room 116 N Block, Pinewood Studio, Pinewood Road",,51.54747,-0.53471,SL0 0NH,UK,,Bucks,Iver,,,,
https://www.britishveteranowned.co.uk/business-profile?recordId=recQFhyqiqSmD722P,Blunsdon Blinds Ltd,+447727061185,blunsdonblinds@hotmail.com,www.blunsdonblinds.co.uk,,,,,https://www.facebook.com/blunsdonblinds,,,,,,,,,,,,,"118, Emerald Crescent",,51.60947,-1.79577,SN25 2SN,UK,,Wiltshire,Swindon,,,,
https://www.britishveteranowned.co.uk/business-profile?recordId=recaRhFWwPOnUJhuO,Brighteas Ltd T/A Rosie & Java,,service@brighteas.com,www.rosieandjava.com,,,,,,,,,,,,,,,,,,,,,,TW91LZ,UK,,Surrey,Richmond,,,,
https://www.britishveteranowned.co.uk/business-profile?recordId=recfFSsqA4zJkD7wa,Britannia Protection & Security Management Inc,+5926866607,james@britanniaprotection.com,https://www.britanniaprotection.com,,,,,,,,,,,,,,,,,,"205 Daisy Street, Greenacres",,,,,UK,,"Guyana, South America","Providence, East Bank Demerara",,,,
https://www.britishveteranowned.co.uk/business-profile?recordId=recBNfZCXTgtZ6qk2,Burston & Son Chimney Services,+447973662621,jimburston71@gmail.com,www.burstonandsonchimneyservices.co.uk,,,,,,,,,,,,,,,,,,14 Lime Grove,,50.63927,-3.39666,EX85NN,UK,,Devon,Exmouth,,,,
https://www.britishveteranowned.co.uk/business-profile?recordId=recgvF05tZ52FwDpr,C & D Flooring Services Limited,01566778788,,www.canddflooring.uk,,,https://www.linkedin.com/in/neill-toms-4563b196/,,https://www.facebook.com/cndflooring/,https://twitter.com/share?url=https%3A%2F%2Fcanddflooring.uk%2F&text=Home,https://pinterest.com/pin/create/button/,,,,,,,,,,,4 Merchants Quay,,50.6286,-4.37791,PL15 7QA,UK,,Cornwall,Launceston,,,,
https://www.britishveteranowned.co.uk/business-profile?recordId=recC9Jfa98DuFTHOF,CAD Wing Ltd,+447790001974,info@cadwing.co.uk,https://www.britishveteranowned.co.uk/business-profile?recordId=recC9Jfa98DuFTHOF,,,http://linkedin.com/in/lee-matthews-09672220b,https://instagram.com/cadwingltd,,,,,,,,,,,,,,62 fore street,,50.38312,-4.05007,Pl7 1nb,UK,,Devon,Plymouth,,,,
https://www.britishveteranowned.co.uk/business-profile?recordId=recx9pl55k1SiQnnH,Chiselbury,+447703537721,sl@chiselbury.co.uk,https://www.chiselbury.co.uk/,,,https://www.linkedin.com/company/chiselbury-publishing,https://www.instagram.com/chiselbury,https://www.facebook.com/chiselbury,https://twitter.com/chiselbury,,,,,,,,,,,,14 Devonia Road,,51.53465,-0.10039,N1 8JH,UK,,London,London,,,,
https://www.britishveteranowned.co.uk/business-profile?recordId=recDAnq9eiEmQE4Vx,CivvyJobs.com,+441914274512,info@civvyjobs.com,www.civvyjobs.com,,,https://www.linkedin.com/company/98695286,https://www.instagram.com/civvyjobs/,https://www.facebook.com/CivvyJobsBoard,https://twitter.com/CivvyJobs,,,,,,,,,,,,South Shields Business Works,,54.99469,-1.43469,NE33 1RF,UK,,Tyne and Wear,South Shields,,,,
https://www.britishveteranowned.co.uk/business-profile?recordId=recWzsoBxTPRjCnbu,Clecs Media,+447779225109,info@clecsmedia.com,https://www.clecsmedia.com,,,https://www.linkedin.com/company/clecs-media/,https://www.instagram.com/clecsmedia/,https://www.facebook.com/clecsmedia/,https://twitter.com/ClecsMedia,https://www.pinterest.co.uk/clecsmedia/,,,,,,,,,,,"77 Conwy Road,",,53.29862,-3.73748,LL297LN,UK,,Conwy,Colwyn Bay,,,,
https://www.britishveteranowned.co.uk/business-profile?recordId=reclQsTBmX7Fzrj5y,Commando Force Airsoft,+447557046614,commandoforceairsoft@outlook.com,https://www.commandoforceairsoft.com,,,https://www.linkedin.com/company/commando-force-airsoft/,https://www.instagram.com/commandoforceairsoft,https://m.facebook.com/CForceAirsoft,,,,,,,,,,,,,"15 Shallowford Close,",,50.3983,-4.10743,PL6 5TN,UK,,Devon,Plymouth,,,,
https://www.britishveteranowned.co.uk/business-profile?recordId=recFfFwvK7DfkYw8z,Commercial Optimisation Ltd,+447734083842,andrew.stevens@commercialoptimisation.co.uk,www.commercialoptimisation.co.uk,,,https://www.linkedin.com/in/andrew-j-stevens/,https://www.instagram.com/eos_implementer_uk/,https://www.facebook.com/EOSImplementer,https://twitter.com/andystevens,,,,,,,,,,,,"6a Lyons Road, 6a Lyons Farm Estate",,51.06506,-0.38049,RH13 0QP,UK,,West Sussex,Horsham,,,,
https://www.britishveteranowned.co.uk/business-profile?recordId=recQYuIVZf7syrUsH,Compact Camper Company,+447880860468,info@compactcampercompany.co.uk,www.compactcampercompany.co.uk,,,,https://www.instgram.com/sheilatheagila,https://facebook.com/sheilatheagila,,,,https://www.youtube.com/@compactcamperco,,,,,,,,,"Cotswold Camping, Spelsbury Road",,51.88206,-1.48773,OX7 3LR,UK,,Oxfordshire,Charlbury,,,,
https://www.britishveteranowned.co.uk/business-profile?recordId=recba9dDPxI323gbi,Concept XR Ltd,+447880552897,kevin.blair@conceptxr.co.uk,www.conceptxr.co.uk,,,https://www.linkedin.com/company/conceptxr,https://www.instagram.com/conceptxrltd,https://facebook.com/conceptxr,,,,,,,,,,,,,"Steamhouse, Belmont Row, Birmingham, B4 7RQ",,52.48398,-1.88192,B4 7RQ,UK,,West Midlands,Birmingham,,,,
https://www.britishveteranowned.co.uk/business-profile?recordId=reclDU3RVmscRFt6T,Contracting Solutions International DWC LLC,07865582764,,www.linkedin.com/company/contracting-solutions-international-dwc,,,https://www.linkedin.com/company/contracting-solutions-international-dwc/posts/?feedView=all&viewAsMember=true,,,,,,,,,,,,,,,"Dubai World Central, Aviation City HQ",,,,,UK,,United Arab Emirates,Dubai,,,,
https://www.britishveteranowned.co.uk/business-profile?recordId=recrW5MOJZFw5YKUs,Cyber Guardian,+353874584349,info@cyberguardian.ie,www.surfsaferonline.com,,,https://www.linkedin.com/in/cyber-guardian-7a186b223,,,https://twitter.com/surfsaferonline,,,,,,,,,,,,Loughkeen,,,,Ireland,UK,,Tipperary,"Carrig, Birr",,,,
https://www.britishveteranowned.co.uk/business-profile?recordId=recvamI8maoiz2vIJ,Dedicated Freight Limited,+441618211517,sales@choosededicated.co.uk,www.choosededicated.co.uk,,,,https://www.instagram.com/dedicatedfreightuk/,,,,,,,,,,,,,,3 Tarragon Drive,,53.56701,-2.20596,M24 5AY,UK,,Manchester,Middleton,,,,
https://www.britishveteranowned.co.uk/business-profile?recordId=rec5BJaUYYq30gL0I,Discount Displays Limited,+442086645660,sales@discountdisplays.co.uk,www.discountdisplays.co.uk,,,https://www.linkedin.com/company/discount-displays/,https://www.instagram.com/discountdisplays/,https://www.facebook.com/discountdisplays.co.uk,https://twitter.com/displayexperts,https://www.pinterest.co.uk/discountdisplay/,,https://www.youtube.com/user/discountdisplays,,,,,,,,,31-35 Wortey Road,,51.38679,-0.11779,CR0 3EB,UK,,Surrey,Croydon,,,,
https://www.britishveteranowned.co.uk/business-profile?recordId=recM3jzdp1lIwrh1P,DTD Consult Ltd,+442039955677,dalecrawford@dtdconsult.com,https://www.dtdconsult.com,,,https://www.linkedin.com/in/dale-crawford-minstre-4334aa1/,,https://www.facebook.com/dtdconsult/,,,,,,,,,,,,,71-75 Shelton Street,,51.51488,-0.12342,WC2H 9JQ,UK,,London,London,,,,
https://www.britishveteranowned.co.uk/business-profile?recordId=rectWQyF8FTAGxFnM,Duo Digital,+441642548408,mike@duodigital.co.uk,https://www.duodigital.co.uk,,,https://www.linkedin.com/company/duo-digital-uk/,https://www.instagram.com/duodigitaluk/,https://www.facebook.com/duodigitaluk,https://twitter.com/duodigitaluk,,,https://www.youtube.com/channel/UCo9sxWO2z1aKg0h5NQgMriw,,,,,,,,,69-71 High Street,,54.46935,-1.19449,TS9 5BQ,UK,,North Yorkshire,Stokesley,,,,
https://www.britishveteranowned.co.uk/business-profile?recordId=recqZlczAPSi8hN0V,Dusty Sweeps,+447830317200,info@dustysweeps.co.uk,www.dustysweeps.co.uk,,,,https://www.instagram.com/dustysweeps,https://www.facebook.com/dustysweeps,https://www.twitter.com/dustysweep,,,https://www.youtube.com/watch?feature=player_embedded&v=25qEsA6EPr4,,,,,,,,,3 Bridge End Road,,51.57347,-1.7565,SN3 4PD,UK,,Wiltshire,Swindon,,,,
https://www.britishveteranowned.co.uk/business-profile?recordId=recyMorvm6w6BECLE,Eager Beever Photography & Art,,ebpchrisbeever@yahoo.com,www.eagerbeeverphoto.co.uk,,,,https://www.instagram.com/eagerbeeverphoto/,https://www.facebook.com/eagerbeeverphoto.co.uk,https://twitter.com/ChrisBeever,,https://www.tiktok.com/@eagerbeeverphoto,,,,,,,,,,,,,,wn25yp,UK,,Greater Manchester,wigan,,,,
https://www.britishveteranowned.co.uk/business-profile?recordId=rec2bpiGF3NSKqow4,EaglePeak Consulting,+447725558225,neilodoherty@eaglepeakconsulting.co.uk,www.eaglepeakconsulting.co.uk,,,https://www.linkedin.com/company/eaglepeak-consulting-ltd-/about/,,,https://twitter.com/EaglepeakL,,,,,,,,,,,,35 Badger's Way,,51.35084,-2.92308,BS24 7ED,UK,,North Somerset,Weston-super-Mare,,,,
https://www.britishveteranowned.co.uk/business-profile?recordId=reczUBKClHv8UcmZb,Empiris Recruitment,+443301336340,contact@empiris.co.uk,www.empiris.co.uk,,,https://www.linkedin.com/company/empiris/,https://www.instagram.com/empiris_recruitment?igsh=MW9lOTVqOGRwMG04bA==,,,,,,,,,,,,,,71-75 Shelton Street,,51.51488,-0.12342,WC2H 9JQ,UK,,Greater London,London,,,,
https://www.britishveteranowned.co.uk/business-profile?recordId=rectob5B8UQ79JFDC,Espanaro Ltd,+442030111359,info@espanaro.com,www.espanaro.com,,,https://www.linkedin.com/company/espanaro/,,,https://twitter.com/espanaro,,,,,,,,,,,,7 Bell Yard,,51.51445,-0.1118,WC2A 2JR,UK,,London,London,,,,
https://www.britishveteranowned.co.uk/business-profile?recordId=rec1QePomYoTMsaC4,Essex Safety Ltd,+447882939742,info@essexsafety.co.uk,www.essexsafety.co.uk,,,,,,,,,,,,,,,,,,7 Dudley Road Fingrinhoe,,51.83675,0.932963,CO57DS,UK,,ESSEX,Colchester,,,,
https://www.britishveteranowned.co.uk/business-profile?recordId=recgl9FKSRYeWdRAc,Evexia (Kos),+306995762256,,www.evexia-kos.com,,,https://www.linkedin.com/company/evexia-kos/,Instagram.com/evexia.kos,Facebook.com/evexia.kos,,,,https://www.youtube.com/channel/UCignYHED2Y7FNQB7XTgcN3g,,,,,,,,,,,,,,UK,,,,,,,
https://www.britishveteranowned.co.uk/business-profile?recordId=recpPmuLwNgI1oaIa,Ex Military Mentor,+441242909248,antony@exmilitarymentor.com,www.exmilitarymentor.com,,,https://www.linkedin.com/in/antonydraper/,https://www.instagram.com/exmilitarymentor/,https://www.facebook.com/ex.military.mentor,https://twitter.com/xmilitarymentor,,,,,,,,,,,,Barnwood Road,,51.86645,-2.2191,GL2 0SD,UK,,Gloucestershire,Gloucester,,,,
https://www.britishveteranowned.co.uk/business-profile?recordId=recJDKKZpjKSm4M8Z,Field Finance,,,www.fieldfinance.uk,,,,,,,,,,,,,,,,,,,,,,,UK,,,,,,,
https://www.britishveteranowned.co.uk/business-profile?recordId=recXdWKMtKKjmGsLM,Forces Car Hire,,info@forcescarhire.com,www.forcescarhire.com,,,,https://www.instagram.com/forcescarhire8/,https://www.facebook.com/forcescarhire,https://twitter.com/forcescarhire,,,,,,,,,,,,Worldwide,,,,,UK,,,,,,,
https://www.britishveteranowned.co.uk/business-profile?recordId=recVrsLzYmHm6oxyk,Forest Girls Soccer School,+447938654119,forestgirlsfc@gmail.com,https://www.britishveteranowned.co.uk/business-profile?recordId=recVrsLzYmHm6oxyk,,,,,,,,,,,,,,,,,,14 diamond close,,50.9246,-1.7956,Sp61nr,UK,,Hampshire,Fordingbridge,,,,
https://www.britishveteranowned.co.uk/business-profile?recordId=recMHtAJrvh16Crzm,Glenn Heating & Plumbing Services,,ghp_services@outlook.com,https://www.britishveteranowned.co.uk/business-profile?recordId=recMHtAJrvh16Crzm,,,,,,,,,,,,,,,,,,,,,,,UK,,Surrey,Woking,,,,
https://www.britishveteranowned.co.uk/business-profile?recordId=recK2dRaRLARK8T2R,Got Your Six UK CIC,,Gotyoursixuk@outlook.com,www.gotyoursix.uk,,,,https://www.instagram.com/gotyoursixuk,https://www.facebook.com/gotyoursixuk,,,,,,,,,,,,,114 Portland Road,,50.59173,-2.47437,DT4 9AD,UK,,Dorset,Weymouth,,,,
https://www.britishveteranowned.co.uk/business-profile?recordId=recyMbiJY9hABLNUb,Greytop plumbing,+447581701407,greytopplumbing@gmail.com,https://www.britishveteranowned.co.uk/business-profile?recordId=recyMbiJY9hABLNUb,,,,https://www.instagram.com/greytop.plumbing/,https://www.facebook.com/people/Greytop-plumbing/61552064127022/,,,,,,,,,,,,,"266 Grandstand road, Hereford, HR4 9LS",,52.07243,-2.74094,HR4 9LS,UK,,Herefordshire,Hereford,,,,
https://www.britishveteranowned.co.uk/business-profile?recordId=recUc9gxTk3NVNQUZ,GY Finance Ltd,,,https://www.britishveteranowned.co.uk/business-profile?recordId=recUc9gxTk3NVNQUZ,,,https://www.linkedin.com/company/gy-finance-ltd/,,https://www.facebook.com/GYFinance,,,,,,,,,,,,,,,,,,UK,,,,,,,
https://www.britishveteranowned.co.uk/business-profile?recordId=recDSTD8iTleQF0iK,H&SCTS,+447789254954,admin@hscts.co.uk,www.hscts.co.uk,,,,,,,,,,,,,,,,,,25 Jubilee Avenue,,52.17853,0.993898,IP142DZ,UK,,Suffolk,Stowmarket,,,,
https://www.britishveteranowned.co.uk/business-profile?recordId=recACgWIYNH5RRPpv,Hambleton Pet Services,+447854338832,contact@hambletonpetservices.co.uk,www.hambletonpetservices.co.uk,,,,https://www.instagram.com/hambletonpet/,https://www.facebook.com/hambletonpetservices/,https://twitter.com/hambletonpet,,,,,,,,,,,,16 Robb Close,,54.22879,-1.35486,YO7 1GG,UK,,North Yorkshire,Thirsk,,,,
https://www.britishveteranowned.co.uk/business-profile?recordId=recWAvJMHxsmdwYCt,Hannent Chartered Surveyors,01304 240000,,www.hannent.com,,,https://www.linkedin.com/company/hannent-chartered-surveyors,https://www.instagram.com/hannentcharteredsurveyors/?hl=en,www.facebook.com/HannentCS,www.twitter.com/HannentCS,,,,,,,,,,,,"1 The Links, Deal Rd, Worth ",,51.258,1.337073,CT14 0BG,UK,,Kent,Deal,,,,
https://www.britishveteranowned.co.uk/business-profile?recordId=rectZGJi1zKscIBod,Hannent Construction Limited,+441304240000,paul@hannent.com,https://www.hannent.com,,,https://www.linkedin.com/company/hannent-chartered-surveyors,http://instagram.com/hannentcharteredsurveyors,https://www.facebook.com/profile.php?id=61556784372007,http://twitter.com/hannentcs,,,,,,,,,,,,"1 The Links, Deal Rd",,51.258,1.337073,CT14 0BG,UK,,Kent,"Worth, Deal",,,,
https://www.britishveteranowned.co.uk/business-profile?recordId=recVOsZavmuTPVXe5,Hart & Kohl,+441493800585,info@hartandkohl.com,www.hartandkohl.com,,,,https://www.instagram.com/hart_and_kohl,https://www.facebook.com/hartandkohl,,,,,,,,,,,,,The Street,,52.60458,1.572979,NR13 3AJ,UK,,Norfolk,Halvergate,,,,
https://www.britishveteranowned.co.uk/business-profile?recordId=recuVg37mi9PIGpEF,"hello,",+447368829431,hello.networking1@gmail.com,www.hellonetworking.co.uk,,,https://www.linkedin.com/company/66639708,https://www.instagram.com/hello_networking/,https://www.facebook.com/profile.php?id=61556284823213,https://www.twitter.com/wix,,https://www.instagram.com/hello_networking/,https://www.youtube.com/user/Wix,,,,,,,,,,,,,,UK,,,,,,,
https://www.britishveteranowned.co.uk/business-profile?recordId=recN79zjepl5t0f6N,Hermes Digital,+447422711349,sj@hermesdigital.co.uk,www.hermesdigital.co.uk,,,,,https://www.facebook.com/,,,,,,,,,,,,,16 Westbrook Drive,,51.08213,1.163504,CT20 2EQ,UK,,Kent,Folkestone,,,,
https://www.britishveteranowned.co.uk/business-profile?recordId=recvPwyhJogw6EccQ,Hind Tennis Court Cleaning,+447747744756,hindtenniscourtcleaning@gmail.com,www.hindtenniscourtcleaning.co.uk,,,,,,,,,,,,,,,,,,"45 Clayfurlong Grove,",,51.67655,-2.01864,GL7 6AS,UK,,Gloucestershire,Kemble,,,,
https://www.britishveteranowned.co.uk/business-profile?recordId=rec4yzcH7yQreNZtm,Hirst Locksmiths,07399574282,,www.hirstlocksmiths.co.uk,,,https://www.linkedin.com/in/danny-hirst-426a8346,https://instagram.com/hirst_locksmiths?igshid=YmMyMTA2M2Y=,https://www.facebook.com/hirstlocksmiths,https://twitter.com/DannyHirst3,,,https://www.youtube.com/@dannyhirst7386,,,,,,,,,29 Summerfield ,,55.6398,-2.67129,TD46ET ,UK,,Berwickshire ,Earlston ,,,,
https://www.britishveteranowned.co.uk/business-profile?recordId=rec8SU404VBqpZPKY,Horus Global,+442037286576,roger.marshall@horus-global.com,www.horus-global.com,,,https://www.linkedin.com/company/horus-global/mycompany/,https://www.linkedin.com/company/horus-global/mycompany/,,,,,,,,,,,,,,"60 St Aldates, Oxford OX1 1ST",,51.74754,-1.25676,OX1 1ST,UK,,Oxfordshire,Oxford,,,,
https://www.britishveteranowned.co.uk/business-profile?recordId=rec7b6U7PEGsqp4Ip,Hsurfacing Ltd,+447366568218,Office@hsurfacing.co.uk,www.hsurfacing.co.uk/,,,,,https://www.facebook.com/HSurfacing/,,,,,,,,,,,,,"Cherry Blossom House, marconi crescent",,51.32775,0.804138,me99ss,UK,,Kent,Teynham,,,,
https://www.britishveteranowned.co.uk/business-profile?recordId=recTPiBEkKohq7beK,HX Motors ltd,,twiggy@hxmotors.com,www.hxmotors.co.uk,,,,https://www.instagram.com/hx_motors/,https://www.hxmotors.co.uk/wp-content/uploads/2020/09/download-2-e1600356252541.png,,,,,,,,,,,,,,,,,ME17 3EH,UK,,Kent,Maidstone ,,,,
https://www.britishveteranowned.co.uk/business-profile?recordId=recFjTkJy0J8wNWUo,Ignis Safety Solutions,+447538870197,tom@ignissafetysolutions.com,www.ignissafetysolutions.com,,,https://www.linkedin.com/ignis-safety-solutions-ltd/,https://www.instagram.com/ignis_safetysolutions,https://www.facebook.com/ignissafetysolutions,,,,,,,,,,,,,"5 Hollis Row, Common Road, Redhll, Surrey, RH1 6HH",,51.22593,-0.17121,RH1 6HH,UK,,Surrey,Redhill,,,,
https://www.britishveteranowned.co.uk/business-profile?recordId=rec91ICHNPATNEZTa,Insignia CNC,07971075659,,www.insigniacnc.co.uk,,,,https://www.instagram.com/insigniacnc/,https://www.facebook.com/insigniaCNC,,,,,,,,,,,,,73 St. Leonards Road,,53.80864,-3.01799,FY3 9RE,UK,,England,Blackpool,,,,
https://www.britishveteranowned.co.uk/business-profile?recordId=recIThWEGLn9TB60Y,JCS Exteriors LTD,+447385653209,jcsexteriors@hotmail.com,https://www.britishveteranowned.co.uk/business-profile?recordId=recIThWEGLn9TB60Y,,,,,https://www.facebook.com/jcsexteriorsltd,,,,,,,,,,,,,5 Bradley Terrace,,53.64381,-1.05287,DH9 9AZ,UK,,Durham,Durham,,,,
https://www.britishveteranowned.co.uk/business-profile?recordId=recpyfKnfslA1S36H,Jump Dogs UK Ltd,+447531647419,info@jumpdogsparachuteteam.co.uk,https://jumpdogsparachuteteam.co.uk/,,,https://www.linkedin.com/company/36906196,https://www.instagram.com/jump_dogs_uk/,,,,,,,,,,,,,,15 Provence Court,,52.25531,-0.96382,NN5 6EH,UK,,Northants,Northampton,,,,
https://www.britishveteranowned.co.uk/business-profile?recordId=recCevBhtDIl6BfN9,Kingsley Beds,,info@kingsleybeds.co.uk,www.kingsleybeds.co.uk,,,,,,,,,,,,,,,,,,49 Jamaica Street,,53.39537,-2.98013,l10ah,UK,,Merseyside,Liverpool,,,,
https://www.britishveteranowned.co.uk/business-profile?recordId=recensreAy8hpXcMt,KwikTip Limited,+447853214636,tyler@kwiktip.co.uk,www.kwiktip.co.uk,,,https://www.linkedin.com/company/kwiktip,https://www.instagram.com/kwiktip,https://www.facebook.com/kwiktip,,,,,,,,,,,,,19 Ashby Road,,52.80007,-1.40595,DE73 8AZ,UK,,Derbyshire,Breedon On The Hill,,,,
https://www.britishveteranowned.co.uk/business-profile?recordId=recA60vjoBmVGn3kL,Lloyd Crossan Group,,thomas@lloydcrossangroup.com,https://www.britishveteranowned.co.uk/business-profile?recordId=recA60vjoBmVGn3kL,,,,,,,,,,,,,,,,,,,,,,CW1 6EA,UK,,Cheshire,Crewe,,,,
https://www.britishveteranowned.co.uk/business-profile?recordId=recIEKFDoTRSjAE17,Lovran Consulting,,,www.lovran.co,,,http://www.linkedin.com/company/lovran-consulting/,,https://www.facebook.com/lovranconsulting,,,,,,,,,,,,,,,,,,UK,,South Lanarkshire,,,,,
https://www.britishveteranowned.co.uk/business-profile?recordId=recInpU4VjdVsUKuE,M. Cox Electrical,+447935195567,info@cox-electrical.co.uk,www.cox-electrical.co.uk,,,https://www.linkedin.com/company/m-cox-electrical/,https://www.instagram.com/m.cox_electrical?igsh=ODk5bXhqcXhtaWRh&utm_source=qr,,,,,,,,,,,,,,3 Rowe Close,,51.01147,-4.21197,EX39 5XX,UK,,Devon,Bideford,,,,
https://www.britishveteranowned.co.uk/business-profile?recordId=recwW8Mi9vAWCvcXm,MacPeg Electrical Systems Ltd,,aa@macpegelectricalsystems.co.uk,www.macpegelectricalsystems.co.uk,,,,,,,,,,,,,,,,,,Chesterfield,,53.21502,-1.43753,S40 2JW,UK,,Derbyshire,Chesterfield,,,,
https://www.britishveteranowned.co.uk/business-profile?recordId=rech1ttszlmGsyCor,made by bees - Coxs Farm Honey Co. LTD,+447306243368,buzz@coxsfarmhoney.co.uk,www.coxsfarmhoney.com,,,,https://www.instagram.com/coxsfarmhoney/,https://www.facebook.com/CoxsFarmHoney,https://twitter.com/bees_made,https://www.pinterest.co.uk/user_zzbu/,,https://www.youtube.com/@coxsfarmhoney5185,,,,,,,,,"Coxâ€™s Farm,",,51.20819,-3.0417,TA5 2PX,UK,,Somerset,"Steart, Bridgwater",,,,
https://www.britishveteranowned.co.uk/business-profile?recordId=recnKIkJdgGHuuhQ8,Marine Drainage,+447947276703,info@marinedrainage.com,www.marinedrainage.com,,,,https://instagram.com/rmdrainage?igshid=YmMyMTA2M2Y=,https://www.facebook.com/RM-Drainage-106955948696603,,,,,,,,,,,,,4 Church Road,,51.37069,-0.49354,KT15 1RN,UK,,Surrey,Addlestone,,,,
https://www.britishveteranowned.co.uk/business-profile?recordId=recQLzEphrbHVVsJj,Metis,+441684876365,enquire@metissolutions.co.uk,www.metissolutions.co.uk,,,,,,,,,,,,,,,,,,20-22 Wenlock Road,,51.53074,-0.09374,N1 7GU,UK,,London,London,,,,
https://www.britishveteranowned.co.uk/business-profile?recordId=recKWJRTrssluMt9r,Mongoose Cyber Security Ltd,,,www.Mongoosecyber.io,,,https://www.linkedin.com/company/mongoose-cyber-security,,https://www.facebook.com/MongooseCyber,https://twitter.com/MongooseCyber,,,,,,,,,,,,,,,,,UK,,,,,,,
https://www.britishveteranowned.co.uk/business-profile?recordId=reckU95Ii1HB4J5v0,Moray Autocare Ltd,+447730555335,morayautocare@gmail.com,www.morayautocareltd.co.uk,,,,https://instagram.com/morayautocare1?igshid=OGQ5ZDc2ODk2ZA==,https://www.facebook.com/MorayAutocare,,,,,,,,,,,,,7 Davidson Place,,57.70085,-3.47922,IV30 5YL,UK,,Morayshire,Elgin,,,,
https://www.britishveteranowned.co.uk/business-profile?recordId=recJZTmrcJdhwU5Dj,Motif8 Embroidery & Print Ltd,+441642601501,sales@motif8.co.uk,www.motif8.co.uk,,,https://www.linkedin.com/company/16333347/,https://www.instagram.com/motif8ltd/,https://www.facebook.com/motif8ltd,https://twitter.com/Motif8ltd,,,,,,,,,,,,17 Stephenson Street,,54.55798,-1.30058,TS17 6AL,UK,,Durham,Stockton on Tees,,,,
https://www.britishveteranowned.co.uk/business-profile?recordId=recUOZblZ7xIYnSdf,Next Level Detailing,+447711377954,info@nldetailing.co.uk,www.nldetailing.co.uk,,,https://www.linkedin.com/company/nl-detailing/,https://instagram.com/nl.detailinguk,https://www.facebook.com/profile.php?id=100095498835101,,,https://www.tiktok.com/@next.level.detail,,,,,,,,,,Broad Oak Avenue,,53.38459,-2.65548,WA5 2EW,UK,,Cheshire,"Penketh, Warrington",,,,
https://www.britishveteranowned.co.uk/business-profile?recordId=rec0bQ3KGEpOptaYa,Nick Baskerville Photography,+447872493651,info@nickbaskerville.com,www.nickbaskerville.com/,,,https://www.linkedin.com/in/nick-baskerville-818ab8277?utm_source=share&utm_campaign=share_via&utm_content=profile&utm_medium=android_app,https://www.instagram.com/nick_baskerville_photography?igsh=MmUzOTJ2NGlvNXlp,https://www.facebook.com/LimaCharlieCreations,,https://www.pinterest.co.uk/0lzokjwqefaalmam3o5rqszcyuxkty,,,,,,,,,,,6 Reed Street,,51.60277,-1.26366,OX11 6FL,UK,,Oxfordshire,Didcot,,,,
https://www.britishveteranowned.co.uk/business-profile?recordId=recwIbKYrcJYCkwOU,Nidhoggr Mead Co.,+443331216323,sales@nidhoggrmead.co.uk,www.nidhoggrmead.co.uk,,,,https://www.instagram.com/nidhoggrmeadco/,https://facebook.com/nidhoggrmead,,,,,,,,,,,,,"Unit 1B, Pocklington Industrial Estate, York YO42 1NR",,53.92398,-0.80021,YO42 1NR,UK,,East Riding of Yorkshire,York,,,,
https://www.britishveteranowned.co.uk/business-profile?recordId=recXHmjTBLapZJ0so,NTWi,+447970489693,bryan@ntwiso.com,https://www.britishveteranowned.co.uk/business-profile?recordId=recXHmjTBLapZJ0so,,,https://www.linkedin.com/company/ntw-international/about/?viewAsMember=true,https://www.linkedin.com/company/ntw-international/about/?viewAsMember=true,,,,,,,,,,,,,,"15 BArrack hill, Newport, Gwent",,51.59702,-3.00142,NP20 5FR,UK,,Gwent,Newport,,,,
https://www.britishveteranowned.co.uk/business-profile?recordId=rec7BUnZrHXHSCyR7,Oaths of Allegiance,+447805030222,oathsofallegiance@gmail.com,www.oathsofallegiance.co.uk,,,,https://www.instagram.com/oaths_of_allegiance/,https://facebook.co/oathsofallegiance/,https://twitter.com/OathsofA,,,,,,,,,,,,Office 45 Consett Business Centre,,54.86062,-1.8182,DH8 6BP,UK,,Co Durham,Consett,,,,
https://www.britishveteranowned.co.uk/business-profile?recordId=recpjxCLU2mpMHbd1,Omega Investment Ventures,+971585710772,Hi@omegainvestmentventures.com,www.omegainvestmentventures.com,,,,,,,,,,,,,,,,,,"611 South DuPont Highway, Suite 102,",,,,19901,UK,,Delaware,City of Dover,,,,
https://www.britishveteranowned.co.uk/business-profile?recordId=recqEwMHpukXU1q4u,Optimal Transformations Ltd,+447413448691,Info@optimaltransformations.co.uk,www.optimaltransformations.co.uk,,,,,,,,,,,,,,,,,,"34-35 Butchers Row, Shrewsbury, SY1 1UW",,52.70818,-2.75297,SY1 1UW,UK,,Shropshire,Shrewsbury,,,,
https://www.britishveteranowned.co.uk/business-profile?recordId=recetPBf766AidD6R,PADS Auto and Marine Detailing,+447774520175,padshampshire@mail.com,www.padsprofessionalautodetailings.godaddysites.com/,,,,https://www.instagram.com/padshampshire/,https://www.facebook.com/padshampshire,https://twitter.com/padshampshire,,,,,,,,,,,,"Lonsdale Avenue,",,50.84258,-1.05942,PO6 2PU,UK,,Hampshire,Portsmouth,,,,
https://www.britishveteranowned.co.uk/business-profile?recordId=reci2fmfEL8bf8u3q,Palmer Lim Chartered Surveyors,+442084068406,steve.palmer@palmerlim.com,www.palmerlim.co.uk/,,,,,,,,,,,,,,,,,,"Unit 128, Capital Business Centre, 22 Carlton Road, South Croydon, CR2 0BS",,51.35303,-0.09388,CR2 0BS,UK,,Croydon,,,,,
https://www.britishveteranowned.co.uk/business-profile?recordId=rec5a4msO5FNiQ9oo,Patricia Rose Charters Ltd,+447967002445,mail@patriciarosecharters.com,www.patriciarosecharters.com,,,,https://www.instagram/PatriciaRosecharters,https://www.facebook.com/PatriciaRosecharters,https://twitter.com/patrosecharters,,,,,,,,,,,,2 Third Avenue,,50.36838,-4.08078,PL9 8AN,UK,,Devon,Plymouth,,,,
https://www.britishveteranowned.co.uk/business-profile?recordId=recMGIqQUTAF93iNB,Powder Monkey Brewing Co ,02392 522126 ,,www.powdermonkeybrewing.com,,,https://uk.linkedin.com/company/powder-monkey-brewing-co,https://www.instagram.com/powdermonkeybrewingco,https://www.facebook.com/PMBrewCo/,https://twitter.com/PMBrewCo,,,,,,,,,,,,"Priddy's Hard, Heritage Way",,50.8084,-1.12772,PO12 4FL,UK,,Hampshire,Gosport,,,,
https://www.britishveteranowned.co.uk/business-profile?recordId=recqVWtZtQr96fan8,Power Control & Automation Solutions Ltd,+441143177939,sturner@pcasltd.com,www.pcasltd.com,,,https://uk.linkedin.com/company/pcasltd,,,,,,,,,,,,,,,Tinsley Park Close,,53.39901,-1.40998,S9 5DE,UK,,South Yorkshire,Sheffield,,,,
https://www.britishveteranowned.co.uk/business-profile?recordId=recBqEy0xmlwnXeAP,Protective Security Training & Consultancy ,,paulparker149@gmail.com,https://www.britishveteranowned.co.uk/business-profile?recordId=recBqEy0xmlwnXeAP,,,,,,,,,,,,,,,,,,,,,,L5 2RB,UK,,Merseyside ,Liverpool,,,,
https://www.britishveteranowned.co.uk/business-profile?recordId=recMWa0LpBCx3C3qf,PT Booker,,,www.ptbooker.co.uk,,,https://www.linkedin.com/company/ptbooker/,https://instagram.com/ptbookerapp?igshid=YmMyMTA2M2Y=,https://www.facebook.com/ptbookerapp,https://twitter.com/ptbooker?s=21&t=0FgXdlbqwZmaEfosUpJr9Q,,,https://www.youtube.com/@PT_BookerLtd,,,,,,,,,,,,,,UK,,,,,,,
https://www.britishveteranowned.co.uk/business-profile?recordId=recifCQrXyEqRBctC,Raffeen Renovations,+447525480841,raffeenrenovations@gmail.com,https://www.britishveteranowned.co.uk/business-profile?recordId=recifCQrXyEqRBctC,,,,https://www.instagram.com/raffeen_renovations,https://www.facebook.com/raffeenrenovations,,,,,,,,,,,,,"Raffeen, Golden Smithies Lane",,53.4972,-1.31766,S63 7ER,UK,,South Yorkshire,Rotherham,,,,
https://www.britishveteranowned.co.uk/business-profile?recordId=recxGCqmWsnduvJ8p,Really Awesome Coffee - Westbury,+447850071810,westbury@reallyawesomecoffee.co.uk,www.reallyawesomecoffee.co.uk/book-a-coffee-van/westbury/,,,,https://www.instagram.com/reallyawesomecoffee/,https://www.facebook.com/reallyawesomecoffeewestbury,https://twitter.com/awesomecoffee,https://www.pinterest.co.uk/reallyawesomeco/,,,,,,,,,,,14 Athelney avenue,,51.26904,-2.17958,BA13 3GU,UK,,Wiltshire,Westbury,,,,
https://www.britishveteranowned.co.uk/business-profile?recordId=recURSXQr2Dk2nsF9,Reflections valeting and detailing,+447813703984,reflectionsvehicleservices@gmail.com,www.reflectionsdetailing.co.uk,,,,,https://www.facebook.com/profile.php?id=100093990511963,,,,,,,,,,,,,1 boundary Street Warrington Cheshire wa1 3dd,,53.40025,-2.56782,Wa1 3dd,UK,,Cheshire,Warrington,,,,
https://www.britishveteranowned.co.uk/business-profile?recordId=reczI5072kbr0iCY0,Rifles Security Solutions Ltd,,lee@riflessecuritysolutions.com,https://www.britishveteranowned.co.uk/business-profile?recordId=reczI5072kbr0iCY0,,,,,,,,,,,,,,,,,,,,,,,UK,,,,,,,
https://www.britishveteranowned.co.uk/business-profile?recordId=recyc3zaXVxsLLeH6,Rubico Associates ,0330 043 0185,,www.rubicoassociates.com,,,https://uk.linkedin.com/company/rubico-associates-security,https://www.instagram.com/rubicoassociates/,https://www.facebook.com/RubicoAssociate/,https://twitter.com/rubicoassociate,,,,,,,,,,,,1 Northumberland Avenue ,,51.50719,-0.127,WC2N 5BW,UK,,Greater London ,London ,,,,
https://www.britishveteranowned.co.uk/business-profile?recordId=recYqiKwz3HwwVA4a,RV1 Veteran Gin,0203 6338525,,www.rv1group.com,,,https://murrayyeatman.com/shop/gin/rv1-veteran-gin/,https://murrayyeatman.com/shop/gin/rv1-veteran-gin/,https://murrayyeatman.com/shop/gin/rv1-veteran-gin/,,,,,,,,,,,,,Redhill High Street ,,51.24034,-0.1681,RH1 1RJ,UK,,Surrey ,Redhill ,,,,
https://www.britishveteranowned.co.uk/business-profile?recordId=recb1n6nd6dUwcbw1,Safety Risk Solutions ,,,www.safetyrisksolutions.co.uk,,,https://www.linkedin.com/company/76104021/admin/feed/posts/,https://www.instagram.com/safetyrisksolutions_ltd/,https://www.facebook.com/SafetyRiskSolutionsUK,,,https://www.tiktok.com/@safetyrisksolutions,,,,,,,,,,,,,,,UK,,,,,,,
https://www.britishveteranowned.co.uk/business-profile?recordId=rec0ESGta24e7MuNa,Scan Assure Medical Ultrasound Ltd,+441204322509,info.scanassure@nhs.net,www.scanassure.co.uk,,,,,,,,,,,,,,,,,,Lowry Hotel,,53.62275,-2.29942,M3 5LH,UK,,Greater Manchester,Manchester,,,,
https://www.britishveteranowned.co.uk/business-profile?recordId=rec7dNn9r9UKDdu5R,Sharpe Safety Limited,+447970782897,ian@sharpesafety.co.uk,https://www.britishveteranowned.co.uk/business-profile?recordId=rec7dNn9r9UKDdu5R,,,,,,,,,,,,,,,,,,4 Low Dowfold,,54.71997,-1.73525,DL15 9AE,UK,,Co Durham,Crook,,,,
https://www.britishveteranowned.co.uk/business-profile?recordId=receVFftmyiOmXz4G,"SHAW (Safety, Health and Wellbeing) Group UK Ltd",+441513455445,info@shawgroupuk.com,https://shawgroupuk.com/,,,,https://www.instagram.com/shawgroup_uk/,https://www.facebook.com/SHAWGroupUK/,https://www.twitter.com/SHAWGroupUK,,,,,,,,,,,,"North Mersey Business Centre, Woodward Road",,53.48976,-2.85038,L33 7UY,UK,,Merseyside,Liverpool,,,,
https://www.britishveteranowned.co.uk/business-profile?recordId=recppm2Wq2yOMp3r3,Silverback Security ltd,+447494833983,silverbacksecurity@btinternet.com,https://www.britishveteranowned.co.uk/business-profile?recordId=recppm2Wq2yOMp3r3,,,,,,,,,,,,,,,,,,16 Aelfryn Llanharry,,51.51268,-3.43416,CF72 9LQ,UK,,RCT,Llanharry,,,,
https://www.britishveteranowned.co.uk/business-profile?recordId=rec5fBhHfOdVgOYbi,Slaters Sweeps and Stoves,+447799704057,info@slaterssweeps.co.uk,www.slaterssweeps.co.uk,,,,https://www.instagram.com/slaterssweepsandstoves,https://www.facebook.com/profile.php?id=100094999400060,,,,,,,,,,,,,North Street,,51.44167,-2.00588,SN11 0HH,UK,,Wiltshire,Calne,,,,
https://www.britishveteranowned.co.uk/business-profile?recordId=recY36k9AfM6bPFap,Soter H.R.M Ltd,+447811374300,shaun@soterhrm.com,www.soterhrm.com,,,https://www.linkedin.com/in/shaun-baker-344754278,https://www.linkedin.com/in/shaun-baker-344754278,https://facebook.com/100092040772052,https://twitter.com/,,,,,,,,,,,,"""Llanjoy"" West Road",,52.69105,-2.46102,TF2 0DJ,UK,,Shropshire,Telford,,,,
https://www.britishveteranowned.co.uk/business-profile?recordId=recdKKaaWp4h97hgb,Stand & Deliver Militaria Ltd,,stand.delivermilitaria24@gmail.com,https://www.britishveteranowned.co.uk/business-profile?recordId=recdKKaaWp4h97hgb,,,,,https://www.facebook.com/profile.php?id=61558088687047,,,,,,,,,,,,,"Flat 3,43 Champion Road",,51.55843,0.247316,RM14 2SZ,UK,,Essex,Upminster,,,,
https://www.britishveteranowned.co.uk/business-profile?recordId=recpdbLIkBxpTJOcM,Stenton Shortt,07801576402,,www.etsy.com/uk/shop/BalmistryUK,,,,https://www.etsy.com/uk/social-tracking?network=instagram,https://www.etsy.com/uk/social-tracking?network=facebook,https://www.etsy.com/uk/social-tracking?network=twitter,https://www.etsy.com/uk/social-tracking?network=pinterest,,https://www.etsy.com/uk/social-tracking?network=youtube,,,,,,,,,83 West Carr road,,53.31805,-0.95253,DN22 7NW,UK,,Nottinghamshire ,Retford ,,,,
https://www.britishveteranowned.co.uk/business-profile?recordId=recnYtKcq9uApYy5d,Stootz Printing,07379402322,stootzprinting@gmail.com,www.Stootzprinting.co.uk,,,,instagram.com/stootzprinting,facebook.com/stootzprinting,twitter.com/stootzp,,,,,,,,,,,,,,,,,UK,,,,,,,
https://www.britishveteranowned.co.uk/business-profile?recordId=reclTxAKW9vSRUoFi,Stu's Outdoor Skills,,stusoutdoorskills@gmail.com,,,,,,https://www.facebook.com/StusOutdoorSkills/,,,,,,,,,,,,,,,,,RH2 7NG,UK,,Surrey,Reigate,,,,
https://www.britishveteranowned.co.uk/business-profile?recordId=recpjbQ7eyf5DFr0S,Sublimitprint Ltd,01777 566463,,www.Sublimitprint.co.uk,,,https://www.linkedin.com/mwlite/company/sublimitprint-ltd,https://www.instagram.com/sublimitprint_ltd/,http://www.facebook.com/sublimitprint,,,,,,,,,,,,,Unit 1a Welbeck Court,,53.33515,-0.95409,DN22 7RA,UK,,,Retford,,,,
https://www.britishveteranowned.co.uk/business-profile?recordId=recuJxSg4FCUz70w8,talentkube,+441323576787,stephen@talentkube.com,www.talentkube.com,,,https://www.linkedin.com/company/talentkube/,,,,,,,,,,,,,,,"3rd Floor 86-90 Paul Street, London, England, EC2A 4NE",,51.52562,-0.08363,EC2A 4NE,UK,,Greater London,London,,,,
https://www.britishveteranowned.co.uk/business-profile?recordId=recs6ZlSLFFisiMwm,Tamar Safety,+441822833534,info@tamarsafety.com,www.tamarsafety.com,,,https://www.linkedin.com/company/tamarsafety,https://www.instagram.com/tamarsafety,https://www.facebook.com/tamarsafety,,,,,,,,,,,,,,,,,9JB,UK,,,,,,,
https://www.britishveteranowned.co.uk/business-profile?recordId=recoYLSmz9r0GQbqc,The 1:1 Diet by Cambridge Weight Plan with Nic & Stu,,one2onediet.nicandstu@gmail.com,Linktr.ee/NicAndStu,,,https://linkedin.com/in/nicolafr,https://instagram.com/One2OneDiet.NicAndStu,https://facebook.com/One2OneDiet.NicAndStu,https://x.com/on2onediet_thefrs,,,https://youtube.com/channel/UCTatvhZRZ-E6UzeGhqIAEBQ,,,,,,,,,,,,,RH4 2DP,UK,,Surrey,Dorking,,,,
https://www.britishveteranowned.co.uk/business-profile?recordId=recQBxVqXANjeweOU,The EcoPro Construction Group,,,https://www.britishveteranowned.co.uk/business-profile?recordId=recQBxVqXANjeweOU,,,,,,,,,,,,,,,,,,,,,,,UK,,,,,,,
https://www.britishveteranowned.co.uk/business-profile?recordId=recYUYApzqcqei5ey,The Manchester Wax Company,07913602996,,www.mcrwaxco.shop,,,,http://instagram.com/mcrwaxco,https://facebook.com/mcrwaxco,,https://pinterest.com/mcrwaxco,https://tiktok.com/@mcrwaxco,,,,,,,,,,4 Grosvenor Road,,53.44978,-2.35684,M41 5AQ,UK,,Greater Manchester,Manchester,,,,
https://www.britishveteranowned.co.uk/business-profile?recordId=recxMXbrRAVsqjDZj,TheCraftyBlackDog,,info@thecraftyblackdog.co.uk,www.thecraftyblackdog.co.uk,,,,,,,,,,,,,,,,,,,,,,PL6 6QN,UK,,Devon,Plymouth,,,,
https://www.britishveteranowned.co.uk/business-profile?recordId=recNGWqndDp88rRG2,Timothy Charles Dental Tourism Agency,+447584093040,tim.rowley@tcdentaltours.com,www.tcdentaltours.com,,,https://www.linkedin.com/company/tc-dental-tourism-agency/,https://www.insagram.com/tim_tcdental,https://www.facebook.com/tcdentaltours?mibextid=LQQJ4d,,,,,,,,,,,,,12 Counthorpe,,52.7707,-0.50901,NG33 4QD,UK,,Lincolnshire,Grantham,,,,
https://www.britishveteranowned.co.uk/business-profile?recordId=recGsjvABifAqlNDV,Ubique Engineering Services Ltd,+441553824410,ubique@engineer.com,www.ubiqueengineeringservices.co.uk,,,https://www.linkedin.com/in/thomas-coleridge-322879239/,,https://www.facebook.com/p/Ubique-Engineering-Services-100057581795823/,,,,,,,,,,,,,8 Abbey Lakes Close,,52.6917,0.527163,PE32 1FN,UK,,Norfolk,Kings Lynn,,,,
https://www.britishveteranowned.co.uk/business-profile?recordId=recoAwbDdQ8wFmBoT,Veteranknots ltd,+447879928178,info@veteranknots.co.uk,www.veteranknots.com,,,,https://www.instagram.com/veteranknots?igsh=MXgwN2ZmYzV6bnZjMg==,https://www.facebook.com/VeteranKnotsrum,,,,,,,,,,,,,18 Lytles Close,,53.55321,-3.05649,L37 4BT,UK,,Liverpool,Liverpool,,,,
https://www.britishveteranowned.co.uk/business-profile?recordId=recx66ktMsMIO8x5s,Vetren Energy Ltd,01743612068,,www.vetrenenergy.co.uk,,,https://www.linkedin.com/in/vetren-energy-57b284262/,https://www.instagram.com/vetrenenergy/,https://www.facebook.com/vetrenenergy,https://twitter.com/VetrenL,,,,,,,,,,,,Little Oxon Lane,,52.7154,-2.80384,SY35AQ,UK,,Shropshire,Shrewsbury,,,,
https://www.britishveteranowned.co.uk/business-profile?recordId=recfzqsNlvaKFNb1J,Wigan Hearing,,Info@wiganhearing.co.uk,wiganhearing.co.uk,,,,,,,,,,,,,,,,,,,,,,WN58QH ,UK,,Lancs,Wigan,,,,
https://www.britishveteranowned.co.uk/business-profile?recordId=recPZ9YEGE2vS6tWt,Wye Counselling and Psychotherapy ,+447474139800,wyecounsellingandpsychotherapy@gmail.com,www.wyecounsellingandpsychotherapy.co.uk,,,,,,,,,,,,,,,,,,29 Daffodil Wood ,,52.14718,-3.41396,LD2 3LE,UK,,Powys,Builth Wells,,,,