Brand Organization Email Extension,Tenant Organization Email Extension,Brand Location Number,Tenant Location Number,Name,Phone,Email,Website,Address Line one,Address Line Two,Latitude,Longitude,Zip Code,Country,State,County,Municipality - Place,Notes
britishlegion.org.uk,,,,Abbots Langley,,,,,,,,WD5 0LN,United Kingdom,,,,"Abbots Langley Branch meets at The Working Mens Club, 21 Trowley Rise, Abbots Langley WD5 0LN  07527 213 921 on the first Tuesday of the month at 7-30pm for 8pm."
britishlegion.org.uk,,,,Aberaeron RBL,,,,,,,,,United Kingdom,,,,The Aberaeron Branch meets at 19:30 on the first Friday of each month at the Royal British Legion Hall in Aberaeron.
britishlegion.org.uk,,,,Aberdare RBL,,,,,,,,,United Kingdom,,,,Aberdare Branch meets at 7.30pm on the last Monday of every month at the RAF Association Club in Aberdare.
britishlegion.org.uk,,,,Aberystwyth RBL,,,,,,,,,United Kingdom,,,,Aberystwyth Branch meets every 2nd month on the 3rd Thursday in the month at the The Railway Club in Aberystwyth. On the month we don't meet  there we have an organised Branch outing or event like Clay pigeon shooting or a trip to the likes of the Royal Mint or National Arboretum. Please check the events page to keep updated.
britishlegion.org.uk,,,,Ackworth-Pontefract RBL,,,,,,,,,United Kingdom,,,,"Ackworth and Pontefract Branch meets on the first Sunday of each month at the Ackworth Social Club, 52 Wakefield Road in Ackworth."
britishlegion.org.uk,,,,Albrighton RBL,,,,,,,,,United Kingdom,,,,"Albrighton Branch meets at the The Royal in Delaware Avenue, Albrighton. Wolverhampton. West Midlands."
britishlegion.org.uk,,,,Aldershot RBL,,,,,,,,,United Kingdom,,,,We meet on the 2nd Tuesday of every even month at 1945 and the venue will be promulgated on the Aldershot RBL Facebook page or by emailing the Secretary.
britishlegion.org.uk,,,,Alphington RBL,,,,,,,,EX2 8TF,United Kingdom,,,,"Alphington & District Branch meets at 7.30pm on the first Tuesday of every other month, starting February 2022, at The Royal British Legion Club, 1 Legion Way, Alphington, Exeter, EX2 8TF."
britishlegion.org.uk,,,,Abbots Langley RBL,,,,,,,,WD5 0LN,United Kingdom,,,,"Abbots Langley Branch meets at The Working Mens Club, 21 Trowley Rise, Abbots Langley WD5 0LN  07527 213 921 on the first Tuesday of the month at 7-30pm for 8pm."
britishlegion.org.uk,,,,Abercarn RBL,,,,,,,,,United Kingdom,,,,Abercarn Branch meets on the last Wednesday of every month at 7:30pm at Abercarn Workingmens Club in Abercarn.
britishlegion.org.uk,,,,Aberdulais RBL,,,,,,,,SA10 8ES,United Kingdom,,,,"Aberdulais Branch meets every [month] at [time] at the Lock House, Riverside, Aberdulais SA10 8ES."
britishlegion.org.uk,,,,Accrington RBL,,,,,,,,BB5 2NJ,United Kingdom,,,,"We meet at Poplar Social Club, 142 Wellington St, Accrington BB5 2NJ on the last Sunday of every month at 12:30pm."
britishlegion.org.uk,,,,Acle & District,,,,,,,,,United Kingdom,,,,Branch meets at 1900hrs every first Wednesday of the month.
britishlegion.org.uk,,,,Aldbury RBL,,,,,,,,HP23 5RT,United Kingdom,,,,"Aldbury Branch normally meets on the last Friday of each month at the Greyhound Inn Aldbury HP23 5RT - but the Secretary or one of the Committee can be found there most afternoons in the public bar so introduce yourself and make contact, all are welcome or contact our Secretary directly at astephenson.britishlegion@gmail.com"
britishlegion.org.uk,,,,Aldridge RBL,,,,,,,,WS9 8LY,United Kingdom,,,,"Aldridge Branch meets at 7.30pm on the fourth Monday of every month at The Turtles Head, 14 Croft Parade Aldridge WS9 8LY"
britishlegion.org.uk,,,,Alrewas RBL,,,,,,,,,United Kingdom,,,,
britishlegion.org.uk,,,,Alsager RBL,,,,,,,,,United Kingdom,,,,"Alsager Branch meets on the first Sunday of each month at Alsager Social Club, Longview Avenue, Alsager. Meetings start at 10.45 a.m. Membership is open to everyone. If you have an interest in the objectives of the Legion and want to help and support for those who have served and their families, come and join us. We welcome men and women of all ages, whether they have served in the Armed Forces or not."
britishlegion.org.uk,,,,Amesbury RBL,,,,,,,,SP4 7PE,United Kingdom,,,,"Amesbury Branch meets at The Boscombe Down Recreation Club, Lyndhurst Road, Amesbury SP4 7PE."
britishlegion.org.uk,,,,Andover RBL,,,,,,,,,United Kingdom,,,,"We meet every month on the first Monday of the month, the meeting starts at 19:30 hours at The Royal British Legion Club, 4 Western Road.(entrance via Osborne Road)"
britishlegion.org.uk,,,,Arnold RBL,,,,,,,,,United Kingdom,,,,
britishlegion.org.uk,,,,Ashburton RBL,,,,,,,,,United Kingdom,,,,"Branch meets at 7.30pm on the first Monday of every month at The Royal British Legion Hut in Blogishay Lane, Ashburton."
britishlegion.org.uk,,,,Ashton Under Lyne RBL,,,,,,,,,United Kingdom,,,,"Ashton under Lyne Branch meets on the 3rd Tuesday of every month at The Broadoak Hotel, Ashton-under-Lyne, commencing at 7:00pm."
britishlegion.org.uk,,,,Atherton RBL Branch,,,,,,,,,United Kingdom,,,,
britishlegion.org.uk,,,,Austin RBL,,,,,,,,,United Kingdom,,,,
britishlegion.org.uk,,,,Alton,,,,,,,,,United Kingdom,,,,Branch meets on Second Tuesday of the Month at Alton RBL Club.
britishlegion.org.uk,,,,Ammanford,,,,,,,,,United Kingdom,,,,"Branch meets at 19:00hrs on the third Monday of every month at the Ammanford Social Club (The Pick) in Wind Street, Ammanford"
britishlegion.org.uk,,,,Arley RBL,,,,,,,,CV7 8PU,United Kingdom,,,,"Arley Branch meets at 11:00 am on the 1st Sunday of each month, except January, August and November, at the Wagon Load of Lime, Ansley Lane Arley Coventry Warwickshire CV7 8PU."
britishlegion.org.uk,,,,Arundel & District RBL,,,,,,,,,United Kingdom,,,,Branch members meet at 7 p.m. every three months at The Norfolk Centre.
britishlegion.org.uk,,,,Ashby De La Zouch RBL,,,,,,,,LE65 2GW,United Kingdom,,,,"Ashby de la Zouch & District Branch meets at 7:30 pm first Tuesday of months: Feb, Apr, Jun, Sep, Oct (AGM) & Dec  at the Ivanhoe Social Club, 1 Wilfred Place, Ashby de la Zouch, NW Leicestershire, LE65 2GW."
britishlegion.org.uk,,,,Ashwell & District RBL,,,,,,,,,United Kingdom,,,,Ashwell & District Branch Committee meet at regular intervals throughout the year to arrange dates and events. Please check our notice board in the village (Just along from Days Bakery) for details.
britishlegion.org.uk,,,,Attleborough RBL,,,,,,,,,United Kingdom,,,,"Attleborough Branch meets every other month on the second Wednesday at 1900hrs in The London Tavern, Attleborough."
britishlegion.org.uk,,,,Axminster RBL,,,,,,,,,United Kingdom,,,,"Branch meets at 1915 every 4TH Thursday of each month (except August and December) at the Axminster Conservative Club, Silver Street, Axminster, EX13 5AE"
britishlegion.org.uk,,,,Aylesbury RBL,,,,,,,,HP21 8AD,United Kingdom,,,,"Aylesbury Branch meets at 19:30 every fourth Wednesday of the month at The Rivets Sports and Social Club, Aylesbury, Whitehead Way, HP21 8AD."
britishlegion.org.uk,,,,Ballymoney,,,,,,,,,United Kingdom,,,,Ballymoney Branch meets at 8pm every third Tuesday at the Legion Clubrooms in Ballymoney.
britishlegion.org.uk,,,,Banbury RBL,,,,,,,,,United Kingdom,,,,
britishlegion.org.uk,,,,Banstead & District RBL,,,,,,,,,United Kingdom,,,,
britishlegion.org.uk,,,,Barking RBL,,,,,,,,,United Kingdom,,,,"Branch meets at 19.30 every 1st Monday of the month at the Curzon Community Centre, Bastable Avenue in Barking Essex."
britishlegion.org.uk,,,,Barley Barkway,,,,,,,,,United Kingdom,,,,Branch meets approx. 4/5 times per year in Barley Townhouse.
britishlegion.org.uk,,,,Barnstaple RBL,,,,,,,,,United Kingdom,,,,"Barnstaple meets at 7.30 every third Thursday of every month at the the Barnstaple Social Club in St. George's Road, Barnstaple."
britishlegion.org.uk,,,,Bartestree Sub Branch RBL,,,,,,,,,United Kingdom,,,,Bartestree and District Branch meets every three months at the Cross Keys Inn in Withington.
britishlegion.org.uk,,,,Ballymena RBL,,,,,,,,,United Kingdom,,,,"Ballymena Branch meets on the first Tuesday of January, March, May, September, October and December at 2000 hours in The Services Club Ballymena"
britishlegion.org.uk,,,,Bampton RBL,,,,,,,,,United Kingdom,,,,Bampton Branch meet in our new home The Romany Inn Bampton. OUr AGM is in Dec of each year. Information and contact details can be obtained from the landlord who has direct access to the branch officers.
britishlegion.org.uk,,,,Bangor RBL,,,,,,,,,United Kingdom,,,,Branch meets at 7.00pm every 2nd Monday in the Earl Haig Memorial Hall  41 Hamilton Road Bangor
britishlegion.org.uk,,,,Banwell,,,,,,,,,United Kingdom,,,,"Branch meets at 1930 on the third Thursday of the month except April, July, August and December."
britishlegion.org.uk,,,,Barkingside RBL,,,,,,,,,United Kingdom,,,,Branch meets at 8PM every Two Months at the St Peter’s Church Hall in Aldborogh Hatch.
britishlegion.org.uk,,,,Barnoldswick & District RBL,,,,,,,,,United Kingdom,,,,
britishlegion.org.uk,,,,Barry RBL Branch,,,,,,,,,United Kingdom,,,,Branch meets at The Three Horseshoes St Athan every first Tuesday of each month
britishlegion.org.uk,,,,Barton under Needwood RBL,,,,,,,,DE13 8BB,United Kingdom,,,,"Our branch meets at Holland Sports Club, Potters Way, off Efflinch Lane, Barton under Needwood DE13 8BB quarterly on the second Tuesday (January, April, July, October (AGM)). We also have a Christmas event in December."
britishlegion.org.uk,,,,Baschurch RBL,,,,,,,,,United Kingdom,,,,"The Baschurch, Bomere Heath and District Branch meets at 19.00 every third Tuesday of each month at The New Inn, Baschurch."
britishlegion.org.uk,,,,Beaconsfield RBL,,,,,,,,,United Kingdom,,,,"Beaconsfield Branch meets at 8pm on the first Monday of each month (except for Bank Holidays) in our Club at 55 Candlemas Lane, Beaconsfield. Please come along and meet us if you'd like to join or call in to the Club during opening hours.  Alternatively join online from our Buckinghamshire county website."
britishlegion.org.uk,,,,Becontree and Chadwell Heath District,,,,,,,,,United Kingdom,,,,Women's Section meets 2pm every Wednesday.
britishlegion.org.uk,,,,Beer,,,,,,,,,United Kingdom,,,,Branch meets at 19:00 the 2nd Monday each Month at the Congregational Hall in Beer
britishlegion.org.uk,,,,Benson & Ewelme RBL,,,,,,,,,United Kingdom,,,,"Branch meets at 8pm every second month (Jan, Mar, May, Jul, Sep and Nov)  at the Millstream Centre in Benson."
britishlegion.org.uk,,,,Bere Alston RBL,,,,,,,,PL20 7EJ,United Kingdom,,,,"Branch meets at the Victoria Social Club, Station Road, Bere Alston, PL20 7EJ the 1st Monday of February, April, June, August, October & December"
britishlegion.org.uk,,,,Bexleyheath and Welling RBL,,,http://www.bexleyheathandwellingrbl.co.uk,,,,,,United Kingdom,,,,
britishlegion.org.uk,,,,Billericay RBL,,,,,,,,,United Kingdom,,,,
britishlegion.org.uk,,,,Basingstoke,,,,,,,,,United Kingdom,,,,"The Basingstoke & Overton Branch usually meets at 19.30 on the third Tuesday of each month at the Labour Club in Sandys Road, Basingstoke. Occasionally, that may change.  Forthcoming meeting dates are published on our news page"
britishlegion.org.uk,,,,Beccles RBL,,,,,,,,,United Kingdom,,,,Beccles Branch normally meets at 10.00 on the last Saturday of every month at the Town Hall in Beccles.
britishlegion.org.uk,,,,Bedfont RBL,,,,,,,,,United Kingdom,,,,"Bedfont & Hatton Branch meets every monthly at the RBL Club in New Road, Bedfont."
britishlegion.org.uk,,,,Bedford & District RBL,,,,,,,,MK41 7TW,United Kingdom,,,,"Bedford and District Branch meets at 7.30 p.m on the second Tuesday of the months of January, April, July, and September at the North End Club, Roff Avenue, Bedford MK41 7TW."
britishlegion.org.uk,,,,Belle Vue RBL,,,,,,,,,United Kingdom,,,,Belle Vue Branch meets at 8pm on the last Tuesday of the month at the Frankie’s Belle Vue Social Club in Belle Vue.
britishlegion.org.uk,,,,Bentley With Arksey RBL,,,,,,,,,United Kingdom,,,,Bentley with Arksey Branch meets on the first Wednesday of each month at the Bentley West End Club just off Bentley road Bentley (Map) at 7.30pm.
britishlegion.org.uk,,,,Berkhamsted RBL,,,,,,,,,United Kingdom,,,,
britishlegion.org.uk,,,,Bicester,,,,,,,,,United Kingdom,,,,Bicester and District Branch meets at 7.30pm on the third Thursday of alternate months (except August and December) at the Littlebury Hotel in Bicester.
britishlegion.org.uk,,,,Billingham RBL Branch,,,,,,,,,United Kingdom,,,,"Billingham Branch meets at 1400 on the first Wednesday of every month in The Old Billingham Community Centre, East Avenue, Billingham. There is car parking adjacent to the centre."
britishlegion.org.uk,,,,Bilston,,,,,,,,,United Kingdom,,,,"The Bilston Branch meets at 7.30pm every 4th Tuesday of the month at Bilston Sports and Social Club, Wellington"
britishlegion.org.uk,,,,Bishops Stortford RBL,,,,,,,,,United Kingdom,,,,
britishlegion.org.uk,,,,Blackheath RBL,,,,,,,,,United Kingdom,,,,Branch meets at 8.00pm every second Tuesday of the Month at the Sir Robert Peel Public House in Rowley Regis.
britishlegion.org.uk,,,,Blaina RBL,,,,,,,,,United Kingdom,,,,"Branch meets at 19:00 every first Monday of the month at the Cons High Street, Blaina"
britishlegion.org.uk,,,,Bloxham and District,,,,,,,,,United Kingdom,,,,The Bloxham and District Branch meets at 11am every 2nd Sunday of the month at the Elephant & Castle pub in Bloxham
britishlegion.org.uk,,,,Bodicote RBL,,,,,,,,,United Kingdom,,,,
britishlegion.org.uk,,,,Bordon RBL,,,,,,,,,United Kingdom,,,,
britishlegion.org.uk,,,,Billingshurst RBL,,,,,,,,,United Kingdom,,,,
britishlegion.org.uk,,,,Bishop Auckland RBL,,,,,,,,,United Kingdom,,,,Branch meets at 1330hrs every 3rd Wednesday of the month at the Cockton Hill Working Mans Club in Bishop Auckland.
britishlegion.org.uk,,,,Bisley,,,,,,,,,United Kingdom,,,,"The Branch meets quarterly, in March, June, September and December at the Knaphill"
britishlegion.org.uk,,,,Blackwood and District RBL,,,,,,,,Np12 3JX,United Kingdom,,,,Blackwood & District Branch meets at 7.30pm on the fourth Wednesday of every month at Cefn Fforest Central club 93-95 Cefn Fforest avenue Blackwood Np12 3JX
britishlegion.org.uk,,,,Blandford RBL,,,,,,,,,United Kingdom,,,,Blandford and District Branch Committee meets at 7.30pm every second Wednesday of the month at The Royal British Legion in Blandford.
britishlegion.org.uk,,,,Blyth,,,,,,,,,United Kingdom,,,,
britishlegion.org.uk,,,,Bodmin RBL,,,,,,,,,United Kingdom,,,,
britishlegion.org.uk,,,,Borth RBL Branch,,,http://www.borthcommunity.info/index.php?option=com_content&view=article&id=28%3Athe-royal-british-legion&Itemid=26&lang=en,,,,,,United Kingdom,,,,"Welfare Committee: [Branch officers, Mrs R. Ricketts (vice-chairman), Miss Joy Cook (secretary), Mrs Ellis-Clark] meets in early  December, the Events Planning Committee: [branch officers and Mrs Rosa Davies (secretary), Mr J. Toler, Mr W.G.D. Powell, Mrs A.L.F Sharples] twice a year, the Catering Committee: [branch officers, Mrs M. Griffiths (Catering Manager), Mrs F. Darby, Miss J. Cook, Mrs Ellis Clark, Mrs P. Pearson] meets as required. Deputy Standard Bearer: The Chairperson"
britishlegion.org.uk,,,,Boston & District RBL,,,,,,,,,United Kingdom,,,,
britishlegion.org.uk,,,,Boxted RBL,,,,,,,,,United Kingdom,,,,Boxted Branch Committee meets at 7pm on the first Thursday of every month at the club house in Boxted.
britishlegion.org.uk,,,,Bracknell RBL,,,,,,,,,United Kingdom,,,,
britishlegion.org.uk,,,,Brampton RBL,,,,,,,,,United Kingdom,,,,
britishlegion.org.uk,,,,Bransty,,,,,,,,CA28 6HB,United Kingdom,,,,"Branch meets at 7pm every month at the Ivy Club, Bransty Row, Whitehaven CA28 6HB"
britishlegion.org.uk,,,,Bredon RBL,,,,,,,,,United Kingdom,,,,
britishlegion.org.uk,,,,Bridgend RBL,,,,,,,,,United Kingdom,,,,"Bridgend Branch meets at 1900hrs every 1st Tuesday of the month at the United Services Club in Bridgend, Mid Glamorgan CF31 4JA."
britishlegion.org.uk,,,,Brighstone and District RBL,,,,,,,,,United Kingdom,,,,"Brighstone and District Branch meets bimonthly at 2.00pm at the Wilberforce Hall in Main Road, Brighstone."
britishlegion.org.uk,,,,Bourton on the Water RBL,,,,,,,,,United Kingdom,,,,A small group of retired veterans meet in the hall on Monday mornings from 10am until noon (except bank holidays) - please feel free to join us for a natter - with free tea and biscuits!
britishlegion.org.uk,,,,Brackley RBL,,,,,,,,,United Kingdom,,,,Brackley & District Branch/Committee meets at 7.00 for 7.30pm on the 1st Tuesday every month. The  The next meeting is a Branch/Committee meeting on the 2nd April 2024.
britishlegion.org.uk,,,,Bramley & District,,,,,,,,,United Kingdom,,,,"Branch meets quarterly at 7.30pm. Next meeting is at 1:30 pm on 13th December. It is a Christmas Carolling event open to all. Cost £6 to include Tea/coffee and mince pies. Venue is Cross House adjacent to St James Church, Bramley.."
britishlegion.org.uk,,,,Brandon RBL,,,,,,,,,United Kingdom,,,,
britishlegion.org.uk,,,,Bratton RBL,,,,,,,,,United Kingdom,,,,
britishlegion.org.uk,,,,Bride Valley RBL,,,,,,,,,United Kingdom,,,,Bride Valley Branch meets every month at The Three Horseshoes in Burton Bradstock.
britishlegion.org.uk,,,,Bridgnorth RBL,,,,,,,,WV15 6AF,United Kingdom,,,,"Bridgnorth Branch meets on the third Thursday of each month at 8pm at 6 Bridge Street, Low Town, Bridgnorth WV15 6AF. Royal British Legion/All Forces Club"
britishlegion.org.uk,,,,Brixham,,,,,,,,,United Kingdom,,,,"Brixham Branch meets at 8.00pm every 2nd Thursday of the month at the Brixham Rugby Club, Rea Barn Road, Brixham."
britishlegion.org.uk,,,,Broadstone RBL,,,,,,,,BH18 8AW,United Kingdom,,,,"Broadstone Branch meets at 7.00pm on the first Thursday of each month at the The Broadstone Royal British Legion Club, Tudor Road, Broadstone BH18 8AW."
britishlegion.org.uk,,,,Bromley RBL,,,,,,,,BR1 1DG,United Kingdom,,,,"Bromley Branch meets 2:00pm every third Wednesday of the month at  the 33 London Road, Bromley, Kent BR1 1DG in Bromley."
britishlegion.org.uk,,,,Buckhurst Hill RBL,,,,,,,,,United Kingdom,,,,Buckhurst Hill Branch meets monthly see below
britishlegion.org.uk,,,,Bulwell Branch,,,,,,,,NG6 8UA,United Kingdom,,,,Bulwell Branch meets at The Sports and Social Club (Railway  Club) 40 Bestwood Road Bulwell NG6 8UA.
britishlegion.org.uk,,,,Buntingford RBL,,,,,,,,SG9 9AB,United Kingdom,,,,"Buntingford Branch meets on the second Wednesday every 3 months (January, April, July and October) at The Crown public house on Market Hill, 17 High Street, Buntingford SG9 9AB at 8pm (20.00)."
britishlegion.org.uk,,,,Burbage and Easton Royal,,,,,,,,,United Kingdom,,,,
britishlegion.org.uk,,,,Burnham on Sea RBL,,,,,,,,TA8 1AL,United Kingdom,,,,"Burnham-on-Sea Branch committee meets at 7.00pm on the first Tuesday of every month at their Legion HQ, 15 Victoria St, Burnham-on-Sea TA8 1AL."
britishlegion.org.uk,,,,Burry Port & Pembrey RBL Brnch,,,,,,,,,United Kingdom,,,,Branch meets at 7 pm every 1st Tuesday of the month at 19:00 hrs at the Burry Port & Pembrey Royal British Legion Club Burry Port.
britishlegion.org.uk,,,,Brockenhurst,,,,,,,,,United Kingdom,,,,
britishlegion.org.uk,,,,Bromyard RBL,,,,,,,,,United Kingdom,,,,
britishlegion.org.uk,,,,Buckley RBL,,,,,,,,,United Kingdom,,,,"Branch meets at 1900H BI MONTHLY at the CONSERVITIVE CLUB in Liverpool Rd, BUCKLEY"
britishlegion.org.uk,,,,Bungay RBL,,,,,,,,,United Kingdom,,,,"Bungay Branch meets at 20:00 on the third Monday of every month at The Royal British Legion Club in Priory Lane, Bungay. Map"
britishlegion.org.uk,,,,Burbage,,,,,,,,LE10 2EF,United Kingdom,,,,"Branch meets at 1900 hours every third Thursday of the month at the Red Lion PH in Windsor Street, Burbage, LE10 2EF until 18/08/2022."
britishlegion.org.uk,,,,Burghwallis RBL,,,,,,,,,United Kingdom,,,,
britishlegion.org.uk,,,,Burnley and Padiham RBL Branch,,,,,,,,,United Kingdom,,,,
britishlegion.org.uk,,,,Bury St Edmunds RBL,,,,,,,,,United Kingdom,,,,"Bury St Edmunds Branch meets at 20:00 pm every 2nd Thursday of each month at the  Risbygate Sports Club, address Westley Road, BSE, IP33 3RR"
britishlegion.org.uk,,,,Byfield and District,,,,,,,,NN11 6UT,United Kingdom,,,,"Byfield RBL  once met monthly, mostly on Mondays at 8 p.m. in the The Meeting Room (used to be called ""the lower annexe"") of Byfield Village Hall NN11 6UT BUT sometimes, as our District is scattered across thirteen villages, we meet elsewhere in our area. That's usually in Eydon or Chipping Warden but sometimes we'll surprise everyone and end up in Woodford Halse, or maybe Moreton Pinkney!"
britishlegion.org.uk,,,,Callington and District,,,,,,,,,United Kingdom,,,,Callington & District Branch meets on the second Tuesday of every month (except August - no meeting) at 7.30pm in the Bulls Head Public House function room.
britishlegion.org.uk,,,,Camberley RBL,,,,,,,,,United Kingdom,,,,"Camberley Branch currently meets at the TA Hall, London Road, Camberley with planned evenings from 7-10pm on Thursdays and Fridays."
britishlegion.org.uk,,,,Carlisle & Stanwix RBL,,,,,,,,,United Kingdom,,,,"The Carlisle and Stanwix Branch meets at 7:30pm on the Second Wednesday of the month at the Carlisle ex-Service Club, Albert Street (junction of Victoria Place).See Map"
britishlegion.org.uk,,,,Castle Donington & District RBL Branch,,,,,,,,,United Kingdom,,,,
britishlegion.org.uk,,,,Chaddesden RBL,,,,,,,,,United Kingdom,,,,
britishlegion.org.uk,,,,Chard RBL,,,,,,,,,United Kingdom,,,,
britishlegion.org.uk,,,,Chatteris RBL,,,,,,,,,United Kingdom,,,,"Chatteris Branch meets on the second Monday of every month, 7.30pm at The Working Men's Club in Chatteris."
britishlegion.org.uk,,,,Caldicot RBL,,,,,,,,,United Kingdom,,,,"Caldicot & District Branch meets at 7:30pm every month on the Second Tuesday, at the The Severn View Social Club in Station Road, Caldicot, Monmouthshire."
britishlegion.org.uk,,,,Calverton RBL,,,,,,,,NG14 6JX,United Kingdom,,,,"Calverton & Woodborough Branch meets at 7pm on the second Monday of every month (except August) at the Calverton Working Men's Club in Collyer Road, Calverton NG14 6JX."
britishlegion.org.uk,,,,Camborne RBL,,,,,,,,,United Kingdom,,,,
britishlegion.org.uk,,,,Carnmoney & Glengormley RBL Branch,,,,,,,,,United Kingdom,,,,
britishlegion.org.uk,,,,Castledawson RBL,,,,,,,,,United Kingdom,,,,"Castledawson and District Branch meets at 8pm on the second Monday of every month at the War Memorial Hall, Main Street in Castledawson."
britishlegion.org.uk,,,,Chadwell St Mary,,,,,,,,RM16 4DB,United Kingdom,,,,"The Chadwell St Mary Branch meets at the Delargy Centre, Delargy Close, Chadwell St Mary RM16 4DB on the third Thursday of ever month (except December) at 19.30 Hours - All are welcome"
britishlegion.org.uk,,,,Chatburn RBL,,,,,,,,,United Kingdom,,,,"Chatburn & District Branch doesn't have a club or focal point as it includes the villages of  Chatburn, Downham, Grindleton, Bolton by Bowland, Rimington, Sawley, Waddington and West Bradford. We meet to raise funds for the Poppy Appeal and for social events four to five times a year in various locations rotated through the villages. These include a Spring Lunch, a Cheese and Wine garden Party, an Honour Walk, a quiz and the AGM and all are well supported by friends, neighbours and family."
britishlegion.org.uk,,,,Cheam & Sutton RBL,,,,,,,,,United Kingdom,,,,Cheam & Sutton Branch and Club meets on the following days:-
britishlegion.org.uk,,,,Chelsea & Kensington RBL,,,,,,,,,United Kingdom,,,,
britishlegion.org.uk,,,,Cheriton & Morehall RBL,,,,,,,,,United Kingdom,,,,
britishlegion.org.uk,,,,Chippenham RBL,,,,,,,,,United Kingdom,,,,"Chippenham Branch meets on the Second Wednesday of each month at 1930 and you are welcome to join us in the upstairs function room of Wetherspoons, Chippenham. For dates and times of upcoming meetings and other events, please see the News and Events page. The Branch can be contacted via emails: chippenham.secretary@rbl.community or chippenham.web@rbl.community"
britishlegion.org.uk,,,,Chorley RBL,,,,,,,,,United Kingdom,,,,"Chorley Branch meets at 7.30pm on the third Tuesday of every  month at the Gillibrand, Collingwood Road, Chorley."
britishlegion.org.uk,,,,Church and Oswaldtwistle,,,,,,,,,United Kingdom,,,,Branch meets at 13:00hrs every Quarter at various locations in the community
britishlegion.org.uk,,,,Cinderford RBL,,,,,,,,,United Kingdom,,,,
britishlegion.org.uk,,,,City of Ely RBL,,,,,,,,,United Kingdom,,,,
britishlegion.org.uk,,,,Clacton on Sea RBL,,,,,,,,,United Kingdom,,,,
britishlegion.org.uk,,,,Cheltenham,,,,,,,,GL51 6AF,United Kingdom,,,,"The Cheltenham Branch Office located at 33 Benhall Avenue, Cheltenham GL51 6AF is open most Tuesdays and Fridays from 10.00am until 2.00pm. Members meet on second Thursday of each month (except August) at 7.30pm at the Branch Office."
britishlegion.org.uk,,,,Chinnor & Dist RBL,,,,,,,,,United Kingdom,,,,"Chinnor & District Branch meets at 8.00pm on the first  Wednesday of each month in the Crown Public House, Station  Road, Chinnor."
britishlegion.org.uk,,,,Chipping Campden RBL,,,,,,,,,United Kingdom,,,,Chipping Campden Branch meets Bi monthly on a Friday at 11.00am at The Warringtons Mickleton
britishlegion.org.uk,,,,Christchurch RBL,,,,,,,,,United Kingdom,,,,
britishlegion.org.uk,,,,Churchfield,,,,,,,,,United Kingdom,,,,"The Churchfield Branch meets at 1200 hrs every 3rd Sunday in the Month at the Wilthorpe + Redbrook Community Centre  184 Wilthorpe Road, Barnsley S75 1JR."
britishlegion.org.uk,,,,City of Armagh Branch,,,,,,,,,United Kingdom,,,,"Both Branch and Club Committee's meet on the first Thursday of every month at 7.30pm in our Club premises  12-14 Dobbin Street, Armagh."
britishlegion.org.uk,,,,City of Lincoln RBL,,,,,,,,,United Kingdom,,,,
britishlegion.org.uk,,,,Claines RBL,,,,,,,,,United Kingdom,,,,
britishlegion.org.uk,,,,Clapham Beds RBL,,,,,,,,,United Kingdom,,,,
britishlegion.org.uk,,,,Clavering,,,,,,,,,United Kingdom,,,,"Clavering, Newport & District Branch meets at 8pm every month (except August) at the The Bull pulbic house in Langley Lower Green."
britishlegion.org.uk,,,,Clevedon RBL,,,,,,,,,United Kingdom,,,,
britishlegion.org.uk,,,,Clipstone & Forest Town RBL Branch,,,,,,,,,United Kingdom,,,,Clipstone & Forest Town Branch meets at 10.45am on the first Sunday of each month and alternate their meetings between Clipstone Social Club and  Forest Town Arena.
britishlegion.org.uk,,,,Collingham & Dist RBL,,,,,,,,,United Kingdom,,,,Collingham and District Branch next meets 17 May 2018 at Collingham Village Hall 20.00 .
britishlegion.org.uk,,,,Congleton,,,,,,,,,United Kingdom,,,,"Congleton Branch meet every second Friday except January at the All Ranks mess and Community cafe next to Morrisons Congleton, contact the Secretary for more information Gary Dolman or 07826041347"
britishlegion.org.uk,,,,Copythorne & District RBL,,,,,,,,,United Kingdom,,,,"You will meet many new friends, enjoy a range of enjoyable activities, hear from fascinating guest speakers and experience considerable camaraderie whilst providing support to the men and women of our Armed Forces who need your help."
britishlegion.org.uk,,,,Corsham RBL,,,,,,,,,United Kingdom,,,,"Corsham Branch meets the first Wednesday  of every month at The Royal British Legion Club Corsham in Newlands Road, Corsham."
britishlegion.org.uk,,,,Clapham RBL,,,,,,,,SW4 0NW,United Kingdom,,,,"Clapham Branch meets on the second Monday of  each appropriate month at 20:00 at Cheriton House, 154  Victoria Rise, London SW4 0NW."
britishlegion.org.uk,,,,Clee Hill RBL,,,,,,,,,United Kingdom,,,,Clee Hill & District Branch meets at 8.00pm on the last  Wednesday of every month at the Golden Cross in Clee Hill.
britishlegion.org.uk,,,,Clifton RBL,,,,,,,,,United Kingdom,,,,
britishlegion.org.uk,,,,Coggeshall RBL,,,,,,,,,United Kingdom,,,,
britishlegion.org.uk,,,,Colchester RBL,,,,,,,,,United Kingdom,,,,
britishlegion.org.uk,,,,Colston Bassett RBL,,,,,,,,,United Kingdom,,,,
britishlegion.org.uk,,,,Conisbrough RBL,,,,,,,,,United Kingdom,,,,
britishlegion.org.uk,,,,Corby RBL,,,,,,,,,United Kingdom,,,,
britishlegion.org.uk,,,,Cramlington RBL,,,,,,,,NE23 6QJ,United Kingdom,,,,"Cramlington Branch meets at 7.30pm on the second Monday of every month at Cramlington Village Club, Park Veiw,Cramlington, NE23 6QJ."
britishlegion.org.uk,,,,Crawley,,,,,,,,,United Kingdom,,,,
britishlegion.org.uk,,,,Crewe RBL,,,,,,,,,United Kingdom,,,,
britishlegion.org.uk,,,,Cricklade RBL,,,,,,,,,United Kingdom,,,,
britishlegion.org.uk,,,,Culcheth & Dist RBL,,,,,,,,,United Kingdom,,,,Culcheth Branch meets every month at The Royal British Legion  Club (Village Club) in Culcheth.
britishlegion.org.uk,,,,Cumnor RBL,,,,,,,,,United Kingdom,,,,
britishlegion.org.uk,,,,Darlington RBL,,,,,,,,DL1 2DD,United Kingdom,,,,"Darlington Branch meets at 7.30pm on the fourth Wednesday of each month at the Haughton Le Skerne Club, 25 Haughton Green, Darlington, DL1 2DD.  This is every month with the exception of November, (When the Branch Annual General Meeting is held & followed straight after by a shortened Branch Monthly Members' Meeting) and also December, (When no Branch Monthly Members' Meeting is held)."
britishlegion.org.uk,,,,Darwen RBL,,,,,,,,,United Kingdom,,,,
britishlegion.org.uk,,,,Cranfield RBL,,,,,,,,,United Kingdom,,,,Cranfield Branch meets every third Monday of the month from 8pm at the Cranfield Community Centre Home Farm
britishlegion.org.uk,,,,Crediton,,,,,,,,,United Kingdom,,,,"Crediton Branch meets every 3 months, to find out where and when please contact the branch secretary."
britishlegion.org.uk,,,,Crewkerne RBL,,,,,,,,TA18 8DA,United Kingdom,,,,"The Crewkerne Branch meets at The George Reynolds Centre, Crewkerne, TA18 8DA"
britishlegion.org.uk,,,,Crowborough RBL,,,,,,,,,United Kingdom,,,,
britishlegion.org.uk,,,,Cullybackey RBL,,,,,,,,,United Kingdom,,,,Cullybackey Branch meets at 8:00pm every first Wednesday of each month at the Legion Hall in Main Street Cullybackey.
britishlegion.org.uk,,,,Damerham & Western Downland RBL Branch,,,,,,,,SP6 3HD,United Kingdom,,,,"The Branch meets twice a year in Damerham Village Hall, SP6 3HD: A Spring Meeting in March and the Annual General Meeting in October."
britishlegion.org.uk,,,,Dartmoor,,,,,,,,,United Kingdom,,,,The Branch meets at various location throughout the county quarterly with times varying.
britishlegion.org.uk,,,,Datchet RBL,,,,,,,,,United Kingdom,,,,
britishlegion.org.uk,,,,Daventry RBL,,,,,,,,NN11 4BQ,United Kingdom,,,,"Daventry Branch meets at 7.30pm on the last Thursday of every month at Daventry Conservative Club 39 High St, Daventry, NN11 4BQ"
britishlegion.org.uk,,,,Dawlish,,,,,,,,EX7 9LL,United Kingdom,,,,"Dawlish Branch meet at 2000hrs on the second Thursday of every month at the branch headquarters, 42-44 Park Road, Dawlish, EX7 9LL."
britishlegion.org.uk,,,,Debenham RBL,,,,,,,,IP14 6QN,United Kingdom,,,,"Debenham & District Branch meets at 7.30pm every second month at Dove Cottage, High Street, Debenham, Suffolk IP14 6QN."
britishlegion.org.uk,,,,Devizes RBL,,,,,,,,SN10 3AA,United Kingdom,,,,"Devizes Branch meets at 1945 for 2000 on the third Tuesday of every month at the Wyvern Club, 51 Church Walk, Devizes SN10 3AA."
britishlegion.org.uk,,,,Diss & District RBL,,,,,,,,,United Kingdom,,,,"Diss & District Branch meets at 19:15hrs every 3rd Monday of the month at the Diss & District Bowls Club, Lower Denmark Street, Diss, Norfolk, IP22 4BE.  (Turn into the road next to The Cock Inn Public House. The bowls club is situated behind the pub)."
britishlegion.org.uk,,,,Dover White Cliffs,,,,,,,,,United Kingdom,,,,
britishlegion.org.uk,,,,Downham & District RBL,,,http://www.downham-rbl.org.uk/,,,,,,United Kingdom,,,,
britishlegion.org.uk,,,,Droitwich RBL,,,,,,,,,United Kingdom,,,,
britishlegion.org.uk,,,,Dawley RBL,,,,,,,,,United Kingdom,,,,
britishlegion.org.uk,,,,Deanshanger & Wicken RBL,,,,,,,,MK19 6HP,United Kingdom,,,,The Deanshanger and Wicken CBS meets at Deanshanger Parish Council Offices 3 Hayes Road MK19 6HP.  Our meeting dates are here
britishlegion.org.uk,,,,Dereham & District,,,,,,,,,United Kingdom,,,,The Dereham & District Branch meets at 7.30pm on the first Wednesday of the month at Toftwood Social Club in Toftwood. Doors open at 7.00pm
britishlegion.org.uk,,,,Dinnington & District RBL,,,,,,,,S25 2PS,United Kingdom,,,,"Dinnington & Districts Branch meets on the last Wednesday of every month (except December) at 7.30pm at the Lyric Theatre, 62 Laughton Road, Dinnington, Sheffield. S25 2PS"
britishlegion.org.uk,,,,Dorchester,,,,,,,,DT1 1RR,United Kingdom,,,,"Branch meets quarterly on a Thursday at 7pm at The Dorford Centre, Bridport Road, Dorchester, DT1 1RR."
britishlegion.org.uk,,,,Dowlais RBL,,,,,,,,,United Kingdom,,,,"Dowlais Branch meets every first Tuesday of the  month at the Morlais Tavern, Dowlais, Merthyr Tydfil.     Membership is open to everyone. If you have an interest in  the objectives of the Legion and want to help and support for those  who have served and their families, come and join us. We welcome  men and women of all ages, whether they have served in the Armed  Forces or not."
britishlegion.org.uk,,,,Driffield & Dist RBL,,,,,,,,,United Kingdom,,,,
britishlegion.org.uk,,,,Dromore Branch,,,,,,,,,United Kingdom,,,,"Branch meets at 1900hrs every 1st Monday of each month ….Feb, April, June, Sept, Oct, Nov, Dec."
britishlegion.org.uk,,,,Droxford RBL,,,,,,,,,United Kingdom,,,,
britishlegion.org.uk,,,,Dulverton and District,,,,,,,,,United Kingdom,,,,"Branch meets at 1930hrs monthly at Brushford Village Hall, Brushford."
britishlegion.org.uk,,,,Dunmow & District RBL,,,,,,,,,United Kingdom,,,,"The Dunmow & District Branch meets on the second Wednesday of every month.  If you would like to find out more information, please email Dunmow.Secretary@RBL.Community for further details."
britishlegion.org.uk,,,,Duston RBL,,,,,,,,,United Kingdom,,,,The Duston Branch meets at 7.30pm on the SECOND Thursday of every month at
britishlegion.org.uk,,,,East Barnet RBL,,,,,,,,,United Kingdom,,,,
britishlegion.org.uk,,,,East Grinstead RBL,,,,,,,,,United Kingdom,,,,"East Grinstead Branch meets at 10.30am on the first Thursday of every month at the Legion branch in Station Road, East Grinstead."
britishlegion.org.uk,,,,East Liverpool RBL,,,,,,,,,United Kingdom,,,,East Liverpool Branch meets at 8-15pm on the third Monday of each month at East Liverpool Royal British Legion Club in Liverpool.
britishlegion.org.uk,,,,Eastbourne RBL,,,,,,,,,United Kingdom,,,,
britishlegion.org.uk,,,,Dublin Central Branch,,,,,,,,,United Kingdom,,,,"The Branch meets quarterly in the Republic of Ireland RBL District Office in Molesworth Street, Dublin 2."
britishlegion.org.uk,,,,Dulwich RBL,,,,,,,,SE22 0HR,United Kingdom,,,,"Dulwich Branch meets every four months at 97 Barry Road, East Dulwich London SE22 0HR."
britishlegion.org.uk,,,,Dursley & Cam RBL Branch,,,,,,,,,United Kingdom,,,,The Dursley and Cam Branch meets on the first Sunday of every month at 12 noon in the Walker Room of the Dursley Community Centre. For more details visit our Facebook page.
britishlegion.org.uk,,,,Earl Mountbatten RBL,,,,,,,,,United Kingdom,,,,
britishlegion.org.uk,,,,East Cowes RBL,,,,,,,,,United Kingdom,,,,"Branch meets at 7.45pm on the 2nd Wednesday of every month except January & August at the Victoria Tavern in Clarence Road, East Cowes."
britishlegion.org.uk,,,,East Harling RBL,,,,,,,,,United Kingdom,,,,"East Harling and District Branch meets at 1900hrs on the first Thursday of every month, March to December at the East Harling Social Club in the Rudd room."
britishlegion.org.uk,,,,East Pennard & Dist RBL,,,,,,,,,United Kingdom,,,,
britishlegion.org.uk,,,,Eastcote,,,,,,,,HA4 9SQ,United Kingdom,,,,"Eastcote Branch meets on a quarterly basis at the Royal British Legion, Southbourne Gardens, Eastcote, Middlesex HA4 9SQ."
britishlegion.org.uk,,,,Eastleigh & Chandlers Ford,,,,,,,,SO50 9FD,United Kingdom,,,,"Eastleigh, Chandlers Ford & District Branch usually meets at 7.30pm on the first Monday of each month (except Bank Holidays then the following Monday) at the Eastleigh Working Mens Club in 18 Upper Market Street, Eastleigh SO50 9FD (opposite Sainsbury's).  However, please check our Facebook page for the up-to-date information about meetings RBL Eastleigh, Chandlers Ford & District Branch | Facebook"
britishlegion.org.uk,,,,Eastwood & District RBL,,,,,,,,NG16 3NT,United Kingdom,,,,"Eastwood and District Branch meets at 7pm each month at the Sun Inn, 6 Derby Road, Eastwood NG16 3NT."
britishlegion.org.uk,,,,Elham Valley RBL,,,,,,,,,United Kingdom,,,,"Elham Valley Branch meets at 7.30 every first Thursday of the month at St Mary's Hall, Elham."
britishlegion.org.uk,,,,Faringdon & District,,,,,,,,,United Kingdom,,,,"Faringdon Branch and District meet on the third Wednesday of every month at Faringdon Bowling Club, Gravel Walk, Faringdon, at 7.30pm."
britishlegion.org.uk,,,,Farnsfield RBL,,,,,,,,,United Kingdom,,,,Farnsfield & District Branch meets at 7.30pm on the first Tuesday of every month at the Cricket Club in Farnsfield.
britishlegion.org.uk,,,,Felsted RBL,,,,,,,,,United Kingdom,,,,Felsted Branch meets at 8pm every 2 months at the Club Room in Felsted.
britishlegion.org.uk,,,,Finedon,,,,,,,,NN9 5LG,United Kingdom,,,,"The Finedon, Irthlingborough and District Branch meets at 7.30pm on the first Monday of every month at the Finedon Bowls Club, Wellingborough Road, Finedon NN9 5LG.  Please visit the News and Events tab for a current list of meetings and other events.  If you wish to contact the branch please do so via the Branch Secretary at Finedon.Secretary@rbl.community"
britishlegion.org.uk,,,,Fleet,,,,,,,,,United Kingdom,,,,The Branch was formed on 24th June 1921.  Though we no longer have a clubhouse we are a busy and growing branch.  Members and supporters regularly get together for social and fundraising events.  Socially we meet three times a month:
britishlegion.org.uk,,,,Eastry RBL,,,,,,,,,United Kingdom,,,,Branch meets at 10.50 every 3rd Sunday in the month at the 5 Bells Pub in Eastry Kent.
britishlegion.org.uk,,,,Edington RBL,,,,,,,,,United Kingdom,,,,"Edington Branch meets at 8pm on the first Monday of every  month at The Paulet Arms, Edington. Please see separate list of  dates for 2012 meetings."
britishlegion.org.uk,,,,Exmouth,,,,,,,,,United Kingdom,,,,
britishlegion.org.uk,,,,Farnborough Hants RBL,,,,,,,,GU14 6QB,United Kingdom,,,,"Farnborough Branch meets at 8pm on the 3rd Monday of every month except August and December at The Royal British Legion, 51 Cambridge Road East, Farnborough GU14 6QB."
britishlegion.org.uk,,,,Fawley,,,,,,,,SO45 1EX,United Kingdom,,,,Branch meets at 19.30 on the third Monday every month at the Blackfield Royal British Legion Club in Exbury Road Blackfield Southampton SO45 1EX.
britishlegion.org.uk,,,,Ferndown RBL,,,,,,,,,United Kingdom,,,,The Branch Committee usually meets on the first Tuesday of every second month. Our main aim is liaising with local councils to arrange the Remembrance Parades and Poppy wreath laying. The Committee also raises money for the Poppy appeal.
britishlegion.org.uk,,,,Flackwell Heath & District Branch,,,,,,,,,United Kingdom,,,,
britishlegion.org.uk,,,,Ford & District,,,,,,,,,United Kingdom,,,,
britishlegion.org.uk,,,,Fordingbridge,,,,,,,,,United Kingdom,,,,Branch meets at:
britishlegion.org.uk,,,,Formby RBL,,,,,,,,,United Kingdom,,,,Formby Branch meet at 7:30PM on the Second Monday of each month in a variety of community centres.
britishlegion.org.uk,,,,Frecheville RBL,,,,,,,,S13 7EQ,United Kingdom,,,,"Frecheville Branch meets every third Wednesday of each month at ""The Angel Inn, 59 Sheffield Rd, Sheffield S13 7EQ""  opening with the act of homage at 7:00pm"
britishlegion.org.uk,,,,Galanos RBL Branch,,,,,,,,,United Kingdom,,,,This new branch will specialise in the RBL branch community support programme providing regular opportunities for potential beneficiaries to meet with the team at the Hub.
britishlegion.org.uk,,,,Gloucester City,,,,,,,,,United Kingdom,,,,
britishlegion.org.uk,,,,Goole & Howden RBL,,,,,,,,DN14 6HE,United Kingdom,,,,"Goole & Howden Branch meets at 8.00pm on the 2nd Thursday of every month, at The Charter Club, Pasture Road, Goole, DN14 6HE"
britishlegion.org.uk,,,,Gravesham & Ebbsfleet RBL,,,,,,,,,United Kingdom,,,,Gravesham & Ebbsfleet Branch meets every third Tuesday of the month. Members are welcome to attend these meetings with prior notification to: dannyhawkins4634@yahoo.co.uk
britishlegion.org.uk,,,,Great Harwood RBL,,,,,,,,,United Kingdom,,,,Great Harwood Branch meets at 8.00pm on the second Monday of every month at the Plough Hotel in Great Harwood.
britishlegion.org.uk,,,,Forest Green & Nailsworth RBL,,,,,,,,,United Kingdom,,,,"The Forest Green & Nailsworth Branch meets at 1930 on selected months throughout the year - Jan, Mar, May, Jul, Sep, Oct, Nov and Dec - at the Social Club in Nailsworth."
britishlegion.org.uk,,,,Frampton Cotterell RBL,,,,,,,,,United Kingdom,,,,
britishlegion.org.uk,,,,Frome RBL,,,,,,,,,United Kingdom,,,,
britishlegion.org.uk,,,,Gillingham RBL,,,,,,,,,United Kingdom,,,,
britishlegion.org.uk,,,,Gnosall RBL,,,,,,,,,United Kingdom,,,,
britishlegion.org.uk,,,,Gosport & Alverstoke RBL,,,,,,,,,United Kingdom,,,,"The Branch meetings are normally held on the 2nd Wednesday of each month . We meet in the bar area at 20:00hrs in the RBL club building, 145 Brockhurst Road, Gosport PO123AX."
britishlegion.org.uk,,,,Grays RBL,,,,,,,,RM17 5NL,United Kingdom,,,,Branch meets at 7pm every second Thursday in the month at the RAFA Club in Southend Road Grays Essex RM17 5NL.
britishlegion.org.uk,,,,Great Torrington RBL,,,,,,,,,United Kingdom,,,,"Great Torrington Branch meets at 7pm every 3rd Wednesday of the month at the Conservative Club, 38 South Street, Torrington, EX38 8AB."
britishlegion.org.uk,,,,Greenford RBL,,,,,,,,,United Kingdom,,,,
britishlegion.org.uk,,,,Gresford RBL,,,,,,,,,United Kingdom,,,,Gresford Branch committee meets every first Monday of the Month at the The Royal British Legion in Gresford at 8pm.
britishlegion.org.uk,,,,Hadleigh Suffolk RBL,,,,,,,,,United Kingdom,,,,Hadleigh & District Branch meets at 7.30pm on the first Tuesday of every month at The Royal British Legion in Hadleigh.
britishlegion.org.uk,,,,Hale RBL,,,,,,,,L24 4AX,United Kingdom,,,,"Branch meets at 2000hrs on the First Wednesday of each month at the ""Childe of Hale"" Hotel, Church End, Hale Village, L24 4AX"
britishlegion.org.uk,,,,Halifax RBL,,,,,,,,HX1 5HW,United Kingdom,,,,"Halifax Central Branch meets at 1400hrs every second Thursday of  the month at 4 Hopwood Lane, Halifax HX1 5HW"
britishlegion.org.uk,,,,Halstead,,,,,,,,,United Kingdom,,,,
britishlegion.org.uk,,,,Hamstreet,,,,,,,,TN26 2JH,United Kingdom,,,,Branch meets at 2000 hrs every month at The Sports Pavilion in Hamstreet TN26 2JH.
britishlegion.org.uk,,,,Harlow Town RBL,,,,,,,,,United Kingdom,,,,"Harlow Town Branch Committee meets the first Monday of every month (unless it falls on a Bank Holiday) commencing 1930 hours, at the Radburn Pavilion in Commonside Road, Harlow. Any member is welcome to attend."
britishlegion.org.uk,,,,Greens Norton RBL,,,,,,,,,United Kingdom,,,,"Greens Norton Branch meets at 8pm on the third  Tuesday of the month, on a bi-monthly basis from January at Greens  Norton British Legion Club."
britishlegion.org.uk,,,,Gt Wakering & Dist RBL,,,http://www.wakeringrblc.co.uk/,,,,,,United Kingdom,,,,
britishlegion.org.uk,,,,Hailsham & District RBL,,,,,,,,,United Kingdom,,,,"The branch meets on the second Tuesday of the month, except January and August, in the Hailsham Club in Vicarage Field. See the meetings page for more information. Click Here."
britishlegion.org.uk,,,,Halesowen RBL,,,,,,,,,United Kingdom,,,,
britishlegion.org.uk,,,,Hallamshire RBL,,,,,,,,,United Kingdom,,,,The Hallamshire Branch meets at:
britishlegion.org.uk,,,,Halton RBL,,,https://www.haltonrbl.co.uk/,,,,,,United Kingdom,,,,"Been to a few functions here in the last month and want to say how brilliant I find this place. Cheap drinks, decent food, friendly staff, fab entertainment and everyone was so nice. Very spacious, a great place to meet friends and family. It's our new regular place."
britishlegion.org.uk,,,,Hardwicke RBL,,,,,,,,,United Kingdom,,,,"Hardwicke & District Branch meets every second Wednesday of the month (except August) at The Royal British Legion in Green Lane, Hardwicke."
britishlegion.org.uk,,,,Harpenden RBL,,,,,,,,AL5 2HU,United Kingdom,,,,"Harpenden Branch meets at 7:45pm every third Monday of January, April, July & October at the RBL Club Ltd Headquarters,   21 Leyton Road, Harpenden, Herts AL5 2HU."
britishlegion.org.uk,,,,Hartland RBL,,,,,,,,,United Kingdom,,,,
britishlegion.org.uk,,,,Hartley Wintney RBL,,,,,,,,,United Kingdom,,,,"Branch meets approximately three times annually, but has various social events ( garden party, black tie dinner, casual lunches etc) throughout the year."
britishlegion.org.uk,,,,Haughley RBL Branch,,,,,,,,IP14 3RA,United Kingdom,,,,"We meet the second Thursday of each month at 7.45pm at Haughley United Football club, postcode IP14 3RA."
britishlegion.org.uk,,,,Hawkhurst RBL,,,,,,,,,United Kingdom,,,,
britishlegion.org.uk,,,,Hayle RBL,,,,,,,,,United Kingdom,,,,Branch meets on Mon.Wed.& Fri every week at the Passmore Edwards Institute in Hayle.
britishlegion.org.uk,,,,Hazel Grove,,,,,,,,,United Kingdom,,,,"Branch meets at 19:30hrs every 2nd Thursday of every 2nd month from January at the Civic Hall in Hazel Grove, SK7 4DF."
britishlegion.org.uk,,,,Headingley,,,,,,,,,United Kingdom,,,,"We meet every Wednesday evening in the New Headingley Club. Phone the secretary for further details; veterans, serving, and supporters, are very welcome. Official Members meetings are every SECOND Wednesday of each month starting at 7.30pm. The meetings are not long and members usually spend time afterwards to socialise."
britishlegion.org.uk,,,,Heckmondwike RBL,,,,,,,,,United Kingdom,,,,Our Heckmondwike Branch meets at 7.00 pm every 3rd Thursday of the month in the Community Room of St James Church Heckmondwike.
britishlegion.org.uk,,,,Hartlepool RBL,,,,,,,,,United Kingdom,,,,Branch meets at 7pm every 3rd Tuesday of each month at Ye Olde Durham’s Social Club.
britishlegion.org.uk,,,,Hathersage RBL,,,,,,,,,United Kingdom,,,,
britishlegion.org.uk,,,,Havant RBL,,,,,,,,,United Kingdom,,,,
britishlegion.org.uk,,,,Hayes (Kent) RBL,,,,,,,,,United Kingdom,,,,"Hayes Branch meets on a regular basis at the club house in Station Hill, Hayes."
britishlegion.org.uk,,,,Hayling Island RBL,,,,,,,,,United Kingdom,,,,
britishlegion.org.uk,,,,Hazlemere & District RBL,,,,,,,,,United Kingdom,,,,
britishlegion.org.uk,,,,Headley & District,,,,,,,,GU30 7RU,United Kingdom,,,,"The branch meets at: Passfield Club, Liphook GU30 7RU. (There is no set meeting schedule)."
britishlegion.org.uk,,,,Heddington and Stockley RBL,,,,,,,,,United Kingdom,,,,"Branch meets approximately 3 monthly, locally in the village."
britishlegion.org.uk,,,,Hednesford,,,,,,,,,United Kingdom,,,,"Hednesford Branch meets the 3rd Sunday of the month at 11am.  We meet at Hednesford Ex Serviceman's Club, Anglesey Street, Hednesford."
britishlegion.org.uk,,,,Helmshore RBL,,,,,,,,,United Kingdom,,,,"Helmshore Branch meets on the last Wednesday of every month at Sunnybank Social Club, Helmshore from 8:00pm"
britishlegion.org.uk,,,,Henley In Arden RBL,,,,,,,,,United Kingdom,,,,"Henley in Arden Branch meets at 7.30pm on the first Tuesday of every month at the White Swan in High Street, Henley in Arden."
britishlegion.org.uk,,,,Hereford City North RBL,,,,,,,,,United Kingdom,,,,"Hereford City North Branch meets every month at 7.30pm on the last Monday, except August and December When the last Monday is a Bank Holiday the meeting takes place on the previous Monday. The venue is the Hereford Welsh Social Club, 1 Hinton Road Hereford."
britishlegion.org.uk,,,,Hessle Branch,,,,,,,,,United Kingdom,,,,
britishlegion.org.uk,,,,High Wycombe RBL,,,,,,,,,United Kingdom,,,,"High Wycombe Branch meets at 7.30pm every second Monday of every other month at the Riverside Club, Legion Hall, High Wycombe."
britishlegion.org.uk,,,,Hillingdon & Dist RBL,,,,,,,,,United Kingdom,,,,"Hillingdon & District Branch meets at the Hillingdon British  Legion in Uxbridge Road, Hillingdon, every four to six weeks."
britishlegion.org.uk,,,,Holmes Chapel RBL,,,,,,,,,United Kingdom,,,,
britishlegion.org.uk,,,,Hedon & Dist RBL,,,,,,,,HU12 8JP,United Kingdom,,,,"Hedon & District Branch Committee meets at 7.00pm on the third Monday every month in the Committee Room of our Club, 4 Magdalen Gate, Hedon. HU12 8JP."
britishlegion.org.uk,,,,Hemel Hempstead RBL,,,,,,,,HP2 5DF,United Kingdom,,,,"Hemel Hempstead Branch meets at 8:00pm on the third Tuesday of every other month at The Royal British Legion in Queesway, Hemel Hempstead, HP2 5DF."
britishlegion.org.uk,,,,Henley on Thames RBL,,,https://www.rbl-henley.org/,,,,,RG9 2JA,United Kingdom,,,,"Henley-on-Thames & Peppard Branch meet on the 3rd Tuesday of each month for lunch preceded by a talk at the Henley Rugby Club, Marlow Rd, Henley-on-Thames, RG9 2JA"
britishlegion.org.uk,,,,Hertford,,,,,,,,,United Kingdom,,,,
britishlegion.org.uk,,,,High Ercall RBL,,,,,,,,,United Kingdom,,,,
britishlegion.org.uk,,,,Highworth & Dist RBL,,,,,,,,,United Kingdom,,,,"Highworth & District Branch meet on the first Wednesday of every month in the King and Queen Public House, High Street, Highworth, at 7:30pm."
britishlegion.org.uk,,,,Histon RBL,,,,,,,,CB24 9LJ,United Kingdom,,,,"The Branch meets at 7pm on the first Monday of each month at the RBL Social Club, Saffron Road Histon CB24 9LJ.  The next branch meetings are as follows."
britishlegion.org.uk,,,,Holsworthy RBL,,,,,,,,,United Kingdom,,,,Holsworthy Branch meets at 19:30hrs on the third Wednesday of every month at the Magpie Football & RBL Club in Holsworthy.
britishlegion.org.uk,,,,Holyhead RBL,,,,,,,,LL65 2WH,United Kingdom,,,,"Branch meets at 19:30 every First Wednesday of the month at the Kingsland Community centre, Cyttir RD, LL65 2WH in Holyhead."
britishlegion.org.uk,,,,Honiton,,,,,,,,,United Kingdom,,,,"Honiton Branch meet at 1930hrs, every 2nd Wednesday of each month at The Bee Hive in Honiton."
britishlegion.org.uk,,,,Horley RBL,,,,,,,,,United Kingdom,,,,"Horley Branch meets at 7:30pm on the last Tuesday of every month at the Horley & District Constitional Club, 1 Albert Road, Horley."
britishlegion.org.uk,,,,Horsforth,,,,,,,,,United Kingdom,,,,"Branch meets at 7:30pm every 2nd Tuesday of each month at the Horsforth Conservative Club, Town Street, Horsforth, Leeds, LS18 5BP Except December Tuesday 13th for our Christmas Buffet, all members welcome."
britishlegion.org.uk,,,,Hounslow RBL,,,,,,,,,United Kingdom,,,,The Hounslow Branch meets every 2nd Friday of the month at 8.00pm in Legion Hall Whitton Road.
britishlegion.org.uk,,,,Huddersfield RBL,,,,,,,,,United Kingdom,,,,The Huddersfield Branch of the Royal British Legion meets at 7:30 pm on the second Tuesday of every month at:
britishlegion.org.uk,,,,Hunstanton RBL,,,,,,,,,United Kingdom,,,,"Hunstanton Branch usually meets at 7.30pm on the first Wednesday of every month at the United Services Club in Homefields Road, Hunstanton."
britishlegion.org.uk,,,,Hurstbourne Tarrant,,,,,,,,SP11 0BH,United Kingdom,,,,"Branch meets Third Friday of the month, RBL Club Hurstbourne Tarrant SP11 0BH"
britishlegion.org.uk,,,,Holyport & Dist RBL,,,,,,,,,United Kingdom,,,,
britishlegion.org.uk,,,,Horbury,,,,,,,,,United Kingdom,,,,2nd Monday of the month (excluding November when we meet on the 1st Mon of the month for Remembrance Sunday preparations.)
britishlegion.org.uk,,,,Horndon on the Hill RBL,,,,,,,,,United Kingdom,,,,Horndon on the Hill Branch meet at 8pm on last Tuesday of the month (except December) at the Welcome Club in Stanford le Hope.
britishlegion.org.uk,,,,Horsham,,,,,,,,,United Kingdom,,,,
britishlegion.org.uk,,,,Hoyland & Dist RBL,,,,,,,,S74 9DL,United Kingdom,,,,"Hoyland and District Branch meets at 7:30pm every second Wednesday of each month at the Belmont Working Men's Club, West St, Hoyland, Barnsley S74 9DL. Everyone is welcome to attend meetings of the Hoyland Branch. If you are considering becoming a member of the Hoyland Branch do not hestitate and visit us at our next meeting."
britishlegion.org.uk,,,,Hungerford,,,,,,,,,United Kingdom,,,,
britishlegion.org.uk,,,,Huntingdon,,,,,,,,,United Kingdom,,,,
britishlegion.org.uk,,,,Hythe & Saltwood,,,,,,,,CT21 6EN,United Kingdom,,,,"Hythe & Saltwood Branch meets at 19:00, on the 3rd Wednesday of every month, except August and December, at the Hythe Sports and Social Club at 2 St Leonards Road, Hythe, Kent, CT21 6EN."
britishlegion.org.uk,,,,Ilfracombe RBL,,,,,,,,,United Kingdom,,,,
britishlegion.org.uk,,,,Illogan RBL,,,,,,,,,United Kingdom,,,,"The IIlogan Branch meets every on the first Tuesday of every month at 8.30pm at the Branch Headquarters in Richards Lane,Illogan near Redruth."
britishlegion.org.uk,,,,Isleworth RBL,,,,,,,,TW7 6PA,United Kingdom,,,,"Isleworth Branch meets at 7.30pm on the first Monday of the month at 5-6 North Street, Isleworth TW7 6PA."
britishlegion.org.uk,,,,Ixworth & Dist RBL,,,,,,,,,United Kingdom,,,,"Ixworth and District Branch meets on the last Thursday of every month at 7:30pm at The Greyhound in Ixworth.  Membership is open to everyone. If you have an interest in the objectives of the Legion and want to help and support for those who have served and their families, come and join us. We welcome men and women of all ages, whether they have served in the Armed Forces or not."
britishlegion.org.uk,,,,Kedington & District,,,,,,,,,United Kingdom,,,,
britishlegion.org.uk,,,,Kenilworth RBL,,,,,,,,,United Kingdom,,,,
britishlegion.org.uk,,,,Kimbolton RBL,,,,,,,,,United Kingdom,,,,Kimbolton Branch meets every on the first Tuesday of the month at Kimbolton School (CCF Classroom). This is normally a committee meeting.
britishlegion.org.uk,,,,Kingsbridge RBL,,,,,,,,,United Kingdom,,,,"Kingsbridge & District Branch meets last Wednesday of each month at RBL The Mill Club in Mill Street, Kingsbridge."
britishlegion.org.uk,,,,Ilkeston RBL,,,,,,,,DE7 5GU,United Kingdom,,,,"The Branch meets at the Flamsteed Center, Albert St., Ilkeston, DE7 5GU on the 2nd Friday of the Month at 1930"
britishlegion.org.uk,,,,Ilminster RBL,,,,,,,,,United Kingdom,,,,
britishlegion.org.uk,,,,Ivybridge RBL,,,,,,,,,United Kingdom,,,,
britishlegion.org.uk,,,,Jackfield RBL,,,,,,,,,United Kingdom,,,,Jackfield Branch meets at 11.00am on the first Sunday of eevery other at the Boat Inn in Jackfield.
britishlegion.org.uk,,,,Kelvedon RBL,,,,,,,,,United Kingdom,,,,"Kelvedon Branch is a friendly social group, which holds regular committee meetings, as well as various fundraising and social events. And we organise the selling of poppies at Remembrance time in Kelvedon and Feering. We also get together more informally for drinks during the year, to give everyone a chance to meet and get to know the other members."
britishlegion.org.uk,,,,Kilkeel RBL,,,,,,,,,United Kingdom,,,,"Kilkeel Branch meets on the first Wednesday of the month from September through to June (except January when it's the second Wednesday) at the Kilkeel Royal British Legion Club Ltd., which is on the quayside of Kilkeel Harbour."
britishlegion.org.uk,,,,Kimpton RBL,,,,,,,,,United Kingdom,,,,Kimpton Branch meets at 7.45pm every other month from January at the Boot Public House in Kimpton.
britishlegion.org.uk,,,,Kingsclere,,,,,,,,,United Kingdom,,,,Branch meets at 7pm every 1st Tuesday of the month in Kingsclere. We are in the process of securing a new venue.
britishlegion.org.uk,,,,Kingswood Hanham RBL,,,,,,,,,United Kingdom,,,,
britishlegion.org.uk,,,,Lambley RBL,,,,,,,,,United Kingdom,,,,
britishlegion.org.uk,,,,Lancaster RBL,,,,,,,,LA1 5PE,United Kingdom,,,,"Branch meets at 20:00hr on the last Wednesday of every month, except December at the Community Centre, Sir Thomas Storey House, Story Avenue, Westfield War Memorial Village, West Road, Lancaster LA1 5PE."
britishlegion.org.uk,,,,Langtoft,,,,,,,,,United Kingdom,,,,
britishlegion.org.uk,,,,Lees & District,,,,,,,,,United Kingdom,,,,The Lees & District Branch meets at 7.30pm every last Thursday of the month at the RBL Lees Club in Oldham
britishlegion.org.uk,,,,Leigh on Sea,,,,,,,,,United Kingdom,,,,"The Leigh-on-Sea Branch meets at 8pm every 3rd Monday of the month at the Moose Hall in Cranleigh Drive, Leigh-on-Sea,  Essex SS9 2SY. The Moose Hall has a Bar."
britishlegion.org.uk,,,,Leominster,,,,,,,,,United Kingdom,,,,"Branch meets at 2000 every 2nd Tuesday of the Month at the Leominster Sports & Social Club in South St, Leominster HR6 8JQ."
britishlegion.org.uk,,,,Leytonstone RBL,,,,,,,,,United Kingdom,,,,I’m sure that when our branch is able to meet we will have a moment of reflection at this sad time for the Queen and the Royal Family.
britishlegion.org.uk,,,,Knutsford RBL,,,,,,,,,United Kingdom,,,,Knutsford & District Branch meets bimonthly at the Knutsford Council Office starting January 2023.
britishlegion.org.uk,,,,Lambourn RBL,,,,,,,,RG17 8QD,United Kingdom,,,,"Lambourn Branch meets every month at The Royal British Legion Club in Upper Lambourn Road, Lambourn, Berkshire, RG17 8QD."
britishlegion.org.uk,,,,Lane End RBL,,,,,,,,,United Kingdom,,,,Lane End Branch meets at 07:30pm at the Scout Hut in Wheeler End.
britishlegion.org.uk,,,,Launceston RBL,,,,,,,,,United Kingdom,,,,
britishlegion.org.uk,,,,Lee on Solent RBL,,,,,,,,,United Kingdom,,,,
britishlegion.org.uk,,,,Leigh,,,,,,,,WN7 3NA,United Kingdom,,,,"Leigh Branch meets at 19.00 every third Thursday of the month at Leigh RUFC, Round Ash Park/Hand La, Leigh WN7 3NA."
britishlegion.org.uk,,,,Leighton Buzzard RBL,,,,,,,,LU7 1DA,United Kingdom,,,,"Leighton Buzzard Branch meets at 7.30pm on 1st Thursday of each month at The Royal British Legion Club, West Street Leighton Buzzard Beds. LU7 1DA"
britishlegion.org.uk,,,,Letchworth Gdn City RBL,,,,,,,,,United Kingdom,,,,
britishlegion.org.uk,,,,Limavady RBL,,,,,,,,,United Kingdom,,,,"Limavady Branch meets at 8.00 p.m. every third Tuesday of the month at the United Services Club, Roe Mill Road in Limavady."
britishlegion.org.uk,,,,Lisburn RBL,,,,,,,,,United Kingdom,,,,"Branch meets at 8 pm every second Tuesday Sep to June at the Lisburn RBL in Sackville Street,Lisburn."
britishlegion.org.uk,,,,Liss,,,,,,,,,United Kingdom,,,,Branch meets at:
britishlegion.org.uk,,,,Little Gaddesden RBL,,,,,,,,HP4 1NX,United Kingdom,,,,"The Committee meets in the Centenary Hall, HP4 1NX or the Thomas Field Hall, HP4 1NZ (both in Church Road, Little Gaddesden) once per Quarter on Mondays at 5.30pm."
britishlegion.org.uk,,,,Littleworth & District,,,,,,,,,United Kingdom,,,,Branch meets at1830 every month at the Norton Parish Hall in Littleworth.
britishlegion.org.uk,,,,Llandrinio RBL,,,,,,,,,United Kingdom,,,,
britishlegion.org.uk,,,,Llantwit Major RBL Branch,,,,,,,,,United Kingdom,,,,Branch meets at Llantwit Major Rugby Club @ 19:00hrs every 2nd Monday of each month
britishlegion.org.uk,,,,Long Eaton RBL,,,,,,,,,United Kingdom,,,,"Long Eaton Branch meets on the second and last Sunday of every month at the Curzon Club in Bennett Street, Long Eaton."
britishlegion.org.uk,,,,Lindfield RBL,,,,,,,,,United Kingdom,,,,The Lindfield Branch Committee meets four times a year. We meet at the Tiger in the High Street.
britishlegion.org.uk,,,,Liskeard RBL,,,,,,,,,United Kingdom,,,,"Liskeard Branch meets at 7.00pm on the first Thursday of every month at the RBL Club in Barn Street, Liskeard."
britishlegion.org.uk,,,,Little Common RBL,,,,,,,,,United Kingdom,,,,"The Branch Committee meets at 10.00am on the first Tuesday of the month at the Club in Meads Avenue, Little Common."
britishlegion.org.uk,,,,Littleport RBL,,,,,,,,,United Kingdom,,,,"Littleport Branch committee meets on the second Thursday of the month at 19.30 hours, at The Barn,Main Street car park, Littleport."
britishlegion.org.uk,,,,Llandovery RBL,,,,,,,,,United Kingdom,,,,Branch meets at 1900 on the Last Thursday of every Month at Rugby Club in Llandovery.
britishlegion.org.uk,,,,llandudno RBL,,,,,,,,LL30 1AB,United Kingdom,,,,"Llandudno Branch meets at the Ex-Services Club, Vaughan Street, Llandudno, LL30 1AB every 3rd Monday of the month at 19:30"
britishlegion.org.uk,,,,Londonderry RBL,,,,,,,,,United Kingdom,,,,"Londonderry Branch meets every second Tuesday of the month at the Freemasons Hall, Bishop Street, Londonderry."
britishlegion.org.uk,,,,Long Melford RBL,,,,,,,,CO10 9EH,United Kingdom,,,,"Long Melford Branch meets at Cordell Rd, Long Melford CO10 9EH."
britishlegion.org.uk,,,,Looe RBL,,,,,,,,PL13 2BU,United Kingdom,,,,"Looe Branch meets on the first monday of every month, starting sharp at 7.30pm, in Looe Social Club, Quay Road, West Looe PL13 2BU."
britishlegion.org.uk,,,,Loughbrickland RBL,,,,,,,,,United Kingdom,,,,Loughbrickland Branch meets every Third Tuesday at the Loughbrickland Branch RBL.
britishlegion.org.uk,,,,Lowestoft & District RBL,,,,,,,,NR33 0BY,United Kingdom,,,,"Lowestoft Branch meets at 7.30 pm on the last Thursday of every month at the Lord Kitcheners, 10 Kirkley Cliff, Lowestoft, NR33 0BY."
britishlegion.org.uk,,,,Lyme Regis RBL,,,,,,,,,United Kingdom,,,,
britishlegion.org.uk,,,,Lymm and District,,,,,,,,,United Kingdom,,,,
britishlegion.org.uk,,,,Lytchett United RBL,,,,,,,,,United Kingdom,,,,"Meeting times for the Lytchett United Branch will be published when appropriate. The Branch Committee meets at 8pm on the second Tuesday of every month at the Lytchett United Royal British Legion Club, 93 Dorchester Road, Upton, Poole."
britishlegion.org.uk,,,,Mablethorpe RBL,,,,,,,,,United Kingdom,,,,Mablethorpe & District Branch meets at 7:30pm on the 1st Wednesday of every month (except August) at the Conservative Club in Victoria Road Mablethorpe.
britishlegion.org.uk,,,,Madeley RBL Branch,,,,,,,,,United Kingdom,,,,
britishlegion.org.uk,,,,Lostock Hall RBL,,,,,,,,,United Kingdom,,,,
britishlegion.org.uk,,,,Loughton RBL,,,,,,,,,United Kingdom,,,,
britishlegion.org.uk,,,,Lurgan & Brownlow RBL Branch,,,,,,,,,United Kingdom,,,,
britishlegion.org.uk,,,,Lymington RBL,,,,,,,,,United Kingdom,,,,
britishlegion.org.uk,,,,Lyndhurst RBL,,,,,,,,,United Kingdom,,,,Lyndhurst Branch meets at 7:30pm quarterly at the Workmen's Club in Lyndhurst High Street.
britishlegion.org.uk,,,,Lytham & Ansdell,,,,,,,,FY8 3NP,United Kingdom,,,,"Branch meets at 7pm on the first Wednesday of January, April, July and October (AGM).  Meetings are held at Clifton Gardens, 309 Church Road, Lytham St Annes, Lancashire. FY8 3NP."
britishlegion.org.uk,,,,Macclesfield RBL,,,,,,,,,United Kingdom,,,,"Our Branch meets at the Branch HQ, 76 Chestergate, Macclesfield at 1900 (Nov - Mar) and at 2000 (APR - Oct), on 4th Wednesday of every month except in December where no meeting takes place."
britishlegion.org.uk,,,,Magherafelt RBL,,,,,,,,,United Kingdom,,,,
britishlegion.org.uk,,,,Maldon & Heybridge,,,,,,,,,United Kingdom,,,,The Branch Committee meets at 19.30hrs every 2nd Tuesday of the month at the Maldon Constitutional Club 17 Fambridge Road. Maldon CM9 6AA. Anyone is welcome to attend.
britishlegion.org.uk,,,,Manningtree & District RBL Branch,,,,,,,,,United Kingdom,,,,
britishlegion.org.uk,,,,Mapperley,,,,,,,,,United Kingdom,,,,"Mapperley, Porchester & District Branch meets at 7.15pm every third Friday of the month at the Mapperley Plains Road Social Club in Mapperley, Nottingham."
britishlegion.org.uk,,,,Market Harborough RBL,,,,,,,,,United Kingdom,,,,
britishlegion.org.uk,,,,Marston Moreteyne RBL,,,,,,,,,United Kingdom,,,,"Marston Moreteyne Branch meets at Manor Court Community Room,  Banks Close, Marston Moreteyne on the second Tuesday of each month  at 2.30 pm in the summer months and 7.30pm in the winter  months."
britishlegion.org.uk,,,,Mawdesley RBL,,,,,,,,,United Kingdom,,,,Mawdesley Branch meets as required on a Saturday morning at 10.30am a few times a year at an arranged venue.
britishlegion.org.uk,,,,Mears Ashby RBL,,,,,,,,NN6 0BN,United Kingdom,,,,"The Branch meets at 7.30 pm every second Monday of each month at the Aviator Hotel, Wellingborough Road, Sywell, Northampton NN6 0BN."
britishlegion.org.uk,,,,Merthyr Tydfil RBL,,,,,,,,CF47 9AF,United Kingdom,,,,"Branch meets at 7:00pm every month except August at the Penydarren Social Club in Alexandra Road, Merthyr Tydfil CF47 9AF."
britishlegion.org.uk,,,,Malmesbury RBL,,,,,,,,,United Kingdom,,,,
britishlegion.org.uk,,,,Mansfield Bellamy RBL,,,,,,,,,United Kingdom,,,,"Mansfield Bellamy Branch meets every month (except December) on the 2nd Monday, starting at 1.30pm, at the Trowell Court Centre, Bellamy Road, Mansfield."
britishlegion.org.uk,,,,Mansfield RBL,,,,,,,,NG19 0EE,United Kingdom,,,,"Mansfield Branch meets on the first Wednesday of every month at The Forest Town Arena, Clipstone Road West, Forest Town, NG19 0EE. Meetings start at 7.30pm."
britishlegion.org.uk,,,,Margate RBL,,,,,,,,CT9 1LU,United Kingdom,,,,"Margate Branch meets at 8.00pm on the second  Tuesday of every month at Legion House, 18 St John's  Road, Margate, Kent CT9 1LU.    Membership is open to everyone. If you have an interest in the  objectives of the Legion and want to help and support for those who  have served and their families, come and join us. We welcome men  and women of all ages, whether they have served in the Armed Forces  or not."
britishlegion.org.uk,,,,Marlow RBL,,,,,,,,,United Kingdom,,,,"Marlow Branch meets at 8pm on the first Wednesday of the month at the Royal British Legion Marlow Club in Station Approach, Marlow."
britishlegion.org.uk,,,,Martock RBL,,,,,,,,,United Kingdom,,,,Martock Branch Committee meets at 7.30pm on the first Wednesday of each month usually at Higher Southay Farm in East Lambrook.
britishlegion.org.uk,,,,Mayfield Hadlow Down RBL,,,,,,,,,United Kingdom,,,,"The Mayfield, Five Ashes and Hadlow Down Branch meets at the Mayfield Cricket Pavillion, Wellbrook, Mayfield."
britishlegion.org.uk,,,,Melbourne RBL,,,,,,,,DE73 8FE,United Kingdom,,,,Melbourne Branch meets at 8pm on the last Wednesday of every month at the Melbourne Royal British Legion Club in Melbourne DE73 8FE.
britishlegion.org.uk,,,,Mexborough,,,,,,,,S64 8AE,United Kingdom,,,,"Mexborough, Swinton & Kilnhurst Branch meets at 11.00am on the third Sunday of every month at the Rowms Lane Social Club  Swinton S64 8AE"
britishlegion.org.uk,,,,Midhurst & District,,,,,,,,,United Kingdom,,,,"The Midhurst & District Branch committee usually meets monthly in a member’s home, although these meetings have not been taking place due to Covid-19 restrictions. If you are interested in supporting the RBL in Midhurst, please contact the Branch Secretary, Jackie Travers on jackietravers666@icloud.com or call 01730 858285 or find us on Facebook by searching for @rblmidhurst."
britishlegion.org.uk,,,,Midsomer Norton & Radstock RBL,,,,,,,,,United Kingdom,,,,Midsomer Norton and Radstock Branch meet every fourth Tuesday of the month at Midsomer Norton Social Club at Stones Cross. Meetings commence at 19:30 hrs
britishlegion.org.uk,,,,Milton Keynes & District Jubilee RBL Branch,,,,,,,,,United Kingdom,,,,Milton Keynes Jubilee Branch meets the second Tuesday of every month. We arrange the venue at the previous meeting.
britishlegion.org.uk,,,,Minehead RBL,,,,,,,,,United Kingdom,,,,
britishlegion.org.uk,,,,Morecambe RBL,,,,,,,,,United Kingdom,,,,"The Morecambe & Heysham Branch Committee meets on the third Monday of every month at the York Hotel, 87 Lancaster Road, Morecambe."
britishlegion.org.uk,,,,Mossley Hill RBL,,,,,,,,,United Kingdom,,,,
britishlegion.org.uk,,,,Mousehole RBL,,,http://www.trblmousehole.co.uk/,,,,,,United Kingdom,,,,
britishlegion.org.uk,,,,Mid Torridge RBL,,,,,,,,,United Kingdom,,,,"Mid Torridge Branch meets approximately every six weeks at a venue to be advised in the local area, usually Bob Wards private residence."
britishlegion.org.uk,,,,Middleton RBL,,,,,,,,,United Kingdom,,,,Branch meets at 19:30 every second Monday of the month
britishlegion.org.uk,,,,Midland Counties and Kildare,,,,,,,,,United Kingdom,,,,"From January 2024, the Branch meets on the second Saturday of the months following the quarterly District meeting. All members will be notified in advance of the location and time."
britishlegion.org.uk,,,,Milford on Sea RBL,,,,,,,,SO41 0QG,United Kingdom,,,,"Branch meets at 1630, every 3 months, at the Milford Club, High Street Milford on Sea, SO41 0QG"
britishlegion.org.uk,,,,Minchinhampton RBL,,,,,,,,,United Kingdom,,,,
britishlegion.org.uk,,,,Mitcham RBL,,,,,,,,,United Kingdom,,,,The Branch meets at 19:30 every 2nd Wednesday of each month.
britishlegion.org.uk,,,,Morley RBL,,,,,,,,,United Kingdom,,,,
britishlegion.org.uk,,,,Moulton RBL,,,,,,,,,United Kingdom,,,,
britishlegion.org.uk,,,,Nantwich RBL,,,,,,,,,United Kingdom,,,,
britishlegion.org.uk,,,,Neston RBL,,,,,,,,,United Kingdom,,,,"Neston Branch meets every [month] at our club in Chester Road, Neston."
britishlegion.org.uk,,,,New Romney,,,,,,,,TN28 8DR,United Kingdom,,,,"Branch meets at 1930 hrs every month at the The Broadacre Hotel in North St, New Romney TN28 8DR."
britishlegion.org.uk,,,,Newent RBL,,,,,,,,,United Kingdom,,,,Newent & District Branch meets at 7pm on the fourth Thursday of every month at the Memorial Hall in Newent.
britishlegion.org.uk,,,,Newton Abbot RBL,,,,,,,,,United Kingdom,,,,"Newton Abbot Branch meets at 7:30 pm every 3rd Monday of the Month at the British Legion Club, Marsh Road in Newton Abbot."
britishlegion.org.uk,,,,North Hykeham RBL,,,,,,,,,United Kingdom,,,,
britishlegion.org.uk,,,,Northampton RBL,,,,,,,,,United Kingdom,,,,"The Northampton Branch meets at 7.30pm on the first Wednesday of each month at the Conservative Club in Billing Road, Northampton.."
britishlegion.org.uk,,,,Nuneaton & Stockingford RBL,,,,,,,,,United Kingdom,,,,
britishlegion.org.uk,,,,Needham Market RBL,,,,,,,,IP6 8BB,United Kingdom,,,,"Needham Market Branch meets at 7 for 7.30pm on the last Thursday in the month at the Community Centre in School Street, Needham Market IP6 8BB."
britishlegion.org.uk,,,,New Milton RBL,,,,,,,,,United Kingdom,,,,"Branch meets at 7pm every February, June, September and November at the New Milton Memorial Centre."
britishlegion.org.uk,,,,Newbridge RBL,,,,,,,,,United Kingdom,,,,Newbridge Branch meets at 19.30hrs every 1st Tuesday of new month at the St Paul's Church hall in Newbridge.
britishlegion.org.uk,,,,Newmarket RBL,,,,,,,,CB8 8DY,United Kingdom,,,,"The Branch meets monthly on the first Saturday of the month for a Breakfast Club at the Heath Court Hotel, Moulton Road, Newmarket CB8 8DY at 0900hrs. This event is also open to Veterans and Personnel connected to the Emergency Services.The Branch also has Training sessions, Meetings, Social and other events which are planned throughout the year and are advertised as required."
britishlegion.org.uk,,,,Newtownards RBL,,,,,,,,,United Kingdom,,,,Newtownards Branch meets on the third Wednesday of each  month at the premises in Court Square.
britishlegion.org.uk,,,,North Weald RBL,,,,,,,,CM16 6BU,United Kingdom,,,,"The North Weald Branch meets at 8pm on the third Friday of every other month in the  Village Hall Lounge, North Weald CM16 6BU (dates published on the Branch Facebook page and in the North Weald Village Life Magazine)."
britishlegion.org.uk,,,,Northern Ireland Motor Cycle Branch,,,,,,,,,United Kingdom,,,,
britishlegion.org.uk,,,,Oakengates & Dist RBL,,,,,,,,TF2 6DR,United Kingdom,,,,Branch meets at 1800 on the first Wednesday every month at the Stallard Court community room TF2 6DR.
britishlegion.org.uk,,,,Oakwood RBL,,,,,,,,,United Kingdom,,,,"Oakwood Branch meets every Wednesday 8.30pm at  the Oakwood Community Centre, Springwood Drive,  Oakwood, Derby."
britishlegion.org.uk,,,,Old Basing RBL,,,,,,,,,United Kingdom,,,,
britishlegion.org.uk,,,,Oldbury RBL,,,,,,,,,United Kingdom,,,,
britishlegion.org.uk,,,,Orrell,,,,,,,,WN5 8HY,United Kingdom,,,,"Orrell Branch meets at 7.30pm on the second Tuesday of every month at Pemberton Conservative Club, Park Rd, Pemberton, Wigan, WN5 8HY. If you wish to become a member of Orrell Branch please join online by following the link below.                                                                                             For any further details about Orrell Branch, please email our Branch Chairman David Myers rbl.orrell@aol.com  Membership is open to everyone, you don't have to have served in the Armed Forces to become a member. If you have an interest in the objectives of the Legion and want to help and support for those who have served and their families, come and join us. We welcome men and women of all ages, whether they have served in the Armed Forces or not."
britishlegion.org.uk,,,,Oundle RBL,,,,,,,,,United Kingdom,,,,The Oundle Branch meets at 19.00 every 1st Monday of the month(except Bank Holidays when 2nd Monday and no meetings in July/August). Email Oundle.MemSecretary@RBL.Community for next meeting location.
britishlegion.org.uk,,,,Oxted and District,,,,,,,,,United Kingdom,,,,Branch Members are welcome to meet in the Oxted RBL Club at any time that it is open.
britishlegion.org.uk,,,,Papplewick & Linby RBL,,,,,,,,,United Kingdom,,,,"Papplewick & Linby Branch meets at the Horse and Groom, Linby at 12 noon at two monthly intervals as room available."
britishlegion.org.uk,,,,Pawlett RBL,,,,,,,,,United Kingdom,,,,"Pawlett Branch Committee meets on the third Wednesday of every month except August, at The Royal British Legion Club in Pawlett. If you are interested in joining the Committee to help further the activities and charitable work of the Legion, please get in touch at the email address below, or via the Club Steward."
britishlegion.org.uk,,,,Okehampton RBL,,,,,,,,,United Kingdom,,,,
britishlegion.org.uk,,,,Old Catton,,,,,,,,,United Kingdom,,,,Branch meets at 7pm every 1st Wednesday of the month at a committee member’s home
britishlegion.org.uk,,,,Orpington,,,https://www.rblorpington.co.uk/,,,,,,United Kingdom,,,,
britishlegion.org.uk,,,,Oswestry,,,,,,,,,United Kingdom,,,,"The Home of the Royal British Legion Oswestry Branch is the Oswestry Cricket Club, Morda Road, Oswestry.  The Branch now meets on the second Tuesday of the month between 1000 - 1200 hours, and the last Friday of the month between 1700 - 1900 hours. In addition social and fundraising events will be held and advertised as applicable."
britishlegion.org.uk,,,,Over & District RBL,,,,,,,,,United Kingdom,,,,Over & District Branch meets every alternate month at the Community Centre in Over Village.
britishlegion.org.uk,,,,Paignton RBL,,,,,,,,,United Kingdom,,,,
britishlegion.org.uk,,,,Park Gate,,,,,,,,,United Kingdom,,,,
britishlegion.org.uk,,,,Peaslake RBL,,,,,,,,,United Kingdom,,,,
britishlegion.org.uk,,,,Pelynt & Lanreath RBL,,,,,,,,,United Kingdom,,,,Pelynt & Lanreath Branch meets at 10.30am on the every third Friday of the month for a coffee morning at the Jubilee Inn in Pelynt.
britishlegion.org.uk,,,,Penketh and Great Sankey RBL,,,,,,,,,United Kingdom,,,,
britishlegion.org.uk,,,,Penrith RBL,,,https://www.rblpenrith.org.uk/,,,,,,United Kingdom,,,,
britishlegion.org.uk,,,,Pershore & District,,,,,,,,,United Kingdom,,,,"Branch Committee meets at 19.00 hrs on the last Thursday of alternative months at the The Angel Inn & Posting House, High Street in Pershore."
britishlegion.org.uk,,,,Petersfield RBL,,,,,,,,,United Kingdom,,,,"Petersfield Branch meets every second Wednesday at 7:30pm at the Red Lion Pub, College Street, Petersfield."
britishlegion.org.uk,,,,Pluckley & Little Chart RBL,,,,,,,,,United Kingdom,,,,
britishlegion.org.uk,,,,Plymouth Crownhill RBL Branch,,,,,,,,,United Kingdom,,,,Plymouth Crownhill Branch meets at 19:00 every third Thursday of each month at the Crownhill Club in the meeting room.
britishlegion.org.uk,,,,Poole RBL,,,,,,,,,United Kingdom,,,,The Poole Branch meets every 2 Months - normally 2nd Monday at 20.00hr. Location will be published via email due to North Road Social Club being closed
britishlegion.org.uk,,,,Pencoed RBL Branch,,,,,,,,CF35 6TB,United Kingdom,,,,"Branch meets bi-monthly at 6.30 pm on the third Sunday in the month in Pencoed Social Club, 37 Hendre Road, Pencoed, CF35 6TB"
britishlegion.org.uk,,,,Penkridge RBL,,,,,,,,,United Kingdom,,,,"Penkridge Branch meets at 19:30hrs every 2nd Tuesday of January, March, May, July, September, October and November at Pencric, Tildesley Close off Vale Gardens, Penkridge Stafford,ST19 5FG."
britishlegion.org.uk,,,,Penryn,,,,,,,,,United Kingdom,,,,"Penryn Branch meets at 7.30pm on the first Wednesday of each month (excluding January) at the Penryn Bowling Club Quay Hill, Penryn."
britishlegion.org.uk,,,,Peterborough,,,,,,,,PE1 4DA,United Kingdom,,,,"Peterborough Branch meets on the third Thursday of each month at 7.30pm at the Peterborough Conservative Club.  77 Broadway,Peterborough PE1 4DA)."
britishlegion.org.uk,,,,Petts Wood RBL,,,,,,,,,United Kingdom,,,,"Petts Wood Branch Committee meets on the 2nd Tuesday of every month except August at our Headquarters in Queensway, Petts Wood, Orpington. The November meeting is also the AGM."
britishlegion.org.uk,,,,Plymouth City Centre Armed Forces Supporters,,,,,,,,,United Kingdom,,,,"The Branch is not attached to a Royal British Legion Club, and seeks to provide its membership with a wide range of social, fundraising and volunteer opportunities outside of a Club environment. Whilst our formal meetings are currently held at the Plymouth Hoe Club, we aim to hold meetings throughout the month in a variety of venues, recognising that many of our potential members would prefer to meet in more family friendly and 'dry' environments. Some of our members are involved in local walking clubs, breakfast clubs and volunteer as fundraisers for the Poppy Appeal.  All of which may provide new social outlets."
britishlegion.org.uk,,,,Polegate RBL,,,,,,,,,United Kingdom,,,,
britishlegion.org.uk,,,,Port Erin RBL,,,,,,,,,United Kingdom,,,,"Port Erin Branch committee meets every month, usually on the 3rd Monday of the month at 1930hrs at the Memorial Hall in Droghadfayle Road, Port Erin."
britishlegion.org.uk,,,,Portishead,,,,,,,,,United Kingdom,,,,
britishlegion.org.uk,,,,Poynton RBL,,,,,,,,,United Kingdom,,,,"Poynton Branch meets every 3 months at its premises in Georges Road West, Poynton."
britishlegion.org.uk,,,,Pudsey & Farsley RBL,,,,,,,,,United Kingdom,,,,
britishlegion.org.uk,,,,Ramsbottom RBL,,,,,,,,,United Kingdom,,,,The Ramsbottom Branch meets every month at the Ramsbottom Royal British Legion in Ramsbottom.
britishlegion.org.uk,,,,Randalstown RBL,,,,,,,,,United Kingdom,,,,"Randalstown Branch meets at 20:00 on the last Thursday of every other month, at the Old Bleach Bowling Club in Neilsbrook Park, Randalstown."
britishlegion.org.uk,,,,Raunds & Dist RBL,,,,,,,,,United Kingdom,,,,"Raunds and District Branch meets at 8pm every 3rd Wednesday of the month at the 'Stanwick Club' in the High Street,  Stanwick."
britishlegion.org.uk,,,,Redcar RBL,,,,,,,,,United Kingdom,,,,
britishlegion.org.uk,,,,Richmond RBL,,,,,,,,,United Kingdom,,,,Richmond (North Yorkshire) Branch meets every [second Thursday at the [Cricket Club in [Richmond].
britishlegion.org.uk,,,,Potterne Branch (Wiltshire),,,,,,,,,United Kingdom,,,,Potterne Branch meets at 20:00 every 2nd Monday of the Month at the Potterne Social Club in Whistley Rd. Potterne SN105NE.
britishlegion.org.uk,,,,Prestatyn RBL,,,,,,,,,United Kingdom,,,,
britishlegion.org.uk,,,,Rainworth,,,,,,,,,United Kingdom,,,,
britishlegion.org.uk,,,,Ramsey RBL,,,,,,,,,United Kingdom,,,,Ramsey & District Branch meets currently every third Wednesday of the month
britishlegion.org.uk,,,,Rathfriland RBL,,,,,,,,,United Kingdom,,,,
britishlegion.org.uk,,,,Rayleigh RBL,,,,,,,,,United Kingdom,,,,"Rayleigh Branch meets at 7.30pm on the second Monday of every month at the Royal British Legion Hall, 2 London Hill, Rayleigh, Essex."
britishlegion.org.uk,,,,Retford RBL,,,,,,,,DN22 7NJ,United Kingdom,,,,Retford & District Branch meets at 7pm on the first Monday of every month at the Babworth Sports & Social Club in Retford DN22 7NJ. Please note: there are no meetings in January and August.
britishlegion.org.uk,,,,Rickmansworth RBL,,,,,,,,,United Kingdom,,,,"Rickmansworth & West Hyde Branch meets at 8.00pm on the 3rd Wednesday of every month at The Royal British Legion Hall in Ebury Road, Rickmansworth."
britishlegion.org.uk,,,,Ringwood & District RBL,,,,,,,,,United Kingdom,,,,"Ringwood & District Branch meets at 7.30pm on the fourth Monday of most months at the Ringwood Conservative Club, see our News and Events page for more info.Membership is open to everyone. If you have an interest in the objectives of the Legion and want to help and support for those who have served and their families, come and join us. We welcome men and women of all ages, whether they have served in the Armed Forces or not."
britishlegion.org.uk,,,,Rishton RBL,,,,,,,,,United Kingdom,,,,"Rishton Branch meets 1st Sunday every month at 13.00 pm at Rishton Conservative Club, Cliffe St, Rishton in the darts room. From November 2015  meetings have changed venue to The Roebuck Inn, High St but the time and date stays the same."
britishlegion.org.uk,,,,Rochdale RBL,,,,,,,,,United Kingdom,,,,Rochdale Branch meets on the first Wednesday of every month at 20.00hrs ( excluding November and January)
britishlegion.org.uk,,,,Romford RBL,,,,,,,,,United Kingdom,,,,
britishlegion.org.uk,,,,Ross on Wye RBL,,,,,,,,,United Kingdom,,,,
britishlegion.org.uk,,,,Royal British Legion Village RBL,,,,,,,,,United Kingdom,,,,"Our Village Branch is based at The Royal British Legion Village in Aylesford, Kent and meets regularly in the Capel Morris Centre."
britishlegion.org.uk,,,,Royal Tunbridge Wells RBL,,,,,,,,,United Kingdom,,,,
britishlegion.org.uk,,,,Royston RBL,,,,,,,,,United Kingdom,,,,"Royston Branch meets at 7.30pm every fouth Tuesday of the month at the Royston Branch, Royal British Legion in Royston."
britishlegion.org.uk,,,,Ripon RBL,,,,,,,,,United Kingdom,,,,Ripon Branch meets at 8pm every alternate month at Lister House in Ripon.
britishlegion.org.uk,,,,Roade & Dist RBL,,,,,,,,,United Kingdom,,,,"Branch meets at 7 PM every First Monday of each month at the Cripps House, The Ridings in Hyde Road, Roade."
britishlegion.org.uk,,,,Rolleston on Dove RBL,,,,,,,,DE13 9DN,United Kingdom,,,,"Rolleston on Dove  Branch meets every first Wednesday of the month at 7pm at the Rolleston Club, 15 Burnside Rolleston on Dove, Staffordshire. DE13 9DN"
britishlegion.org.uk,,,,Romsey,,,,,,,,,United Kingdom,,,,Branch committee meets at 19:30 hours every two months using Teams video conferencing software.
britishlegion.org.uk,,,,Rotherham Rawmarsh & Parkgate RBL,,,,,,,,S65 1HY,United Kingdom,,,,"Rotherham, Rawmarsh & Parkgate Branch meets at 11am on the 2nd Thursday of the every month at  Tesco Community Room, Tesco Extra, Drummond Street, Rotherham S65 1HY."
britishlegion.org.uk,,,,Royal Hillsborough Branch,,,,,,,,,United Kingdom,,,,Royal Hillsborough Branch committee meets on the second Wednesday every month. Branch meetings are held every three months. All branch members and guests are very welcome to attend. Please contact any of the branch officers listed for details.
britishlegion.org.uk,,,,Royal Wootton Bassett,,,,,,,,,United Kingdom,,,,
britishlegion.org.uk,,,,Ruddington RBL,,,,,,,,,United Kingdom,,,,
britishlegion.org.uk,,,,Rugby No1 RBL,,,,,,,,CV21 2EZ,United Kingdom,,,,"Rugby No 1 Branch meets on the second THURSDAY of each month at 7.30pm at The Indian Community Centre, Edward Street, Rugby. CV21 2EZ. On-site car parking is available."
britishlegion.org.uk,,,,Rushden RBL,,,,,,,,NN10 0HF,United Kingdom,,,,"Rushden Branch meets on the second Monday of the month at the Rushden Athletic Club, Newton Road, Rushden, NN10 0HF at 7.30pm."
britishlegion.org.uk,,,,Rye & District,,,,,,,,,United Kingdom,,,,Branch meets virtually by Zoom at 19:30 on Tuesday 16 March (Branch) Tuesday 22 June (Branch) Tuesday 14 September (Branch) Tuesday 23 November (AGM).
britishlegion.org.uk,,,,Saffron Walden,,,,,,,,,United Kingdom,,,,"Saffron Walden Branch meets on the third Tuesday of every month at the Kings Arms on Market Hill, Saffron Walden."
britishlegion.org.uk,,,,Salisbury,,,,,,,,,United Kingdom,,,,
britishlegion.org.uk,,,,Sampford,,,,,,,,EX16 7DP,United Kingdom,,,,"Sampford Peverell & Uplowman Branch meets on the second Monday of every second month (February, April, June, August, October and December) at 1900 hrs at the Redwoods Inn in Uplowman, Devon, EX16 7DP."
britishlegion.org.uk,,,,Sawston & Pampisford RBL,,,,,,,,,United Kingdom,,,,Sawston and Pampisford Branch meets at 7.30pm on the last Wednesday of the month (except July and December) at the Chapelfield Community Centre in Sawston.
britishlegion.org.uk,,,,Seaford RBL,,,http://seafordbritishlegion.co.uk/,,,,,,United Kingdom,,,,
britishlegion.org.uk,,,,Rugeley RBL,,,,,,,,,United Kingdom,,,,"Rugeley Branch meets at 11am  on the first Sunday of every month, excluding August at Olly's Bar, Bow Street, Rugeley."
britishlegion.org.uk,,,,Ryde RBL,,,,,,,,,United Kingdom,,,,"Branch meets at 6:00pm every first Wednesday of the month, please see the minutes on the branch noticeboard in the Ryde Legion club for details of the venue for the next branch meeting."
britishlegion.org.uk,,,,Saddleworth RBL,,,,,,,,,United Kingdom,,,,Saddleworth Branch meets at 1930hrs every 1st Tuesday of the month at the Conservative Club in Uppermill.
britishlegion.org.uk,,,,Salford Priors RBL,,,,,,,,WR11 8XD,United Kingdom,,,,"The Branch meets quarterly at the Memorial Hall, School Road, Salford Priors, Evesham, WR11 8XD.  Please contact the Branch Secretary for the latest dates and times."
britishlegion.org.uk,,,,Saltash RBL,,,,,,,,,United Kingdom,,,,"The branch meets at 7.30 pm for 8.00 pm every 4th Wednesday of every month (except August and December) at the Saltash Town Football Club at Kimberley Stadium, Callington Road, Saltash.  There will be a social event planned for the early part of December, and the branch holds regular social functions."
britishlegion.org.uk,,,,Sandbach RBL,,,,,,,,CW11 1EG,United Kingdom,,,,Sandbach branch meets on the 2nd Wednesday of every month at The Masonic Hall in Sandbach CW11 1EG. Meeting starts at 7.30pm.
britishlegion.org.uk,,,,Sandy & District RBL,,,,,,,,,United Kingdom,,,,"Sandy and District Branch meets at 8pm on the third Wednesday of every month at the Conservative Club in Bedford Road, Sandy, for more information, of who we are and what we do please see About The Sandy and District Branch under Branch Information"
britishlegion.org.uk,,,,Sawtry & Dist RBL,,,,,,,,,United Kingdom,,,,Sawtry and District Branch meets every first Monday of the month @ 1930 (except bank holidays and August meeting) at the Sawtry Social Club. You can contact us via email on Sawtry.Secretary@RBL.community.
britishlegion.org.uk,,,,Seaham,,,,,,,,SR7 0BL,United Kingdom,,,,"Seaham Branch meets at 7 pm every third Wednesday of the month at the New Seaham Conservative club, 208 Station Road, Seaham, SR7 0BL"
britishlegion.org.uk,,,,Seaview Nettlestone RBL,,,,,,,,,United Kingdom,,,,
britishlegion.org.uk,,,,Sedgeford & Dist RBL,,,,,,,,,United Kingdom,,,,"Now, at the end of December 2023, 120 newsletters have been produced for the information and enjoyment of members, and in January we will enjoy our 187th lunch, having obviously had to suspend our monthly gatherings for 17 months during the pandemic, between March 2020 and the October 2021 AGM – had that not happened, we would by now have celebrated our 200th lunch, and more.  We meet in a different venue each month, as we gradually rotate around the local area, so that we can enjoy the variety available, and the driving distances are varied as well.  There are now 42 regular attenders at lunches – over half of the branch membership – although as yet they haven’t all turned up for lunch on the same day: the average attendance is around 28!"
britishlegion.org.uk,,,,Shaftesbury RBL,,,,,,,,,United Kingdom,,,,Shaftesbury and District Branch meets at 10.00am every Thursday at the Legion Hall in Coppice Street for refreshment and warm friendship.
britishlegion.org.uk,,,,Sherborne RBL,,,,,,,,,United Kingdom,,,,
britishlegion.org.uk,,,,Shifnal RBL,,,,,,,,TF11 8AD,United Kingdom,,,,"Branch meets at the War Memorial Club, Five Ways, Shifnal, TF11 8AD at 20:00hrs on the second Tuesday of each month."
britishlegion.org.uk,,,,Shotley,,,,,,,,,United Kingdom,,,,"Shotley & Erwarton Branch meets at 6pm on the last Wednesday of January,  April, July (AGM) and October at the Village Hall in Shotley."
britishlegion.org.uk,,,,Sittingbourne & Milton Regis RBL,,,https://www.sittingbournerbl.info/,,,,,,United Kingdom,,,,
britishlegion.org.uk,,,,Seascale and Sellafield,,,,,,,,,United Kingdom,,,,
britishlegion.org.uk,,,,Sedbergh & Dist RBL,,,,,,,,,United Kingdom,,,,"Sedbergh & District Branch meets at the White Hart, Finkle Street, Sedbergh on the second Thursday of each month (except August) at 7.15pm."
britishlegion.org.uk,,,,Seend RBL,,,,,,,,,United Kingdom,,,,Seend Branch meets at 7.30pm every quarter at the Community Centre in Seend.
britishlegion.org.uk,,,,Shanklin RBL,,,,,,,,,United Kingdom,,,,"Shanklin Branch meets every month at 2 Collingwood Road, Shanklin on Tuesdays at 8.00pm."
britishlegion.org.uk,,,,Sheringham RBL,,,http://www.sheringhamrbl.co.uk/,,,,,,United Kingdom,,,,
britishlegion.org.uk,,,,Shipston on Stour RBL,,,,,,,,,United Kingdom,,,,
britishlegion.org.uk,,,,Shrewsbury RBL,,,http://www.royalbritishlegionshrewsbury.com/,,,,,,United Kingdom,,,,
britishlegion.org.uk,,,,Sidbury & Sidford RBL,,,,,,,,,United Kingdom,,,,
britishlegion.org.uk,,,,Sleaford RBL,,,,,,,,,United Kingdom,,,,
britishlegion.org.uk,,,,Solihull RBL,,,,,,,,B91 3DH,United Kingdom,,,,"Solihull Branch usually meets (due to the covid 19 pandemic we hold meetings via Teams virtually) at Th Royal British Legion, Broomfields Hall, Union Road, Solihull, West Midlands, B91 3DH."
britishlegion.org.uk,,,,South Elmsall and District RBL,,,,,,,,WF9 2SW,United Kingdom,,,,"South Elmsall & District Branch meets every third Monday of each month at 19:30 at United Services Club (The Soldiers) on Chapel Lane, South Elmsall, Pontefract WF9 2SW."
britishlegion.org.uk,,,,South Shields RBL,,,,,,,,,United Kingdom,,,,
britishlegion.org.uk,,,,Southport RBL,,,,,,,,,United Kingdom,,,,
britishlegion.org.uk,,,,Southwick Green RBL,,,,,,,,,United Kingdom,,,,
britishlegion.org.uk,,,,Spondon RBL,,,,,,,,,United Kingdom,,,,"Spondon Branch was first established on the 3rd of June, 1921 and is the oldest branch in the County of Derbyshire and one of the oldest in the UK. It meets at 8 p.m. on the second Thursday of each month at the Village Club in Spondon."
britishlegion.org.uk,,,,St Annes on Sea RBL,,,,,,,,,United Kingdom,,,,
britishlegion.org.uk,,,,Soham RBL,,,,,,,,CB7 5PL,United Kingdom,,,,"Soham Branch meet on the second Wednesday at 7.30pm, bi-monthly* in The Pavilion, Fountain Lane, Soham, Cambridgeshire, CB7 5PL"
britishlegion.org.uk,,,,Somersham & Dist RBL,,,,,,,,,United Kingdom,,,,
britishlegion.org.uk,,,,South Molton RBL,,,,,,,,,United Kingdom,,,,South Molton Branch meets every [month] at the [venue name] in [location].
britishlegion.org.uk,,,,Southampton RBL Branch,,,,,,,,,United Kingdom,,,,Southampton Branch meets at 11:00 every 3rd Saturday of each month
britishlegion.org.uk,,,,Southwell RBL,,,,,,,,,United Kingdom,,,,
britishlegion.org.uk,,,,Spenborough RBL,,,,,,,,BD19 9FU,United Kingdom,,,,"Spenborough Branch meets at 7.30pm generally on the second Monday of the month (except August and December) at The Moorlands (formerly  Spenborough United Ex-Servicemen's Club), Bradford Road, Cleckheaton, West Yorkshire BD19 9FU."
britishlegion.org.uk,,,,St Agnes RBL,,,,,,,,,United Kingdom,,,,"St Agnes Branch meets at 10.30 every second Tuesday in March, June and October at the St Agnes Hotel, in St Agnes."
britishlegion.org.uk,,,,St Clears RBL,,,,,,,,,United Kingdom,,,,"Branch meets at 19:30 every month (excl Jul, Aug & Dec) at the White Lion Inn in Pwll Trap, St Clears."
britishlegion.org.uk,,,,St Ives Hunts RBL,,,,,,,,PE27 5BX,United Kingdom,,,,"St Ives (Hunts) and District Branch meets at The Ivy Leaf Club, 23 The Broadway, St Ives PE27 5BX."
britishlegion.org.uk,,,,Stafford RBL,,,,,,,,ST16 2AQ,United Kingdom,,,,"The Stafford Branch was established on the 8 July 1921 and and is one of the oldest branches in the County of Staffordshire. The Branch meets on the first Thursday of every month at The Bird in Hand, 1 Victoria Rd, Stafford ST16 2AQ."
britishlegion.org.uk,,,,Stamford RBL,,,,,,,,PE9 1UU,United Kingdom,,,,"The Royal British Legion is the leading ex-Service organisation and one of Britain’s best known and highly respected charities. We provide financial, social and emotional care and support to all members of the British Armed Forces - past and present and their families. The Legion is also the national Custodian of Remembrance, safeguards the Military Covenant between the Nation and its Armed Forces, and is best known for the annual Poppy Appeal and its emblem - the red poppy.The Stamford Branch meets at 7.30pm on the THIRD Monday of every month at Blackstone Sport & Social Club, Drift Road, Stamford, Lincolnshire, PE9 1UU.Membership is open to everyone. If you have an interest in the objectives of the Legion and want to help and support for those who have served and their families, come and join us. We welcome men, women and children of all ages, whether they have served in the Armed Forces or not."
britishlegion.org.uk,,,,Staple Hill & District,,,https://www.staplehillrbl.org.uk/,,,,,,United Kingdom,,,,
britishlegion.org.uk,,,,Stapleford & Berwick RBL,,,,,,,,,United Kingdom,,,,
britishlegion.org.uk,,,,Steyning & District RBL,,,,,,,,,United Kingdom,,,,
britishlegion.org.uk,,,,Stockton on Tees RBL,,,,,,,,,United Kingdom,,,,"New Meeting Place and Time: Stockton Branch meets at 19:00 every 1st Tuesday of the month at the Norton Cricket Club, 74 Station Road, Stockton - on - Tees TS20 1PE"
britishlegion.org.uk,,,,Stotfold & Arlesey,,,,,,,,,United Kingdom,,,,"It is not as boring as you may think and there are many opportunities to meet and help, further educate many people along with yourself!"
britishlegion.org.uk,,,,St Silas RBL,,,,,,,,,United Kingdom,,,,
britishlegion.org.uk,,,,Stalybridge and Dukinfield RBL,,,,,,,,SK15 1PD,United Kingdom,,,,"Stalybridge & Dukinfield Branch meets at 8.00pm on the second Tuesday of the month at the Wharf Tavern, Caroline Street, Stalybridge, SK15 1PD."
britishlegion.org.uk,,,,Standish RBL,,,,,,,,,United Kingdom,,,,"Standish Branch meets at 7.30pm on the second Tuesday of each month at The Unity Club, Cross Street, Standish."
britishlegion.org.uk,,,,Staple RBL,,,https://rblstaple.wixsite.com/rblstaple,,,,,,United Kingdom,,,,The Branch meets on the 2nd Thursday of the month as it has done since it was founded in 1926.
britishlegion.org.uk,,,,Stevenage RBL,,,,,,,,,United Kingdom,,,,
britishlegion.org.uk,,,,Stibbington & Dist RBL,,,,,,,,,United Kingdom,,,,
britishlegion.org.uk,,,,Stonehouse RBL,,,,,,,,,United Kingdom,,,,
britishlegion.org.uk,,,,Stowmarket RBL,,,,,,,,,United Kingdom,,,,"Stowmarket & District Branch meets every first Tuesday of the month at Stowmarket Royal British Legion Club, Tavern Street, Stowmarket at 19:30 hours."
britishlegion.org.uk,,,,Stratford on Avon RBL,,,,,,,,,United Kingdom,,,,
britishlegion.org.uk,,,,Sudbury RBL Branch,,,,,,,,,United Kingdom,,,,"Sudbury & District Branch formed on: 29th July 1921, the same year that the Legion was created and is still very active and successful. We meet every month, on the second Monday, at the Snooker Club, North Street, in Sudbury either with a Branch meeting or open meeting when speakers come to talk to us on a variety of subjects."
britishlegion.org.uk,,,,Sutton Scotney RBL,,,,,,,,,United Kingdom,,,,
britishlegion.org.uk,,,,Swavesey RBL,,,,,,,,,United Kingdom,,,,
britishlegion.org.uk,,,,Tandragee RBL,,,,,,,,,United Kingdom,,,,Branch meets at 8.00pm every 2nd Tuesday of each month at 10 the Squire in Tandragee.
britishlegion.org.uk,,,,Taunton RBL,,,,,,,,,United Kingdom,,,,Branch meets at 1930 each last Friday of the month at the Lawns Club in Taunton.or as per notice displayed on notice board. Please contact the Branch Chairman to check before setting out.
britishlegion.org.uk,,,,Tewkesbury RBL,,,,,,,,,United Kingdom,,,,
britishlegion.org.uk,,,,Thaxted & District RBL,,,,,,,,,United Kingdom,,,,"The Thaxted & District Branch meet on the first Saturday of the month at Pam's Place Thaxted, Essex, the meeting commencing at 10.30 a.m."
britishlegion.org.uk,,,,Sturminster RBL,,,,,,,,,United Kingdom,,,,"Branch meets at 8pm on the Second Monday every January, March, May, July, September, November at the Sturminster Newton RBL Club in Bath Road, Sturminster Newton."
britishlegion.org.uk,,,,Sunbury on Thames RBL,,,,,,,,,United Kingdom,,,,
britishlegion.org.uk,,,,Swadlincote RBL,,,,,,,,,United Kingdom,,,,
britishlegion.org.uk,,,,Tadley & District RBL Branch,,,,,,,,RG26 4QQ,United Kingdom,,,,"Tadley & District Branch meets every second Monday at 8pm at The Ambassador Club, Hanger Road, Tadley, Basingstoke Hants RG26 4QQ."
britishlegion.org.uk,,,,Tarporley RBL,,,,,,,,,United Kingdom,,,,Tarporley Branch meets on the third Tuesday of every month at 8.00pm at the Crown Hotel.
britishlegion.org.uk,,,,Tetbury 1923 RBL,,,,,,,,,United Kingdom,,,,
britishlegion.org.uk,,,,Thamesmead & Abbey Wood RBL,,,,,,,,,United Kingdom,,,,Thamesmead & Abbeywood Branch meets on the first Tuesday of every month at 20:00 at the Birchwood Public House in Thamesmead.
britishlegion.org.uk,,,,Thetford RBL,,,,,,,,,United Kingdom,,,,
britishlegion.org.uk,,,,Thornbury & District RBL Branch,,,,,,,,,United Kingdom,,,,
britishlegion.org.uk,,,,Thorner & Scarcroft RBL,,,,,,,,LS14 3DX,United Kingdom,,,,"The Thorner & Scarcroft Branch meets at 18.00 on the second Monday of every 2 months at the The Bungalow, Main Street, Thorner, Leeds LS14 3DX."
britishlegion.org.uk,,,,Thrapston & Dist RBL,,,,,,,,,United Kingdom,,,,
britishlegion.org.uk,,,,Tideford St Germans RBL,,,,,,,,,United Kingdom,,,,
britishlegion.org.uk,,,,Toddington RBL,,,,,,,,,United Kingdom,,,,
britishlegion.org.uk,,,,Torpoint District RBL,,,,,,,,,United Kingdom,,,,
britishlegion.org.uk,,,,Totton & Eling RBL,,,http://www.compark.co.uk/legion/,,,,,,United Kingdom,,,,
britishlegion.org.uk,,,,Tyldesley RBL,,,,,,,,,United Kingdom,,,,Tyldesley Branch meets monthly at 12 noon every 1st Sunday at the Half Moon Inn in Tyldesley.
britishlegion.org.uk,,,,Thorne & District RBL,,,,,,,,,United Kingdom,,,,Thorne & District Branch meets on the last Thursday of the month (no meeting in December) at 5.45pm for a 6.00pm start at the Canal Tavern South Parade Thorne. Please join us at our meetings
britishlegion.org.uk,,,,Thorpe RBL,,,,,,,,,United Kingdom,,,,"These are listed in ""News & events"" but simply we put we meet :-"
britishlegion.org.uk,,,,Thurmaston,,,,,,,,,United Kingdom,,,,
britishlegion.org.uk,,,,Tipton RBL,,,,,,,,DY4 8XA,United Kingdom,,,,"Tipton Branch meets at 7.30pm on the first Thursday of each month at the Tipton Sports and Social Club, Sedgley Road West, Tipton, DY4 8XA."
britishlegion.org.uk,,,,Tollesbury RBL,,,,,,,,,United Kingdom,,,,Branch meets at 19.15 every first Wednesday of the month in the Committee Room at the Tollesbury RBL Club.
britishlegion.org.uk,,,,Torquay,,,,,,,,,United Kingdom,,,,"Torquay Branch meet at St Annes Hall, Babbacombe, Torquay.  You are very welcome to join us."
britishlegion.org.uk,,,,Towcester,,,,,,,,NN12 6HD,United Kingdom,,,,"*Towcester Branch meets at 7.30pm every second Tuesday of the month at Towcester Sports & Social Club, 5 Swinneyford Rd, Towcester NN12 6HD"
britishlegion.org.uk,,,,Uckfield RBL,,,,,,,,,United Kingdom,,,,
britishlegion.org.uk,,,,Ulverston RBL,,,,,,,,,United Kingdom,,,,"Ulverston Branch meets in the RBL Club, Brogden Street, at 19.30 on a quarterly basis (April, July, October and January) ."
britishlegion.org.uk,,,,Usk RBL,,,http://www.rblusk.co.uk/,,,,,,United Kingdom,,,,
britishlegion.org.uk,,,,Wainfleet RBL,,,,,,,,,United Kingdom,,,,
britishlegion.org.uk,,,,Walton on the Naze RBL,,,,,,,,,United Kingdom,,,,"Walton & District Branch meets every second Tuesday of the month at 1.30pm in the Committee Room at The Royal British Legion Club, Vicarage Lane Walton on the Naze."
britishlegion.org.uk,,,,Wark RBL,,,,,,,,,United Kingdom,,,,Wark and District Branch meets at 7pm every 3 months at the Wark Mechanics Institute and Town Hall.
britishlegion.org.uk,,,,Warsop,,,,,,,,,United Kingdom,,,,We meet monthly for comradeship and have speakers on all kinds of topics.
britishlegion.org.uk,,,,Washingborough & District RBL,,,,,,,,,United Kingdom,,,,"The Washingborough Branch meets at 3pm every 2nd Wednesday of the month at the Turks Head, 16 Main Street, Heighington, Lincoln LN4 1RG"
britishlegion.org.uk,,,,Watchet RBL,,,,,,,,,United Kingdom,,,,Branch meets at 19:30 every last Wednesday at the Royal British Legion in Watchet
britishlegion.org.uk,,,,Upminster RBL,,,,,,,,RM14 3HL,United Kingdom,,,,"Upminster and Cranham Branch meets once a month, usually on the second Sunday of the month, at our club - 316 St Mary's Lane, Upminster, Essex RM14 3HL."
britishlegion.org.uk,,,,Waddington RBL,,,,,,,,,United Kingdom,,,,
britishlegion.org.uk,,,,Wallingford & District,,,,,,,,,United Kingdom,,,,
britishlegion.org.uk,,,,Wargrave RBL,,,,,,,,,United Kingdom,,,,The Wargrave Branch has no fixed meeting venue but meets  throughout the year at various venues in Wargrave. Please refer to  the News & events page for details.
britishlegion.org.uk,,,,Warminster RBL,,,,,,,,,United Kingdom,,,,
britishlegion.org.uk,,,,Warton,,,,,,,,FY8 3NP,United Kingdom,,,,"Branch meets at 7pm on the first Wednesday of January, April, July and October (AGM).  Meetings are held at Clifton Gardens, 309 Church Road, Lytham St Annes, Lancashire. FY8 3NP."
britishlegion.org.uk,,,,Warwick RBL,,,,,,,,,United Kingdom,,,,
britishlegion.org.uk,,,,Washington RBL,,,,,,,,,United Kingdom,,,,
britishlegion.org.uk,,,,Waterside RBL,,,,,,,,,United Kingdom,,,,
britishlegion.org.uk,,,,Wath Brow and District,,,,,,,,,United Kingdom,,,,"Branch meets at 7pm every second month at the Wath Brow RBL Club in King Street , Wath Brow CA23 ."
britishlegion.org.uk,,,,Watlington RBL,,,,,,,,,United Kingdom,,,,
britishlegion.org.uk,,,,Wellingborough and District,,,,,,,,NN8 4JH,United Kingdom,,,,"Royal British Legion Wellingborough & District Branch meet at The Old Grammarians in Oxford Street, Wellingborough, NN8 4JH."
britishlegion.org.uk,,,,Wellington Somerset RBL,,,,,,,,,United Kingdom,,,,Wellington Branch meets at 7.30pm on the 3rd Tuesday of every other month at the Wellington Football Club.
britishlegion.org.uk,,,,Wem RBL,,,,,,,,,United Kingdom,,,,Branch meets at 19.30 every month at the United Services Club in Wem.
britishlegion.org.uk,,,,West Felton RBL,,,,,,,,,United Kingdom,,,,"West Felton Branch meets on the first Monday of each month at 8pm at The Punch Bowl, West Felton (except when it falls on a Bank Holiday, and then the meeting is held on the second Monday of that month)."
britishlegion.org.uk,,,,Wetherby RBL,,,,,,,,,United Kingdom,,,,Wetherby & District Branch meets at various times and dates as notified in our quarterly newsletter. More information can be found on our facebook page
britishlegion.org.uk,,,,Watford,,,,,,,,,United Kingdom,,,,"Branch meets at St Mary’s Church, Watford every 3rd Monday of each month, or as required."
britishlegion.org.uk,,,,Wath Upon Dearne,,,,,,,,,United Kingdom,,,,Branch meets at 1900hrs every 4th Thursday of the month at The Westville WMC  Wath Upon Dearne S63 6DG.
britishlegion.org.uk,,,,Watton & District RBL,,,,,,,,,United Kingdom,,,,"We meet every 3rd Monday and alternate beteen Branch and Social meetings i.e. Feb is Social, March is Branch with our AGM in November."
britishlegion.org.uk,,,,Wellington & District RBL Branch,,,,,,,,,United Kingdom,,,,Branch meets at 7.30pm every 2nd Tuesday of the month at the The Plough Inn in King Street Wellington.
britishlegion.org.uk,,,,Welwyn Garden City,,,,,,,,,United Kingdom,,,,
britishlegion.org.uk,,,,Wembley & Sudbury RBL Sub Branch,,,,,,,,,United Kingdom,,,,"The Wembley and Sudbury Branch meets every two months at 607 Harrow Road, Wembley, Middlesex. Please contact the branch for the next meeting's details."
britishlegion.org.uk,,,,Weston-super-Mare,,,,,,,,,United Kingdom,,,,"The Branch Committee usually meets at 19:00 every 3rd Wednesday of the month at the Touchpoint, 77, Meadow Street, Weston-super-Mare, BS23 1QL."
britishlegion.org.uk,,,,Wheelton Rural District,,,,,,,,,United Kingdom,,,,"Wheelton & Rural District Branch meets on the first Friday of each month at 7.30pm at St Barnabas' Church, Chapel Lane, Heapey."
britishlegion.org.uk,,,,Whitchurch Hants RBL,,,,,,,,,United Kingdom,,,,
britishlegion.org.uk,,,,Whitley Bay RBL,,,,,,,,,United Kingdom,,,,
britishlegion.org.uk,,,,Whittlesey RBL,,,,,,,,,United Kingdom,,,,"Branch meets at 1100 every 1st Sunday of each month at Childers Sports and Social Club, Station Road Whittlesey."
britishlegion.org.uk,,,,Wickford & District Branch,,,,,,,,,United Kingdom,,,,"Wickford & District Branch meets monthly on the 3rd Wednesday of the month with our AGM being held in November, at our Club at 73 Runwell Road, Wickford. The Branch meet at 8.00pm."
britishlegion.org.uk,,,,Wickham Market RBL,,,,,,,,,United Kingdom,,,,
britishlegion.org.uk,,,,Wigton,,,,,,,,,United Kingdom,,,,"Branch meets at 1900 on the 3rd Tuesday of the month even months (Feb/Apr etc) at St. Cuthbert's church hall, King Street in Wigton, odd months (Jan/Mar etc) at Wigton rugby club, Lowmoor rd."
britishlegion.org.uk,,,,Wilmslow RBL,,,,,,,,,United Kingdom,,,,
britishlegion.org.uk,,,,Winchcombe RBL,,,,,,,,,United Kingdom,,,,
britishlegion.org.uk,,,,Whitehead RBL,,,,,,,,,United Kingdom,,,,
britishlegion.org.uk,,,,Whitstable RBL,,,http://whitstablerbl.weebly.com/rbl-branch.html,,,,,,United Kingdom,,,,
britishlegion.org.uk,,,,Whitwell RBL,,,,,,,,,United Kingdom,,,,"Whitwell & District Branch meets at 1930hrs on the first Monday of January, March, May, July, September and November at Lime Tree House, 48 High Street, Whitwell for a formal meeting and a social meeting on the first Monday of February, April, June, August, October and December at the Bull PH at 2000hrs."
britishlegion.org.uk,,,,Wickham,,,,,,,,PO17 5JN,United Kingdom,,,,"Branch meets quarterly at Kings Head Skittle Room, Wickham Square PO17 5JN"
britishlegion.org.uk,,,,Wigan RBL,,,,,,,,,United Kingdom,,,,"Branch meets at 1800hrs till, 2000hrs every  second Wednesday of the month at the Wigan Borough Armed Forces HQ"
britishlegion.org.uk,,,,Willaston In Wirral RBL,,,,,,,,,United Kingdom,,,,
britishlegion.org.uk,,,,Wimborne RBL,,,,,,,,,United Kingdom,,,,
britishlegion.org.uk,,,,Winchester RBL,,,,,,,,,United Kingdom,,,,
britishlegion.org.uk,,,,Windermere RBL,,,,,,,,,United Kingdom,,,,
britishlegion.org.uk,,,,Windsor & District Sub RBL,,,,,,,,,United Kingdom,,,,"The Windsor and District Branch meets every First Thursday of the month (except August and December) at 1900hrs for 1930hrs at a location to be announced each month for social meet ups. For committee meetings, theses will take place at the Windsor & Eton Brewery, on the first Thursday every third month at 1900hrs."
britishlegion.org.uk,,,,Witham RBL,,,,,,,,,United Kingdom,,,,"Witham Branch meets at 7.30pm on the third Thursday of every month at the Memorial Hall in Newland Street, Witham."
britishlegion.org.uk,,,,Wiveliscombe RBL,,,,,,,,,United Kingdom,,,,"Branch meets at The Bear Inn, Wiveliscombe bi-monthly between March & November each year."
britishlegion.org.uk,,,,Woodbridge RBL,,,,,,,,,United Kingdom,,,,
britishlegion.org.uk,,,,Woodmancote and District RBL,,,,,,,,,United Kingdom,,,,
britishlegion.org.uk,,,,Workington RBL,,,,,,,,,United Kingdom,,,,Workington Branch meets at 7pm every second month at the Workington Royal British Legion Club.
britishlegion.org.uk,,,,Worthen RBL,,,,,,,,,United Kingdom,,,,"Worthen Branch meets at 7pm on the second Monday of each month at the village hall in Worthen, Shropshire."
britishlegion.org.uk,,,,Windlesham RBL,,,,,,,,,United Kingdom,,,,
britishlegion.org.uk,,,,Winterton & District,,,,,,,,,United Kingdom,,,,
britishlegion.org.uk,,,,Wittering & District RBL,,,,,,,,,United Kingdom,,,,"Wittering & District Branch meets every first Wednesday of the month at 8pm in the associated club in Legion Way off Stocks Lane, East Wittering, Chichester, West Sussex."
britishlegion.org.uk,,,,Wivenhoe RBL,,,,,,,,,United Kingdom,,,,
britishlegion.org.uk,,,,Woodford & Bramhall RBL,,,,,,,,,United Kingdom,,,,
britishlegion.org.uk,,,,Worcester Park RBL,,,,,,,,,United Kingdom,,,,Worcester Park has a Branch Committee which meets every 4-6 weeks.
britishlegion.org.uk,,,,Worksop RBL,,,,,,,,,United Kingdom,,,,Branch meets at 19:30Hrs The Last Friday of every month at:
britishlegion.org.uk,,,,Worthing RBL,,,,,,,,,United Kingdom,,,,
britishlegion.org.uk,,,,Wrangle & District RBL,,,,,,,,,United Kingdom,,,,
britishlegion.org.uk,,,,Wroughton and District RBL Branch,,,,,,,,SN4 9JX,United Kingdom,,,,"The Wroughton & District Branch has recently moved venue and will meet at regular intervals at The White Hart, High Street, Wroughton SN4 9JX. In the meantime, full details of future meetings are available from the Secretary, Jane Woodford."
britishlegion.org.uk,,,,Yateley & Hawley RBL Branch,,,,,,,,,United Kingdom,,,,"We meet on the second Thursday monthly, 7.30pm at Yateley United Football Club, Sean Deveraux Park, Chandlers Lane, Yateley, GU467SS"
britishlegion.org.uk,,,,York RBL,,,,,,,,,United Kingdom,,,,"York Branch meets at 8.00pm on the second Tuesday of every month at The RAFA Club, 3-5 Aldwark, York."
britishlegion.org.uk,,,,Ystradgynlais RBL,,,,,,,,,United Kingdom,,,,"Ystradgynlais Branch meets at 8pm on the last Thursday of March, May, September and November at the Gough Constitutional Club in Ystradgynlais."
britishlegion.org.uk,,,,Wrentham & District RBL,,,,,,,,,United Kingdom,,,,
britishlegion.org.uk,,,,Wymondham RBL,,,,,,,,,United Kingdom,,,,"Wymondham Branch meets at 7.30pm on the third Monday of every month (except August) at the Ex-Services Social Club, Regal Lounge in Wymondham."
britishlegion.org.uk,,,,Yarnton Sub Branch RBL,,,,,,,,,United Kingdom,,,,
britishlegion.org.uk,,,,Yeovil,,,,,,,,,United Kingdom,,,,
britishlegion.org.uk,,,,Yoxall RBL,,,,,,,,DE13 8NQ,United Kingdom,,,,"We meet at 8pm on the first Wednesday of every month (except August) in the St Swithin's Room at St. Peter's Church in Yoxall (DE13 8NQ), and afterwards in The Golden Cup.  Come along and join us - you will be made most welcome."