Source,Name,"Main Phone","Main Email",Website,"Website Valid","Email extension",Linkedin,Instagram,Facebook,X,Pinterest,TikTok,Youtube,Mission,"Veteran Owned Business Y/N","Is certified Veteran Owned Business Y/N","Is Veteran Service Organization Y/N","Is VA or GOV Organization Y/N","VA or GOV Type","VA or GOV Subtype","Service Area","Address Line one","Address Line Two",Latitude,Longitude,"Zip Code",Country,State,County,"Municipality - Place",Notes,Owner,"Owner Phone","Owner Email"
https://www.avob.org.au/certified-businesses,"3ME Technology","1300 483 043",info@3me.technology,https://3me.technology/,Y,3me.technology,,,,,,,,,,,,,,,,"36 Munibung Rd Cardiff NSW 2285 Australia",,-32.9431528,151.6469371,2285,Australia,"New South Wales","City of Lake Macquarie",Cardiff,,,,
https://www.avob.org.au/certified-businesses,"AC Fitouts",1300765782,info@acfitouts.com.au,https://acfitouts.com.au/,Y,acfitouts.com.au,https://www.linkedin.com/company/ac-fitouts-gold-coast/,https://www.instagram.com/acfitouts/,https://www.facebook.com/acfitouts/,https://twitter.com/acfitouts,,,https://www.youtube.com/channel/UCxR6BIRiCzEPX8EOrXpr3ow,,,,,,,,,"3/4 Fortitude Crescent
 Burleigh Heads
 QLD 4220",,-28.1076268,153.4269331,4220,Australia,Queensland,"City of Gold Coast","Burleigh Heads",,,,
https://www.avob.org.au/certified-businesses,"AEGIR Marine","61 412 406580  ",info@aegirmarine.com.au,http://www.aegirmarine.com.au,Y,aegirmarine.com.au,https://www.linkedin.com/company/4805595,,https://www.facebook.com/aegirmarineaustralia,https://twitter.com/AEGIR_M_Survey,,,,,,,,,,,,"PO Box 190. Cronulla NSW Australia 2230",,-34.0512081,151.1522679,2230,Australia,"New South Wales","Sutherland Shire Council",Cronulla,,,,
https://www.avob.org.au/certified-businesses,"AG Digital Consultants",,,https://agdigital.com.au/,Y,,https://www.linkedin.com/company/agdigitalconsultants/,,https://www.facebook.com/agdigitalconsultants,,,,,,,,,,,,,,,,,,Australia,,,,,,,
https://www.avob.org.au/certified-businesses,AKRYPT,,info@akryptstore.com,https://www.akryptstore.com/,Y,akryptstore.com,,https://www.instagram.com/akryptstore/?hl=en,https://www.facebook.com/p/AKRYPT-100086701953079/,,,,,,,,,,,,,,,,,,Australia,,,,,,,
https://www.avob.org.au/certified-businesses,"ANSIC Security",1300240829,,https://www.ansic.com.au/,Y,,https://www.linkedin.com/company/ansicsecurity/,https://www.instagram.com/ansicgroup,https://www.facebook.com/ansicsec/,,,,,,,,,,,,,"1/3 Harvton Street,
 Stafford QLD 4053",,-27.417591,153.0133394,4053,Australia,Queensland,"Brisbane City",Stafford,"Monday – Friday
8:30am – 5pm AEST",,,
https://www.avob.org.au/certified-businesses,"AW Mobile Detailing",403279859,andrew.awmobiledetailing@gmail.com,https://awmobiledetailing.com/,Y,gmail.com,,https://www.instagram.com/awmobile_detailing,https://www.facebook.com/103406606136147,,,,,,,,,,,,,,,,,,Australia,,,,,,,
https://www.avob.org.au/certified-businesses,"Aces Plus Finance",,,,,,,,,,,,,,,,,,,,,,,,,,Australia,,,,,,,
https://www.avob.org.au/certified-businesses,"Actus Associates","61 8 6317 9689",,http://www.actus.net.au/,Y,,https://www.linkedin.com/company/actus-associates-pty-ltd/,https://www.instagram.com/actusassociates/,https://www.facebook.com/actusassociates/,,,,,,,,,,,,,,,,,,Australia,,,,,,,
https://www.avob.org.au/certified-businesses,"Aerial Images Sunshine Coast","61 (0)400 449 875",aerial.images.sc@gmail.com,http://www.aerialimagessunshinecoast.com.au/,Y,gmail.com,,,,,,,https://www.youtube.com/channel/UCG7BqxWrwVlINtsdPlW9ahg,,,,,,,,,"Queensland Australia",,-22.575197,144.0847926,,Australia,Queensland,,,,,,
https://www.avob.org.au/certified-businesses,"Alacon Aero Pty Ltd","61 409 327 695",admin@alaconaero.com.au,http://www.alaconaero.com.au,Y,alaconaero.com.au,,,https://www.facebook.com/alaconaero/,,,,,,,,,,,,,"Kingston, ACT, Australia, Australian Capital Territory",,-35.3137912,149.1441953,2604,Australia,"Australian Capital Territory",,Kingston,,,,
https://www.avob.org.au/certified-businesses,"Ale Mary Brewing Co","61 411 627 321",sales@alemary.beer,https://www.alemary.beer/,Y,alemary.beer,,https://www.instagram.com/ale_mary_brewing_co/,https://www.facebook.com/profile.php?id=100085940564895,,,,,,,,,,,,,"Fyshwick, Canberra City, ACT, Australia, Australian Capital Territory",,-35.3233205,149.1693652,2609,Australia,"Australian Capital Territory",,Fyshwick,,,,
https://www.avob.org.au/certified-businesses,"Alliance Leasing",1300225582,,https://www.allianceleasing.com.au/,Y,,https://www.linkedin.com/company/alliance-leasing-australia/,https://www.instagram.com/allianceleasing_/,https://www.facebook.com/Allianceleasingau/,,,,https://www.youtube.com/watch?v=2YOQkNyepJc&feature=youtu.be,,,,,,,,,,,,,,Australia,,,,,,,
https://www.avob.org.au/certified-businesses,"Amptech Electrical",450831698,amptechelectrical@outlook.com,http://www.amptechelectrical.com.au/,Y,outlook.com,https://www.linkedin.com/in/amptech-electrical-4bb67699/,https://www.instagram.com/AmptechElectrical,https://www.facebook.com/AmptechElectrical,,,,,,,,,,,,,"PO Box 413 Morayfield QLD 4506",,-27.1053809,152.9476706,4506,Australia,Queensland,"Moreton Bay Region",Morayfield,,,,
https://www.avob.org.au/certified-businesses,"Analysed Clubs",,,https://analysedclubs.com/,Y,,,,,,,,,,,,,,,,,"2024, Analysed Clubs",,-25.274398,133.775136,,Australia,,,,,,,
https://www.avob.org.au/certified-businesses,"Andare Consulting Group",,hello@andareconsulting.com.au,https://www.andareconsulting.com.au/,Y,andareconsulting.com.au,,,,,,,,,,,,,,,,,,,,,Australia,,,,,,,
https://www.avob.org.au/certified-businesses,"Animal Control Experts",417449478,baden@animalcontrolexperts.com.au,https://www.animalcontrolexperts.com.au/,Y,animalcontrolexperts.com.au,,,,,,,,,,,,,,,,,,,,,Australia,,,,,,,
https://www.avob.org.au/certified-businesses,"Arc Professional Services",,filler@godaddy.com,https://arcps.com.au/,Y,godaddy.com,https://www.linkedin.com/company/arc-professionalservices/,,,,,,,,,,,,,,,"2022 Arc Professional Services",,-20.7101998,139.5063072,4825,Australia,Queensland,"Mount Isa City",Sunset,,,,
https://www.avob.org.au/certified-businesses,"Arresti VPN",,,https://arresti.com/,Y,,https://www.linkedin.com/company/arresti/,https://www.instagram.com/arrestivpn/,https://www.facebook.com/arrestiVPN/,https://twitter.com/arrestivpn,,,https://www.youtube.com/@arresti,,,,,,,,,,,,,,Australia,,,,,,,
https://www.avob.org.au/certified-businesses,"Ascent Professional Services",61261001185,info@ascentps.com.au,https://www.ascentps.com.au/,Y,ascentps.com.au,https://www.linkedin.com/company/ascent-professional-services-pty.-ltd.,,https://www.facebook.com/ascentprofessionalservices,https://twitter.com/Ascent_PS,,,,,,,,,,,,"PO Box 13036,
 University of Adelaide,
 SA 5005 Australia",,-34.9199767,138.6044638,5005,Australia,"South Australia","Adelaide City Council",Adelaide,,,,
https://www.avob.org.au/certified-businesses,"Asset College",1300731602,study@asset.edu.au,https://www.asset.edu.au/,Y,asset.edu.au,https://www.linkedin.com/school/asset-training-australia/,,https://www.facebook.com/AssetCollege/,https://www.twitter.com/asset_training,,,https://www.youtube.com/AssetTrainingAus,,,,,,,,,"18 Flinders Parade, North Lakes QLD 4509",,-27.2286881,153.0035826,4509,Australia,Queensland,"Moreton Bay Region","North Lakes",,,,
https://www.avob.org.au/certified-businesses,Atlin,390240199,info@atlin.com.au,https://www.atlin.com.au/,Y,atlin.com.au,https://www.linkedin.com/company/atlin/life/discoveratlinfluence/,,,,,,,,,,,,,,,"Level 40, 140 Williams Street, Melbourne Vic 3000",,-37.8158486,144.958839,3000,Australia,Victoria,"City of Melbourne",Melbourne,,,,
https://www.avob.org.au/certified-businesses,"Atm2go Rockhampton",1300286246,,https://www.atm2go.com.au,Y,,,https://instagram.com/atm2goau,https://www.facebook.com/pages/Atm2go/477410362356339,,,,,,,,,,,,,"PO Box 332, North Lakes, QLD 4509",,-27.220025,153.0054444,4509,Australia,Queensland,"Moreton Bay Region","North Lakes",,,,
https://www.avob.org.au/certified-businesses,AusSTE,61421506338,dave@ausste.com.au,https://ausste.com.au/,Y,ausste.com.au,https://www.linkedin.com/company/ausste/,,,,,,,,,,,,,,,,,,,,Australia,,,,,,,
https://www.avob.org.au/certified-businesses,"Australian International Equipment Group",894605735,sales@aiegroup.com.au,https://www.aiegroup.com.au/,Y,aiegroup.com.au,https://www.linkedin.com/company/australian-international-equipment-group-pty-ltd/?viewAsMember=true,https://www.instagram.com/aiegrouppl/,https://www.facebook.com/aiegrouppl,https://twitter.com/australian_ltd,,,,,,,,,,,,,,,,,Australia,,,,,,,
https://www.avob.org.au/certified-businesses,"Australian Training Institute",732695005,,https://atiaustralia.edu.au/,Y,,https://www.linkedin.com/company/australian-training-institute-ati-pty-ltd,https://www.instagram.com/atiaustralia/,https://www.facebook.com/ATI.Australia,https://twitter.com/ATIAustralia,,,,,,,,,,,,"7/51 Brighton Road, 4017 QLD",,-27.319124,153.069175,4017,Australia,Queensland,"Brisbane City",Sandgate,,,,
https://www.avob.org.au/certified-businesses,"Australian Veterans Advocacy and Consulting Services",,enquiries@avac-services.com,https://www.avac-services.com/,Y,avac-services.com,,https://instagram.com/avacservices?igshid=MDM4ZDc5MmU=,https://www.facebook.com/AVACServices,,,,,,,,,,,,,"Unit 17a/397 Warnbro Sound Avenue Port Kennedy WA 6169",,-32.3676126,115.7547577,6172,Australia,"Western Australia","City of Rockingham","Port Kennedy",,,,
https://www.avob.org.au/certified-businesses,"Axon Property Group Pty Ltd","07 5663 4784 ",,http://www.axonproperty.com.au/,Y,,https://www.linkedin.com/signup/cold-join?session_redirect=https%3A%2F%2Fwww%2Elinkedin%2Ecom%2Fcompany-beta%2F18005571%2F%3FpathWildcard%3D18005571&trk=login_reg_redirect,https://www.instagram.com/axonproperty/,https://www.facebook.com/axonproperty/,https://twitter.com/AxonProperty,,,https://www.youtube.com/channel/UCoF2SDK0a16V5DlwnibNvng,,,,,,,,,"6/64 Marine Parade, Southport QLD 4215 ",,-27.9650695,153.4148231,4215,Australia,Queensland,"City of Gold Coast",Southport,,,,
https://www.avob.org.au/certified-businesses,"Azguard Security",448291343,joseph@azguardsecurity.com.au,https://www.azguardsecurity.com.au/,Y,azguardsecurity.com.au,,,,,,,,,,,,,,,,"Shed 9, 20 Grandlee Drive 
Wendouree, VIC 3355",,-37.5368729,143.8149235,3355,Australia,Victoria,"City of Ballarat",Wendouree,,,,
https://www.avob.org.au/certified-businesses,"BOUW Range and Training Area Subject Matter Experts","449 834 217",admin@bouw.com.au,http://www.bouw.com.au/,Y,bouw.com.au,https://www.linkedin.com/company/apiprojects/,https://www.instagram.com/BOUWConsulting/?fbclid=IwAR3DEzWTPFRu6qdOU7RJANzb5ogTUm4QUMOezXMcUfWfsKGb9YkqKDZm5vE,https://www.facebook.com/BOUWConsultants/,,,,https://www.youtube.com/channel/UCG8nVwHQKcQffJlHGpa7dOQ?fbclid=IwAR2EEsfmlEvTZwSE0Ds73vQUP9EhZKxQ8V_Mwk6yy12BXllH3CUBReFOf4E,,,,,,,,,"Suite 6 52 High Street, Toowong, QLD 4066",,-27.4868788,152.9916433,4066,Australia,Queensland,"Brisbane City",Toowong,,,,
https://www.avob.org.au/certified-businesses,"Bailey Abbott Group",1300885788,,https://baileyabbott.com.au/,Y,,https://au.linkedin.com/company/bailey-abbott,,,,,,,,,,,,,,,"Level 2, 136 Greenhill Road
Unley SA 5061",,-34.9414312,138.605759,5061,Australia,"South Australia","City of Unley",Unley,,,,
https://www.avob.org.au/certified-businesses,"Bay Islands Security",,,https://bayislandssecurity.com/,N,,,,,,,,,,,,,,,,,,,,,,Australia,,,,,,,
https://www.avob.org.au/certified-businesses,"Bellco Homes",,,https://bellcohomes.net/,N,,,,https://www.facebook.com/people/Bellco-Homes/100064098091237/,,,,,,,,,,,,,,,,,,Australia,,,,,,,
https://www.avob.org.au/certified-businesses,"Biorg Pty Ltd",1300124674,info@biorg.com.au,http://biorg.com.au/,Y,biorg.com.au,https://www.linkedin.com/company/biorg-pty-ltd/,,,,,,,,,,,,,,,"Adelaide, South Australia",,-34.9284989,138.6007456,,Australia,"South Australia",,,,,,
https://www.avob.org.au/certified-businesses,"Blackthorne Group",,,https://blackthorne.net.au/,Y,,https://www.linkedin.com/company/blackthorne-group/,,,https://twitter.com/BGCoPtyLtd,,,,,,,,,,,,,,,,,Australia,,,,,,,
https://www.avob.org.au/certified-businesses,Bluerydge,,,https://www.bluerydge.com/,Y,,https://www.linkedin.com/company/bluerydge,,,https://twitter.com/bluerydge,,,https://www.youtube.com/watch?v=FMVccBiybl4,,,,,,,,,"9/26 Ipswich Street, Fyshwick ACT Australia 2609",,-35.3250254,149.1678343,2609,Australia,"Australian Capital Territory",,Fyshwick,,,,
https://www.avob.org.au/certified-businesses,BosTECK,61432018247,info@bosteck.com.au,https://bosteck.com.au/,Y,bosteck.com.au,https://www.linkedin.com/company/23735587/admin/,,,,,,,,,,,,,,," Level 10, 95 North Quay, Brisbane City Queensland 4000, Australia",,-27.4695439,153.0208975,4000,Australia,Queensland,"Brisbane City","Brisbane City",,,,
https://www.avob.org.au/certified-businesses,"Broken Hearts Barbershop",255150594,brokenheartsbarbershop@yahoo.com,http://www.brokenheartsbarbershop.com.au/,Y,yahoo.com,,https://www.instagram.com/broken_hearts_barbershop/,https://www.facebook.com/brokenheartsbarbershop,,,,,,,,,,,,,"1/122 William Street, Port Macquarie 2444",,-31.4314836,152.9078932,2444,Australia,"New South Wales","Port Macquarie-Hastings Council","Port Macquarie",,,,
https://www.avob.org.au/certified-businesses,"Business Risk",,,http://businessrisk.com/,Y,,https://www.linkedin.com/in/ian-stewart-705292184/,,,,,,,,,,,,,,,"433 Morphett St Adelaide SA 5000",,-34.9343365,138.5940094,5000,Australia,"South Australia","Adelaide City Council",Adelaide,,,,
https://www.avob.org.au/certified-businesses,"C3 Systems","0438 155 553",wadsworth@C3Systems.com.au,http://www.c3systems.com.au/,Y,C3Systems.com.au,,,,,,,,,,,,,,,,"3/1 Sawmill Cct, Hume ACT 2620",,-35.3987048,149.1573729,2620,Australia,"Australian Capital Territory",,Hume,,,,
https://www.avob.org.au/certified-businesses,"Cardiac Mentors",,,https://www.cardiacmentors.com/,Y,,,,https://www.facebook.com/profile.php?id=100090652593855,,,,,,,,,,,,,"Ducats road, Tallebudgera, 4228 Queensland",,-28.1706233,153.4067661,4228,Australia,Queensland,"City of Gold Coast",Tallebudgera,,,,
https://www.avob.org.au/certified-businesses,"Castle Solar","0498 945 713",admin@castlesolar.com.au,https://castlesolar.com.au/,Y,castlesolar.com.au,,https://www.instagram.com/castlesolar/,https://www.facebook.com/castlesolar,,,,,,,,,,,,,,,,,,Australia,,,,,,,
https://www.avob.org.au/certified-businesses,Caulicooler,,caulicooler@gmail.com,https://caulicooler.com/,Y,gmail.com,,http://instagram.com/caulicooler,https://facebook.com/caulicooler,http://www.twitter.com/caulicooler,,https://tiktok.com/@caulicooler,https://www.youtube.com/caulicooler,,,,,,,,,,,,,,Australia,,,,,,,
https://www.avob.org.au/certified-businesses,"Clements Medical",747785614,receptiontc@clementsmedical.com.au,https://www.clementsmedical.com.au/,Y,clementsmedical.com.au,,,https://www.facebook.com/australianveteranownedbusiness/,,,,,,,,,,,,,"City Arcade, Shop 11a & b
383 Flinders Street Townsville",,-19.2607218,146.8159297,4810,Australia,Queensland,"Townsville City","Townsville City",,,,
https://www.avob.org.au/certified-businesses,Coherics,61(08)74445073,contact@coherics.com.au,https://www.coherics.com.au/,Y,coherics.com.au,https://linkedin.com/company/coherics,,,https://twitter.com/coherics,,,,,,,,,,,,"  217 Flinders Street 
 Adelaide SA 5000",,-34.9085119,138.6054369,5000,Australia,"South Australia","Adelaide City Council",Adelaide,,,,
https://www.avob.org.au/certified-businesses,"Commando Steve",,,https://bio.site/commandosteve,Y,,,https://www.instagram.com/commandosteve,https://www.facebook.com/SteveWillis01,https://twitter.com/commandosteve,,,,,,,,,,,,,,,,,Australia,,,,,,,
https://www.avob.org.au/certified-businesses,"Complete Business Online",,,https://www.cbo.me/,Y,,https://www.linkedin.com/company/platformos/,https://www.instagram.com/cbo.me/,https://www.facebook.com/cbodigital,https://twitter.com/platformOS,,,https://www.youtube.com/@PlatformOS,,,,,,,,,,,,,,Australia,,,,,,,
https://www.avob.org.au/certified-businesses,"Complete Management Systems",,filler@godaddy.com,https://cmswa.com.au/,Y,godaddy.com,https://www.linkedin.com/in/craig-howell-0210b325,,,,,,,,,,,,,,," Edgewater Western Australia 6027, Australia",,-31.763626,115.7742187,6027,Australia,"Western Australia","City of Joondalup",Edgewater,,,,
https://www.avob.org.au/certified-businesses,Connect3i,,info@connect3i.com.au,http://www.connect3i.com.au/,Y,connect3i.com.au,https://www.linkedin.com/in/james-hall-2488b931/,,,https://twitter.com/connect3i,,,,,,,,,,,,,,,,,Australia,,,,,,,
https://www.avob.org.au/certified-businesses,"Conscia Pty Ltd",1300-128-705,,http://www.conscia.com.au/,Y,,https://www.linkedin.com/company/conscia-pty-ltd/,,,,,,,,,,,,,,,"Level 3, 55 Wentworth Avenue, Kingston ACT 2604",,-35.3171865,149.1465856,2604,Australia,"Australian Capital Territory",,Kingston,,,,
https://www.avob.org.au/certified-businesses,"Core Security Group",863368080,OPERATIONS@CORESECURITY.COM.AU,https://coresecurity.com.au/,Y,CORESECURITY.COM.AU,https://www.linkedin.com/company/core-security-group-pty-ltd/?viewAsMember=true,https://www.instagram.com/core_security_australia/,https://www.facebook.com/coresectraining/,,,,,,,,,,,,,"113 Belmont Ave, Belmont 6104",,-31.9592276,115.9263083,6104,Australia,"Western Australia","City of Belmont",Belmont,,,,
https://www.avob.org.au/certified-businesses,"Core Security Training",0863368080,admin@coresecurity.wa.edu.au,https://coresecurity.wa.edu.au/,Y,coresecurity.wa.edu.au,,https://www.instagram.com/core_security_training/,https://www.facebook.com/coresectraining,,,,https://www.youtube.com/channel/UCqGw1ZiqGQIO4pM3b8njZ2A,,,,,,,,,"113 Belmont Ave, Belmont 6104",,-31.9592276,115.9263083,6104,Australia,"Western Australia","City of Belmont",Belmont,,,,
https://www.avob.org.au/certified-businesses,"Cryptic Conditioning",,crypticconditioning@gmail.com,https://crypticconditioning.com.au/,Y,gmail.com,,https://www.instagram.com/crypticconditioning/,,,,,,,,,,,,,,,,,,,Australia,,,,,,,
https://www.avob.org.au/certified-businesses,"DEWC Services",,,https://www.dewc.com/,Y,,,,,,,,https://www.youtube.com/@dewcservices,,,,,,,,,"
 50 Mawson Lakes Boulevard, Mawson Lakes SA 5095",,-34.8139226,138.6206744,5095,Australia,"South Australia","City of Salisbury",Pooraka,,,,
https://www.avob.org.au/certified-businesses,"Defence Finance Pty Ltd","1300 47 60 20",,https://defencefinance.com.au/,Y,,,,https://facebook.com/defencefinance,,,,,,,,,,,,,,,,,,Australia,,,,,,,
https://www.avob.org.au/certified-businesses,"Dive Repairs",,,http://www.diverepairs.com.au/,N,,,http://instagram.com/diverepairs,https://www.facebook.com/DiveRepairs,,,,,,,,,,,,,,,,,,Australia,,,,,,,
https://www.avob.org.au/certified-businesses,"ECLIPS Pty Ltd",,info@eclips.engineeringEnable,https://eclips.engineering/,Y,eclips.engineeringEnable,https://www.linkedin.com/company/eclips-engineering/,https://www.instagram.com/eclips.engineering/,https://www.facebook.com/ECLIPS.engineering/,https://twitter.com/ECLIPS_Eng,,,https://www.youtube.com/@ECLIPS_Eng,,,,,,,,,"17 Isa Street
 Fyshwick ACT 2609",,-35.3266892,149.1718122,2609,Australia,"Australian Capital Territory",,Fyshwick,,,,
https://www.avob.org.au/certified-businesses,"EJ Medical",438738995,sam@ejmedical.com.au,http://www.ejmedical.com.au/,Y,ejmedical.com.au,https://www.linkedin.com/in/samantha-kershaw-b2109113a/,https://www.instagram.com/ej_medical/,https://www.facebook.com/EJ-Medical-103433385582429,,,,,,,,,,,,,,,,,,Australia,,,,,,,
https://www.avob.org.au/certified-businesses,"EPE Trusted to Protect","7 3308 9300",sales@epequip.com,https://www.epequip.com,Y,epequip.com,https://www.linkedin.com/company/explosive-protective-equipment,,https://www.facebook.com/ExplosiveProtectiveEquipment,https://twitter.com/epequip,,,https://www.youtube.com/watch?v=XHmbQa-M0To,,,,,,,,,,,,,,Australia,,,,,,,
https://www.avob.org.au/certified-businesses,"EZE-FLOW Plumbing","0439 025 458",info@eze-flowplumbing.com.au,http://www.eze-flowplumbing.com.au/,Y,eze-flowplumbing.com.au,,https://www.instagram.com/p/CuYH3W2NC36/,https://www.facebook.com/ezeflowplumbing,,,,https://www.youtube.com/channel/UCBzfAapSakoLy4IkJuZ0ycw,,,,,,,,,"Call Us Now 0439 025 458",,-25.274398,133.775136,,Australia,,,,,,,
https://www.avob.org.au/certified-businesses,EdifyConnect,,joe.piasecki@edifyconnect.com.au,https://edifyconnect.com.au/,Y,edifyconnect.com.au,https://www.linkedin.com/company/edifyconnect/?viewAsMember=true,,,,,,,,,,,,,,,,,,,,Australia,,,,,,,
https://www.avob.org.au/certified-businesses,"Effective People",1300946471,,http://www.effectivepeople.com.au/,Y,,https://au.linkedin.com/company/effective-people-pty-ltd,https://www.instagram.com/effectivepeople.com.au/,https://www.facebook.com/EffectivePeopleAU/,,,,,,,,,,,,,"SUITE 5, 18 NAPIER CLOSE, DEAKIN ACT 2600",,-35.322213,149.0963614,2600,Australia,"Australian Capital Territory",,Deakin,,,,
https://www.avob.org.au/certified-businesses,Eltcon,382017125,INFO@ELTCON.COM.AU,https://eltcon.com.au/,Y,ELTCON.COM.AU,,https://www.instagram.com/eltcon/,https://www.facebook.com/profile.php?id=100091061341508,,,,,,,,,,,,,"19/19 Cornhill Street, Upper Ferntree Gully VIC, Australia",,-37.8942471,145.2957859,3156,Australia,Victoria,"City of Knox","Ferntree Gully",,,,
https://www.avob.org.au/certified-businesses,"Emergency Australia",1300857918,Contact@emergencyaustralia.com.au,http://www.emergencyaustralia.com.au/,Y,emergencyaustralia.com.au,//au.linkedin.com/school/emergency-australia/,//www.instagram.com/emergencyaustralia/,//www.facebook.com/emergencyaustralia,,,,,,,,,,,,,,,,,,Australia,,,,,,,
https://www.avob.org.au/certified-businesses,"Empire Executive Protection",1800008004,sevice@empireprotection.au,https://www.empireprotection.com.au/,Y,empireprotection.au,http://www.linkedin.com/company/empire-protection,https://www.instagram.com/empire.protection/?hl=en,http://www.facebook.com/empireprotectionptyltd,,,,https://www.youtube.com/@empireinstitute7689,,,,,,,,,,,,,,Australia,,,,,,,
https://www.avob.org.au/certified-businesses,"Empowered Learning",,infoqld@empoweredlearning.com,http://www.empoweredlearning.com/,Y,empoweredlearning.com,,,,,,,,,,,,,,,,"
 15 Discovery Drive, North Lakes QLD 4509",,-27.2392617,153.0230821,4509,Australia,Queensland,"Moreton Bay Region","North Lakes",,,,
https://www.avob.org.au/certified-businesses,"Envy - Lawn | Garden | Legend",744541816,info@envy-inc.com,https://envy-inc.com/,Y,envy-inc.com,,https://www.instagram.com/envy.lawn_garden_legend,https://www.facebook.com/EnvyLGL,,,,,,,,,,,,,"1/336 Ingham Road, Garbutt, QLD 4814",,-19.2650675,146.7710051,4814,Australia,Queensland,"Townsville City",Garbutt,"Monday - Closed
Tuesday - 8am - 5pm
Wednesday - 8am - 5pm
Thursday - 8am - 5pm
Friday - 8am - 5pm
Saturday - 8am - 3pm
Sunday - 9am - 12pm",,,
https://www.avob.org.au/certified-businesses,"Envy Aesthetics","0405 502 474",info@envyaesthetics.com.au,http://www.envyaesthetics.com.au/,Y,envyaesthetics.com.au,,https://www.instagram.com/envyaesthetics_/,https://www.facebook.com/envyaestheticsnorthlakes,,,,,,,,,,,,,"Shop 10 Bluewater Square, Sutton Street, Redcliffe, QLD, 4020",,-27.2300489,153.1146715,4020,Australia,Queensland,"Moreton Bay Region",Redcliffe,,,,
https://www.avob.org.au/certified-businesses,"Etch Me","0423 080 091",,https://www.etchme.com.au/,Y,,,https://www.instagram.com/etchmeau/,https://www.facebook.com/EtchMeAU,https://twitter.com/etchmeau,,,https://www.youtube.com/channel/UCkASj4GkaNc5AdItPhdt34g,,,,,,,,,,,,,,Australia,,,,,,,
https://www.avob.org.au/certified-businesses,"Eva's Ridge Enterprises",433397086,filler@godaddy.com,https://evasridgeenterprises.com.au/,Y,godaddy.com,,,,,,,,,,,,,,,," PO Box 42, Captains Flat, NSW, 2623",,-35.576588,149.4490642,2623,Australia,"New South Wales","Queanbeyan–Palerang Regional Council","Captains Flat","Monday - Friday: 9am - 5pm
Saturday - Sunday: Closed",,,
https://www.avob.org.au/certified-businesses,"Exas Group",,,https://www.exasgroup.com.au/,Y,,,,,,,,,,,,,,,,,,,,,,Australia,,,,,,,
https://www.avob.org.au/certified-businesses,"Executive Risk Solutions",1300233732,sales@executiverisksolutions.com.au,http://www.executiverisksolutions.com.au/,Y,executiverisksolutions.com.au,https://www.linkedin.com/company/executive-risk-solutions/,,,https://twitter.com/ERS_Aus,,,https://www.youtube.com/channel/UCFLDV3Dvfy5mD0TWqRgehvw,,,,,,,,,"Unit 1 / 7 Kintail Road, Applecross WA 6153",,-32.0115312,115.8494499,6153,Australia,"Western Australia","City of Melville",Applecross,,,,
https://www.avob.org.au/certified-businesses,"Extra Specialists","416 112 279",info@extraspecialists.com,https://www.extraspecialists.com,Y,extraspecialists.com,,https://www.instagram.com/extra_specialists/,https://www.facebook.com/extraspecialists,,,,,,,,,,,,,"P.O. Box 7068, East Brisbane, QLD 4169",,-27.4806276,153.0412496,4169,Australia,Queensland,"Brisbane City","Kangaroo Point",,,,
https://www.avob.org.au/certified-businesses,Firevolt,1300533294,service@firevolt.com.au,http://www.firevolt.com.au,Y,firevolt.com.au,https://www.linkedin.com/company/firevolt/,https://www.instagram.com/firevolt._,https://www.facebook.com/people/Firevolt/100086488210335/,,,,,,,,,,,,,"13 Selina Ct Marsden QLD 4132",,-27.6691532,153.085939,4132,Australia,Queensland,"Logan City",Marsden,,,,
https://www.avob.org.au/certified-businesses,"First Strike Consultancy",,,,,,,https://www.instagram.com/first_strike_consultancy/,https://www.facebook.com/firststrikeconsultancy,,,,,,,,,,,,,,,,,,Australia,,,,,,,
https://www.avob.org.au/certified-businesses,"GSDN Tech Programs",,contact@gsdntp.com.au,https://www.gsdntp.com.au/,Y,gsdntp.com.au,http://linkedin.com/company/gsdn-tech-programs,,,,,,,,,,,,,,,,,,,,Australia,,,,,,,
https://www.avob.org.au/certified-businesses,"Gascoyne Gateway",,,http://www.gascoynegateway.com.au/,Y,,https://www.linkedin.com/company/gascoyne-gateway-limited/,,https://www.facebook.com/GascoyneGateway,https://twitter.com/GascoyneGateway,,,,,,,,,,,,,,,,,Australia,,,,,,,
https://www.avob.org.au/certified-businesses,"Get Commando Fit",,gcf@commandosteve.com,http://www.getcommandofit.com.au/,Y,commandosteve.com,,http://instagram.com/getcommandofit,https://www.facebook.com/getcommandofit,https://twitter.com/getcommandofit,,,,,,,,,,,,"
  1 Capital Place, Rouse Hill NSW 2155",,-33.6734041,150.9130315,2155,Australia,"New South Wales","The Hills Shire","Rouse Hill",,,,
https://www.avob.org.au/certified-businesses,Gibborim,,,,,,,,,,,,,,,,,,,,,,,,,,Australia,,,,,,,
https://www.avob.org.au/certified-businesses,"Graveyard Designs",,,https://www.graveyarddesigns.com/,Y,,,https://www.instagram.com/thisisgraveyarddesigns/,https://www.facebook.com/Graveyarddesigns/,,,,,,,,,,,,,,,,,,Australia,,,,,,,
https://www.avob.org.au/certified-businesses,"Gripfast Consulting",434726002,national@gripfastconsulting.com.au,https://gripfastprojects.com.au/,Y,gripfastconsulting.com.au,https://www.linkedin.com/company/gripfastconsulting/,,,,,,,,,,,,,,,"Level 4 155 Wickham Terrace, Spring Hill QLD 4000 ",,-27.4645671,153.0250828,4000,Australia,Queensland,"Brisbane City","Spring Hill",,,,
https://www.avob.org.au/certified-businesses,Guardio,,,https://www.guardio.com.au/,N,,,,,,,,,,,,,,,,,,,,,,Australia,,,,,,,
https://www.avob.org.au/certified-businesses,"Harris Stability Systems",,INFO@HARRISSTABILITYSYSTEMS.COM.AU,http://www.harrisstabilitysystems.com.au/,Y,HARRISSTABILITYSYSTEMS.COM.AU,,https://www.instagram.com/harrisstabilitysystems/,https://www.facebook.com/harrisstabilitysystems/,http://www.twitter.com/harrisstability,,,https://www.youtube.com/channel/UC5zYrio2Kzd0eIZkZKd2roQ,,,,,,,,,"PO BOX 69, BELLBOWRIE, QLD, 4070, AU",,-27.5619404,152.8868313,4070,Australia,Queensland,"Brisbane City",Bellbowrie,,,,
https://www.avob.org.au/certified-businesses,"Harwin Research and Developments",,contact@harwin.com.au,https://www.harwin.com.au/,Y,harwin.com.au,,,,,,,,,,,,,,,,,,,,,Australia,,,,,,,
https://www.avob.org.au/certified-businesses,"Hebron Films",344163236,info@hebronfilms.com,https://hebronfilms.com/,Y,hebronfilms.com,,https://www.instagram.com/p/BrMENKxBL9P/,https://www.facebook.com/HebronFilms/,,,,https://www.youtube.com/HebronFilms,,,,,,,,,"Emporium Creative Hub, 25 Mitchell Street, Bendigo VIC 3550",,-36.7602275,144.2794712,3550,Australia,Victoria,"Greater Bendigo City",Bendigo,,,,
https://www.avob.org.au/certified-businesses,"Holan Group",,admin@holan.com.au,https://www.holan.com.au/,Y,holan.com.au,,,,,,,,,,,,,,,,"PO Box 302, Mitchell, ACT 2911",,-35.2154903,149.1415531,2911,Australia,"Australian Capital Territory",,Mitchell,,,,
https://www.avob.org.au/certified-businesses,"HomeFront Australia",1300206040,,https://www.homefrontaustralia.com.au/services/dva-household-services/,Y,,https://www.linkedin.com/company/homefront-australia/,https://www.instagram.com/homefrontaustralia/,https://www.facebook.com/HomeFrontAustralia/,,,,https://www.youtube.com/channel/UCiTOn5T9tmSZQP-0C3tRLZg,,,,,,,,,,,,,,Australia,,,,,,,
https://www.avob.org.au/certified-businesses,Hoplite,,INFO@HOPLITE.AU,https://hoplite.au/,Y,HOPLITE.AU,https://www.linkedin.com/company/89733826/admin/,https://www.instagram.com/hoplitementor/,https://www.facebook.com/profile.php?id=100086440487152,https://twitter.com/Hoplite04250699,,,https://www.youtube.com/@HopliteMentor,,,,,,,,,,,,,,Australia,,,,,,,
https://www.avob.org.au/certified-businesses,Horsell,1800697765,info@horsell.com.au,https://www.horsell.com.au/,Y,horsell.com.au,https://www.linkedin.com/company/horsell-consulting/,,http://www.facebook.com/horsellconsulting,https://twitter.com/jobsathorsell,,,,,,,,,,,,"G06 /175 Sturt St, Southbank VIC 3006",,-37.8286213,144.9662603,3006,Australia,Victoria,"City of Melbourne",Southbank,,,,
https://www.avob.org.au/certified-businesses,"Human Engineered",,contact@humanengineered.com.au,http://www.humanengineered.com.au/,Y,humanengineered.com.au,https://www.linkedin.com/company/humanengineered,https://www.instagram.com/human.engineered,,,,,https://www.youtube.com/@HumanEngineered,,,,,,,,,,,,,,Australia,,,,,,,
https://www.avob.org.au/certified-businesses,"Human Quotient Group",,,https://humanquotient.com.au/,Y,,https://www.linkedin.com/company/human-quotient-group/,https://www.instagram.com/humanquotient/,https://www.facebook.com/HumanQuotientGroup%20,,,,,,,,,,,,,,,,,,Australia,,,,,,,
https://www.avob.org.au/certified-businesses,"Impact Firearms Training",417069961,Mark@impactfirearmstraining.com.au,http://www.impactfirearmstraining.com.au/,Y,impactfirearmstraining.com.au,https://www.linkedin.com/company/imperium-engineering/about/,,https://www.facebook.com/ImpactFirearmsTrainingAustralia/,,,,,,,,,,,,,,,,,,Australia,,,,,,,
https://www.avob.org.au/certified-businesses,"Imperium Engineering Pty Ltd",(08)62230200,admin@imperiumeng.com.au,https://www.imperiumeng.com.au/,Y,imperiumeng.com.au,https://au.linkedin.com/company/imperium-engineering,,,,,,,,,,,,,,,"109 St Georges Terrace, Perth WA 6000",,-31.954882,115.8566,6000,Australia,"Western Australia","City of Perth",Perth,,,,
https://www.avob.org.au/certified-businesses,Indigitech,,info@indigitech.com.au,http://www.indigitech.com.au/,Y,indigitech.com.au,https://www.linkedin.com/company/indigitech-au/?originalSubdomain=au,,,,,,,,,,,,,,,"P.O Box 116, Amberley, QLD, 4306
 ",,-27.6405547,152.6843246,4306,Australia,Queensland,"City of Ipswich",Amberley,,,,
https://www.avob.org.au/certified-businesses,"Industry Risk",611300299484,info@industryrisk.com.au,https://industryrisk.com.au/,Y,industryrisk.com.au,https://www.linkedin.com/company/industry-risk/,,,https://twitter.com/IndustryRisk,,,,,,,,,,,,"Level 26, 1 Bligh St, Sydney NSW 2000",,-33.8642483,151.2094172,2000,Australia,"New South Wales","City of Sydney",Sydney,,,,
https://www.avob.org.au/certified-businesses,"Integrated Training and Documentation","0421 506 338",info@itad.com.au,https://www.itad.com.au/,Y,itad.com.au,https://au.linkedin.com/in/dave-newdick-6261016,,,,,,,,,,,,,,,"PO Box 7187, Mt Crosby, Queensland 4306",,-27.5399492,152.8044724,4306,Australia,Queensland,"Brisbane City","Mount Crosby",,,,
https://www.avob.org.au/certified-businesses,"Intrinsic Safety",1300990336,INFO@INTRINSICSAFETY.COM.AU,https://intrinsicsafety.com.au/,Y,INTRINSICSAFETY.COM.AU,https://www.linkedin.com/company/intrinsic-safety-training/,https://www.instagram.com/intrinsicsafetytraining/,https://www.facebook.com/intrinsicsafetytraining,,,,,,,,,,,,,"60 Station Street E Parramatta NSW 2150",,-33.8185134,151.0072343,2150,Australia,"New South Wales","City of Parramatta Council",Parramatta,,,,
https://www.avob.org.au/certified-businesses,"Ironside Resources","0457 527 586",SUPPORT@IRONSIDERESOURCES.COM.AU,https://www.ironsideresources.com.au,Y,IRONSIDERESOURCES.COM.AU,https://www.linkedin.com/company/ironside-resources/,https://www.instagram.com/ironsideresources/,https://www.facebook.com/Ironside.Resources/,,,,,,,,,,,,,,,,,,Australia,,,,,,,
https://www.avob.org.au/certified-businesses,"JDR Electrical Contractor",448477433,admin@jdrelectrical.com,https://jdrelectrical.com/,Y,jdrelectrical.com,,,https://www.facebook.com/jdrelectricalcontractor,,,,,,,,,,,,,"Sunshine Coast, QLD, AU",,-26.65,153.066667,,Australia,Queensland,,,,,,
https://www.avob.org.au/certified-businesses,"JKG Global Group","61 404 566 795",,http://www.jkg.com.au/,Y,,,,,,,,,,,,,,,,,"PO Box 705 Lane Cove
NSW Australia 2066",,-33.8146357,151.1699091,2066,Australia,"New South Wales","Municipality of Lane Cove","Lane Cove",,,,
https://www.avob.org.au/certified-businesses,"JSC Property Investments",,info@jscpropertyinvestments.com.au,https://jscpropertyinvestments.com.au/,Y,jscpropertyinvestments.com.au,https://www.linkedin.com/company/jsc-property-investments/?viewAsMember=true,https://www.instagram.com/jscpropertyinvestments/,https://www.facebook.com/profile.php?id=100092251659449,,,,https://www.youtube.com/channel/UCGPPPJQ2nbgNoVFoOuqJxkQ,,,,,,,,,,,,,,Australia,,,,,,,
https://www.avob.org.au/certified-businesses,"JY Australia",,,https://jyaustralia.com.au/,Y,,https://au.linkedin.com/company/jlb-yaran/,,,,,,,,,,,,,,,,,,,,Australia,,,,,,,
https://www.avob.org.au/certified-businesses,JYHQ,,,http://www.jyhq.com.au/,N,,,,,,,,,,,,,,,,,,,,,,Australia,,,,,,,
https://www.avob.org.au/certified-businesses,"Jade Financial Group","07 3202 2470",admin@jadefg.com.au,http://www.jadefg.com.au/,Y,jadefg.com.au,https://www.linkedin.com/company/jade-financial-group,,https://www.facebook.com/JadeFinancialGroup,https://twitter.com/Jade_FG,,,,,,,,,,,,"Office 4, Ground Floor, 265 Brisbane Street, Ipswich QLD 4305",,-27.6148485,152.7531025,4305,Australia,Queensland,"City of Ipswich",Ipswich,"8.30am -5.00pm Monday - Friday",,,
https://www.avob.org.au/certified-businesses,"Jericho Australia","07 3880 9792",,https://jerichoaustralia.com/,Y,,,https://www.instagram.com/explore/tags/beardsofjericho/,https://www.facebook.com/jerichoaustralia,,,,,,,,,,,,,"Building 10/47 Cook Court, North Lakes 4509 QLD",,-27.2126497,152.9937395,4509,Australia,Queensland,"Moreton Bay Region","North Lakes","Store Hours - (Monday- Friday 8am-3pm) - (Saturday 8am-1pm)",,,
https://www.avob.org.au/certified-businesses,"K9 Territory","0423 625 197",Info@k9territory.com.au,http://www.k9territory.com.au/,Y,k9territory.com.au,,https://www.instagram.com/k9t_the_handler?igsh=MWJ2czg4aXN4ZzhvcA==,https://www.facebook.com/profile.php?id=61550032348399&mibextid=LQQJ4d,,,,,,,,,,,,,,,,,,Australia,,,,,,,
https://www.avob.org.au/certified-businesses,Kailash,,INFO@KAILASH.CO,http://www.kailash.co/,Y,KAILASH.CO,,https://www.instagram.com/kailash_ashram,https://www.facebook.com/KailashGrampians,,,,https://www.youtube.com/channel/UCwTKVQzxdGgmyoTYj9TY6UQ,,,,,,,,,"31 Wartook Rise Wartook, Vic, Australia 3401",,-37.0621231,142.3593131,3401,Australia,Victoria,"Horsham Rural City",Wartook,,,,
https://www.avob.org.au/certified-businesses,"Kalliso | Home of PEM",1300-201-968,admin@kalliso.com,https://kalliso.com/,Y,kalliso.com,,,,,,,,,,,,,,,,,,,,,Australia,,,,,,,
https://www.avob.org.au/certified-businesses,"Kasic & Associates",,,,,,,,,,,,,,,,,,,,,,,,,,Australia,,,,,,,
https://www.avob.org.au/certified-businesses,"KatchyaL8r Gone Fishing",457817767,katchyal8rgf@gmail.com,https://katchyal8rgonefishing.com/,Y,gmail.com,,,,,,,,,,,,,,,,"Seaforth, Queensland, Australia",,-20.9014807,148.9676376,4741,Australia,Queensland,"Mackay Regional",Seaforth,,,,
https://www.avob.org.au/certified-businesses,"Ken Newton Consulting","61 404 872 814",info@kennmc.com.au,https://www.kennmc.com.au,Y,kennmc.com.au,https://www.linkedin.com/company/kennmc/,https://l.facebook.com/l.php?u=https%3A%2F%2Fwww.instagram.com%2Fkenmconsult&h=AT0Ee5kACjWHYXKFxjJfbMRS80RNIRNf-Gqcn0RYhYLkp9JbYSv8yodQokiQajmElexmGmJzI5osbDwMbCc0N8d1JhnEV2bzK5ETc4iq8fGxBs6u7BmweboKoqlj8wcRSmRDLoJDdSqfNmr6CE5qUxjo8AYQIW4MTrmh,https://www.facebook.com/recover/initiate?ars=royal_blue_bar,,,,,,,,,,,,,"Ipswich, QLD, Australia, Queensland",,-27.614614,152.7608421,4305,Australia,Queensland,"City of Ipswich",Ipswich,,,,
https://www.avob.org.au/certified-businesses,"Keyland Air Services","07 4163 6971",info@sbair.com.au,http://www.sbair.com.au/,Y,sbair.com.au,,,https://www.facebook.com/KeylandAir/,,,,,,,,,,,,,"PO Box 1197, Kingaroy Qld 4610",,-26.539756,151.843129,4610,Australia,Queensland,"South Burnett Regional",Kingaroy,,,,
https://www.avob.org.au/certified-businesses,"Kinexus Defence Services",294927547,ENQUIRIES@KINEXUS.COM.AU,https://www.kinexus.com.au/,Y,KINEXUS.COM.AU,https://www.linkedin.com/company/kinexus-australia/,https://www.instagram.com/kinexus_au/,,,,,,,,,,,,,," GPO BOX 1367 
 SYDNEY NSW 2001",,-33.8649189,151.1962361,2009,Australia,"New South Wales","City of Sydney",Pyrmont,"Our business hours are 8:30 am to 5:30 pm, Monday to Friday.",,,
https://www.avob.org.au/certified-businesses,"LRM Fire & Rescue","1300 766 625",,https://www.lrmfireandrescue.com.au/,Y,,,,https://www.facebook.com/lrmfireandrescue/,,,,,,,,,,,,,,,,,,Australia,,,,,,,
https://www.avob.org.au/certified-businesses,"Larapinta Trail Trek Support",61.89530666,,https://www.larapintatrailtreksupport.com.au/,Y,,,https://www.instagram.com/larapintatrailtreksupport/,https://www.facebook.com/larapintatrailtreksupport,,,,,,,,,,,,,,,,,,Australia,,,,,,,
https://www.avob.org.au/certified-businesses,"Learning & Development Solutions","(02) 8006 4883",,http://www.ldsolutions.com.au/,Y,,,https://www.instagram.com/military_rpl/,https://www.facebook.com/LDSolutions,https://twitter.com/Brad_LDS,,,,,,,,,,,,,,,,,Australia,,,,,,,
https://www.avob.org.au/certified-businesses,"Life International Training",738991032,info@lifeint.com.au,https://lifeint.com.au/,Y,lifeint.com.au,https://www.linkedin.com/company/98029508/admin/feed/posts/,,https://www.facebook.com/LifeInternationalTraining,,,,,,,,,,,,,"23 Breene Place, Morningside QLD 4170",,-27.4585476,153.0836495,4170,Australia,Queensland,"Brisbane City",Morningside,,,,
https://www.avob.org.au/certified-businesses,"Lifetime Care Disability Services",,info.lifetimecaredisability@gmail.com,http://www.lifetimecaredisability.com.au/,Y,gmail.com,,https://www.instagram.com/lifetime_care_disability_/,https://www.facebook.com/people/Lifetime-Care-Disability-Services/100090097904727/?mibextid=LQQJ4d,,,,,,,,,,,,,"31/1024 The Horsley Drive, Wetherill Park, NSW 2164                                        ",,-33.8510302,150.9096302,2164,Australia,"New South Wales","City of Fairfield","Wetherill Park",,,,
https://www.avob.org.au/certified-businesses,"Limitless Movement",,,https://limitlessmovement.co/,N,,,https://www.instagram.com/limitlessmovement_aus/,https://www.facebook.com/limitlessmovementaus,,,,https://www.youtube.com/channel/UCpwm_aC1dYST7I4t_W7N33A,,,,,,,,,,,,,,Australia,,,,,,,
https://www.avob.org.au/certified-businesses,"Limitless Performance Centre",0482082081,coaches@limitlessperformancecentre.com.au,http://limitlessperformancecentre.com.au/,Y,limitlessperformancecentre.com.au,,https://www.instagram.com/limitlessperformance_aus/,https://www.facebook.com/limitlessperformanceaus,,,,,,,,,,,,,"Unit 2/26 Bailey St, West End QLD 4101, Australia",,-27.4845204,153.0016492,4101,Australia,Queensland,"Brisbane City","West End",,,,
https://www.avob.org.au/certified-businesses,"Lockforce Consultancy",63(0)288450341,info@lockforce.com.au,http://www.lockforce.com.au/,Y,lockforce.com.au,https://www.linkedin.com/company/lockforce-international-inc/,,https://www.facebook.com/lockforceinternationalinc%20,,,,https://www.youtube.com/watch?v=h62rKqtiC_0,,,,,,,,,"19 Hancock Way Baringa, QLD 4551
 ",,-26.8052044,153.0691167,4551,Australia,Queensland,"Sunshine Coast Regional",Baringa,,,,
https://www.avob.org.au/certified-businesses,"M&R Solutions",,,https://mandrsolutions.com.au/,Y,,https://www.linkedin.com/company/m-r-solutions-pty-ltd/,,,,,,,,,,,,,,,,,,,,Australia,,,,,,,
https://www.avob.org.au/certified-businesses,"MARS Maritime","61 410 539 134",info@marsmaritime.com,http://www.marsmaritime.com.au/,Y,marsmaritime.com,https://www.linkedin.com/company/marsmaritime/,https://www.instagram.com/marsmaritime/,https://www.facebook.com/MARSmaritimeAustralia/,,,,,,,,,,,,,,,,,,Australia,,,,,,,
https://www.avob.org.au/certified-businesses,"Macarthur Real Estate Agency",259255777,info@macarthurrealestate.com.au,https://www.macarthurrealestate.com.au/,Y,macarthurrealestate.com.au,https://www.linkedin.com/company/macarthurrealestate/,https://www.instagram.com/macarthurrealestate,https://www.facebook.com/macarthurrealestate,,,,https://youtube.com/channel/UCNXSqubwYnm4yfWT3xGfDng,,,,,,,,,"
 14 Morrow Street, Wagga Wagga NSW 2650",,-35.1101742,147.3714155,2650,Australia,"New South Wales","Wagga Wagga City Council","Wagga Wagga",,,,
https://www.avob.org.au/certified-businesses,"Macleay Valley Hub",415484499,enquiries@macleayvalleyhub.com.au,https://macleayvalleyhub.com.au/,Y,macleayvalleyhub.com.au,,https://www.instagram.com/macleayvalleyhub/,https://www.facebook.com/macleayvalleyhub/,https://twitter.com/MacleayHub,,,,,,,,,,,,,,,,,Australia,,,,,,,
https://www.avob.org.au/certified-businesses,"Major Training Services",,,http://www.majortraining.com.au/,Y,,https://www.linkedin.com/company/majortraining/,,https://www.facebook.com/majortraining/,,,,,,,,,,,,,,,,,,Australia,,,,,,,
https://www.avob.org.au/certified-businesses,"Marcel Pacific",,,https://marcelpacific.com/,Y,,,,,,,,,,,,,,,,,"Fremantle, Western Australia 6160, Australia",,-32.0517901,115.755096,6160,Australia,"Western Australia","City of Fremantle",Fremantle,,,,
https://www.avob.org.au/certified-businesses,Masot,,,,,,,,,,,,,,,,,,,,,,,,,,Australia,,,,,,,
https://www.avob.org.au/certified-businesses,"Me and Me Brew",,meandmebrew@gmail.com,https://meandmebrew.com.au/,Y,gmail.com,,https://www.instagram.com/meandmebrew/,https://www.facebook.com/MeAndMeBrew/,,,,,,,,,,,,,,,,,,Australia,,,,,,,
https://www.avob.org.au/certified-businesses,"Military Grade Transport",,info@militarygradetransport.com.au,https://militarygradetransport.com.au/,Y,militarygradetransport.com.au,,,,,,,,,,,,,,,,,,,,,Australia,,,,,,,
https://www.avob.org.au/certified-businesses,"Milligan Group",,admin@milligangroup.com.au,http://www.milligangroup.com.au/,Y,milligangroup.com.au,,,,,,,,,,,,,,,,"Suite 1003, 23 Hunter Street, SYDNEY NSW 2000",,-33.8657878,151.2083753,2000,Australia,"New South Wales","City of Sydney",Sydney,,,,
https://www.avob.org.au/certified-businesses,MobileLock,"0467 154 700",info@mobilelock.com.au,https://www.mobilelock.com.au/,Y,mobilelock.com.au,,,https://www.facebook.com/locksmithgordonvalecairnsedmontonhome/,,,,,,,,,,,,,"8 Flynn Close, Gordonvale, Qld  4865",,-17.0900729,145.7658514,4865,Australia,Queensland,"Cairns Regional",Gordonvale,,,,
https://www.avob.org.au/certified-businesses,"Monaro Air Conditioning & Refrigeration",,,,,,,,,,,,,,,,,,,,,,,,,,Australia,,,,,,,
https://www.avob.org.au/certified-businesses,"Montane Protective Security","61 (0)2 8002 1387",,https://www.montaneps.com.au/,Y,,https://www.linkedin.com/company/integersec,https://www.instagram.com/montaneps/,,https://twitter.com/MontanePS,https://www.pinterest.com.au/Montaneps/,,,,,,,,,,,"Level 5, Nexus Norwest, 4 Columbia Court
 Baulkham Hills, New South Wales 2153",,-33.7310415,150.9693732,2153,Australia,"New South Wales","The Hills Shire","Baulkham Hills",,,,
https://www.avob.org.au/certified-businesses,"Mortgage Choice Glebe",137762,homeloans@mortgagechoice.com.au,https://www.mortgagechoice.com.au/james.slattery/,Y,mortgagechoice.com.au,https://www.linkedin.com/company/mortgage-choice,https://www.instagram.com/mortgage_choice/,https://www.facebook.com/MortgageChoice,https://twitter.com/MortgageChoice,,,,,,,,,,,,"Level 10, 100 Pacific Highway, North Sydney NSW 2060",,-33.8378284,151.2058171,1010,Australia,"New South Wales","North Sydney Council","North Sydney",,,,
https://www.avob.org.au/certified-businesses,"Mortgage Choice Pip Need",137762,,https://www.mortgagechoice.com.au/pip.need/,Y,,,https://www.instagram.com/mortgagechoicepipneed/,https://www.facebook.com/MortgageChoicePipNeed,,,,,,,,,,,,,,,,,,Australia,,,,,,,
https://www.avob.org.au/certified-businesses,"Mountain Monk Brewers",,admin@mountainmonkbrewers.com.au,https://www.mountainmonkbrewers.com.au/,Y,mountainmonkbrewers.com.au,,https://instagram.com/mountainmonkbrewers?igshid=OGQ5ZDc2ODk2ZA==,https://facebook.com/mountainmonkbrewers,,,,,,,,,,,,,"1 Lakeside Avenue, Mount Beauty, Victoria, 3699",,-36.7427081,147.1685018,3699,Australia,Victoria,"Alpine Shire","Mount Beauty","Open from Wednesday till Sunday",,,
https://www.avob.org.au/certified-businesses,"Murray Consulting Solutions",,admin@murrayconsultingsolutions.com,https://www.murrayconsultingsolutions.com/,Y,murrayconsultingsolutions.com,https://www.linkedin.com/in/adon-murray/,https://www.instagram.com/murrayconsulting/,https://www.facebook.com/murrayconsultingsolutions/,,,,,,,,,,,,,"Unit 1/6 Muir Street Medowie NSW 2318",,-32.7388553,151.8671215,2318,Australia,"New South Wales","Port Stephens Council",Medowie,,,,
https://www.avob.org.au/certified-businesses,"NHN Group",61249609922,,http://www.nhngroup.com.au/,Y,,https://www.linkedin.com/company/nhngroup,,https://www.facebook.com/nhngroupnewcastle/,,,,,,,,,,,,,"5/29 Smith St, Charlestown NSW 2290",,-32.9646473,151.6967525,2290,Australia,"New South Wales","City of Lake Macquarie",Charlestown,,,,
https://www.avob.org.au/certified-businesses,"Nathan Laing",,,https://www.njlaing.com/,Y,,,https://www.instagram.com/laing_at_law/,https://www.facebook.com/njlaingbarrister/,,,,,,,,,,,,,,,,,,Australia,,,,,,,
https://www.avob.org.au/certified-businesses,"Nautical Systems",,,http://nauticalsystems.com.au/,Y,,https://www.linkedin.com/company/nautical-systems,,,,,,,,,,,,,,,"PO Box 256, Drummoyne, NSW 1470",,-33.8510541,151.1545209,2047,Australia,"New South Wales","City of Canada Bay Council",Drummoyne,,,,
https://www.avob.org.au/certified-businesses,"Neptune Electrical","(08) 8941 9784",admin@netnt.com.au,https://netnt.com.au/services/,Y,netnt.com.au,https://www.linkedin.com/company/neptune-electrical-pty-ltd/,,https://www.facebook.com/profile.php?id=100063708272137,,,,,,,,,,,,,,,,,,Australia,,,,,,,
https://www.avob.org.au/certified-businesses,"Neptune NT",420652131,enquiries@neptunent.com,https://www.neptunent.com/,Y,neptunent.com,,,https://www.facebook.com/NeptuneNTSec/,,,,,,,,,,,,,,,,,,Australia,,,,,,,
https://www.avob.org.au/certified-businesses,"Next Peak","61 2 6109 7909",info@nextpeak.com.au,https://www.nextpeak.com.au/,Y,nextpeak.com.au,,,,,,,,,,,,,,,," Suite 5, Ground Floor North Wing
 218 Northbourne Ave
 Braddon, ACT, 2602 ",,-35.2622803,149.1324497,2612,Australia,"Australian Capital Territory",,Braddon,,,,
https://www.avob.org.au/certified-businesses,"North Coast Photography",,,,,,,https://www.instagram.com/cambo2901/,https://www.facebook.com/Cambo2901,,,,,,,,,,,,,,,,,,Australia,,,,,,,
https://www.avob.org.au/certified-businesses,"Northern Maritime & Industrial Services",61889471010,admin@nmis.com.au,http://www.nmis.com.au/,Y,nmis.com.au,https://www.linkedin.com/in/paul-smith-601b5372/,,https://www.facebook.com/nmis.com.au,https://twitter.com/NMISAUSTRALIA,,,,,,,,,,,,"146 Coonawarra Road
 Winnellie NT 0820",,-12.4308202,130.8889953,0820,Australia,"Northern Territory","City of Darwin",Winnellie,,,,
https://www.avob.org.au/certified-businesses,"Numb Skulled",,,https://www.numbskulled.com/,Y,,,https://www.instagram.com/_numb_skulled/,https://www.facebook.com/numbskulled/,,,,,,,,,,,,,,,,,,Australia,,,,,,,
https://www.avob.org.au/certified-businesses,"OCRT Trading",1300677080,info@ocrt.com.au,https://www.ocrt.com.au/,Y,ocrt.com.au,https://www.linkedin.com/company/ocrt/mycompany/,,,,,,,,,,,,,,,"GPO Box 1905, Canberra, ACT 2601",,-35.2801846,149.1310324,,Australia,"Australian Capital Territory",,,,,,
https://www.avob.org.au/certified-businesses,OTHRSIDE,,,,,,,,https://www.facebook.com/othrside/,,,,,,,,,,,,,,,,,,Australia,,,,,,,
https://www.avob.org.au/certified-businesses,"On Track Meals",,hello@ontrackmeals.com,https://ontrackmeals.com/,Y,ontrackmeals.com,,https://www.instagram.com/on_track_meals/?hl=en,https://www.facebook.com/ontrackmealsaustralia,,,https://www.tiktok.com/@on.track.meals,,,,,,,,,,,,,,,Australia,,,,,,,
https://www.avob.org.au/certified-businesses,"OneSource Customs & Logistics","02 8005 5991",,https://www.oscl.com.au/,Y,,https://www.linkedin.com/company/79112359/,https://www.instagram.com/onesource_customs/,https://www.facebook.com/OneSource-Customs-Logistics-100296735939994,,,,,,,,,,,,,"PO Box 112, Jerrabomberra NSW 2619 ",,-35.3831348,149.2017971,2619,Australia,"New South Wales","Queanbeyan–Palerang Regional Council",Jerrabomberra,,,,
https://www.avob.org.au/certified-businesses,"Orbost Club Hotel",,,http://orbostclubhotel.com.au/,Y,,,,http://www.facebook.com/OrbostClubHotel/,,,,,,,,,,,,,,,,,,Australia,,,,,,,
https://www.avob.org.au/certified-businesses,Ordinem,,,https://ordinem.com.au/,Y,,https://www.linkedin.com/company/ordinemau/,,,,,,,,,,,,,,,,,,,,Australia,,,,,,,
https://www.avob.org.au/certified-businesses,"Origin Project Management",,,http://www.originpm.com.au,N,,,,,,,,,,,,,,,,,,,,,,Australia,,,,,,,
https://www.avob.org.au/certified-businesses,"Oz Airports","0407 721 664",contact@ozairports.com.au,https://ozairports.com.au/,Y,ozairports.com.au,,,https://www.facebook.com/AncoraThemes/,https://twitter.com/ancora_themes,,,https://www.youtube.com/channel/UCdIjRh7-lPVHqTTKpaf8PLA,,,,,,,,,"PO BOX 5223 WAGGA WAGGANSW, 2650",,-35.1025977,147.3655103,2650,Australia,"New South Wales","Wagga Wagga City Council","Wagga Wagga",,,,
https://www.avob.org.au/certified-businesses,"PD Mining Consultants",61488797080,admin@pdminingconsultants.com.au,https://pdminingconsultants.com.au/,Y,pdminingconsultants.com.au,https://www.linkedin.com/company/pd-mining-consultants/,,,,,,,,,,,,,,,"Brisbane, QLD Australia",,-27.4704528,153.0260341,,Australia,Queensland,,,,,,
https://www.avob.org.au/certified-businesses,"Parish Business Services",1300454174,jason@carbongroup.com.au,http://www.parishbusinessservices.com/,Y,carbongroup.com.au,https://www.linkedin.com/company/3649630,https://www.instagram.com/_carbongroup/,https://www.facebook.com/carbonbusinessgroup,https://twitter.com/parishbusser,,,https://www.youtube.com/channel/UCvhoDdYxg6bYk-7wCjjWIog,,,,,,,,,,,,,,Australia,,,,,,,
https://www.avob.org.au/certified-businesses,"PayMe Australia Pty Ltd",1800082006,enquiries@payme.com.au,http://www.payme.com.au/,Y,payme.com.au,https://www.linkedin.com/company/payme-australia-pty-ltd/,https://www.instagram.com/paymeaustralia/,https://www.facebook.com/PayMeAustralia,,,,,,,,,,,,,"Suite 6, 18 Nvapier Close, Deakin ACT 2600",,-35.3221873,149.0963661,2600,Australia,"Australian Capital Territory",,Deakin,,,,
https://www.avob.org.au/certified-businesses,"Phoenix Resilience","(07) 32465253",info@phoenixresilience.com,https://phoenixresilience.com/,Y,phoenixresilience.com,https://www.linkedin.com/company/phoenix-resilience/,https://www.instagram.com/phoenixresilience/,https://www.facebook.com/YourPhoenixResilience,,,,,,,,,,,,,"1048 Beaudesert Rd, Coopers Plains QLD 4108",,-27.5715589,153.0249478,4108,Australia,Queensland,"Brisbane City",Archerfield,,,,
https://www.avob.org.au/certified-businesses,"Powerwave Solutions","0428 717 320",info@powerwavesolutions.com.au,https://www.powerwavesolutions.com.au/,Y,powerwavesolutions.com.au,,,,,,,,,,,,,,,,,,,,,Australia,,,,,,,
https://www.avob.org.au/certified-businesses,"Praesidium Cyber",,,https://www.praesidiumcyber.com/,N,,https://www.linkedin.com/company/praesidium-cyber/,https://www.instagram.com/praesidiumcyber/,https://www.facebook.com/praesidiumcyber/,,,,,,,,,,,,,,,,,,Australia,,,,,,,
https://www.avob.org.au/certified-businesses,"Pro Leaders Academy",1300510815,training@proleaders.com.au,https://proleaders.com.au/,Y,proleaders.com.au,https://au.linkedin.com/company/proleadersacademy,http://www.instagram.com/proleadersacademy/,https://www.facebook.com/proleadersacademy/,https://twitter.com/ProLeaders2016,,,,,,,,,,,,"PO Box 521, FORTITUDE VALLEY, QLD 4006",,-27.457826,153.0356579,4006,Australia,Queensland,"Brisbane City","Fortitude Valley",,,,
https://www.avob.org.au/certified-businesses,"Property Development Concepts","0447 342 483",contact@pdconcept.com.au,https://www.pdconcept.com.au/,Y,pdconcept.com.au,,https://www.instagram.com/property.development.concepts/,https://www.facebook.com/prodefconcepts,,,,,,,,,,,,,"Gisborne, Victoria",,-37.4940093,144.589637,3437,Australia,Victoria,"Macedon Ranges Shire",Gisborne,,,,
https://www.avob.org.au/certified-businesses,"Protecteur Services",,,http://www.protecteur.com.au/,N,,,,,,,,,,,,,,,,,,,,,,Australia,,,,,,,
https://www.avob.org.au/certified-businesses,Provocatus,"1300 129 465",info@provocatus.com.au,https://www.theprovocatus.com/,Y,provocatus.com.au,https://www.linkedin.com/company/provocatus/,,https://www.facebook.com/Provocatus-102195291989112,,,,,,,,,,,,,"Wollongong, NSW",,-34.4248336,150.8931132,2500,Australia,"New South Wales","City of Wollongong",Wollongong,,,,
https://www.avob.org.au/certified-businesses,"Puliyapang Pty Ltd",,,http://www.puliyapang.com.au/,N,,https://www.linkedin.com/company/puliyapang/,,,,,,,,,,,,,,,,,,,,Australia,,,,,,,
https://www.avob.org.au/certified-businesses,Quattrofy,0420-922-481,snowy@quattrofy.com,https://www.quattrofy.com/,Y,quattrofy.com,,https://www.instagram.com/quattrofy/,https://www.facebook.com/Quattrofy-513414182326139/,,,,,,,,,,,,,,,,,,Australia,,,,,,,
https://www.avob.org.au/certified-businesses,RAInfidel,,RAInfidel@outlook.com,http://www.rainfidel.com/,Y,outlook.com,,https://instagram.com/rainfidel/,http://www.facebook.com/rainfidel,,,,,,,,,,,,,,,,,,Australia,,,,,,,
https://www.avob.org.au/certified-businesses,"RGC Aust",0437998456,,https://rgcagroup.com.au/,Y,,,,https://www.facebook.com/people/RGC-Aust-Pty-Ltd/100089618000647/,,,,,,,,,,,,,,,,,,Australia,,,,,,,
https://www.avob.org.au/certified-businesses,"Real Estate On Yorke","0419 851 895",,https://www.realestateonyorke.com.au/,Y,,,https://www.instagram.com/realestateonyorke/,https://www.facebook.com/Real-Estate-On-Yorke-104060751920378,,,,,,,,,,,,,"(T3) 2 Owen Terrace, Wallaroo SA 5556",,-33.9322891,137.6283108,5556,Australia,"South Australia","Copper Coast Council",Wallaroo,,,,
https://www.avob.org.au/certified-businesses,"Red Risk Management",1300776522,contact@redriskmanagement.com,https://redriskmanagement.com/,Y,redriskmanagement.com,https://www.linkedin.com/company/redriskmanagement/,https://www.instagram.com/redriskmanagement/,https://www.facebook.com/redriskmanagement,,,,,,,,,,,,,"1/3 Harvton Street, Stafford QLD 4053",,-27.417591,153.0133394,4053,Australia,Queensland,"Brisbane City",Stafford,"Monday – Friday: 9:00am – 5:00pm AEST",,,
https://www.avob.org.au/certified-businesses,"Richard McLaren Photography",,,https://www.richardmclarenphotography.photos/,N,,,,,,,,,,,,,,,,,,,,,,Australia,,,,,,,
https://www.avob.org.au/certified-businesses,"Ryno Fabrication Sheetmetal","438 586 009",Ryno@rynofab.com.au,http://www.rynofab.com.au/,Y,rynofab.com.au,,https://www.instagram.com/ryno.fabrication/,https://www.facebook.com/recover/initiate?ars=royal_blue_bar,,,,,,,,,,,,,"Kinglake West, VIC",,-37.4809197,145.2615665,3757,Australia,Victoria,,"Kinglake West",,,,
https://www.avob.org.au/certified-businesses,SYNCORSWMS,,support@syncorswms.com,https://syncorswms.com.au/,Y,syncorswms.com,,https://www.instagram.com/syncorswms/,https://www.facebook.com/syncorswms,,,,,,,,,,,,,,,,,,Australia,,,,,,,
https://www.avob.org.au/certified-businesses,"SYPAQ Systems",1300764933,info@sypaq.com.au,https://www.sypaq.com.au/,Y,sypaq.com.au,https://www.linkedin.com/company/sypaq-systems/?originalSubdomain=au,,,https://twitter.com/sypaq_official?lang=en,,,,,,,,,,,,"60 Bertie Street,  Port Melbourne Vic 3207",,-37.8289568,144.9389014,3207,Australia,Victoria,"Port Phillip City","Port Melbourne",,,,
https://www.avob.org.au/certified-businesses,"Safeguard Transport Consultants",,,,,,,,https://www.facebook.com/SafegurdConsultants/,,,,,,,,,,,,,,,,,,Australia,,,,,,,
https://www.avob.org.au/certified-businesses,"Salient Operations Group",1(469)375-1273,inquiries@salientoperationsgroup.com,https://www.salientoperationsgroup.com/,Y,salientoperationsgroup.com,https://www.linkedin.com/company/salient-operations-group/,https://www.instagram.com/salientoperationsgroup/,,,,,,,,,,,,,,,,,,,Australia,,,,,,,
https://www.avob.org.au/certified-businesses,"Sayres Australia",,administration@sayresaustralia.com,https://www.sayresaustralia.com/,Y,sayresaustralia.com,https://www.linkedin.com/company/sayres-australia-pty-ltd/,,,,,,,,,,,,,,,,,,,,Australia,,,,,,,
https://www.avob.org.au/certified-businesses,"Scarp Vantage Consulting",242583615,,https://www.svconsulting.com.au/,Y,,https://www.linkedin.com/company/scarp-vantage-consulting/?viewAsMember=true,,,https://twitter.com/@ScarpVantage,,,,,,,,,,,,"North Wollongong NSW 2500",,-34.4107897,150.8925999,2500,Australia,"New South Wales","City of Wollongong","North Wollongong",,,,
https://www.avob.org.au/certified-businesses,Sectara,61290489181,info@sectara.com,https://sectara.com/,Y,sectara.com,,,,,,,,,,,,,,,,"1 BLIGH ST
 SYDNEY NSW 2060",,-33.8643613,151.2103442,2000,Australia,"New South Wales","City of Sydney",Sydney,,,,
https://www.avob.org.au/certified-businesses,"Security Consulting Group Pty Ltd","61 3 9020 7310",info@securityconsultinggroup.com.au,http://www.securityconsultinggroup.com.au/,Y,securityconsultinggroup.com.au,https://www.linkedin.com/company/6380930,,,,,,,,,,,,,,," Level 1, 379 Collins Street
 Melbourne, VIC 3000",,-37.817175,144.9619928,3000,Australia,Victoria,"City of Melbourne",Melbourne,,,,
https://www.avob.org.au/certified-businesses,"Site Security and Traffic Control",1300007782,info@sstc.net.au,https://sstc.net.au/,Y,sstc.net.au,https://www.linkedin.com/company/site-security-traffic-control-pty-ltd/,https://www.instagram.com/sitesecurityandtrafficcontrol/,https://www.facebook.com/sstcptyltd/,,,,,,,,,,,,,"75 Graham Rd, Narwee NSW 2209",,-33.944634,151.0648654,2209,Australia,"New South Wales","City of Canterbury-Bankstown",Narwee,,,,
https://www.avob.org.au/certified-businesses,"South-East Water Tanks",,,https://south-eastwatertanks.godaddysites.com/,Y,,,https://www.instagram.com/southeastwatertanks/,https://www.facebook.com/southeastwatertanks/,,,,,,,,,,,,,,,,,,Australia,,,,,,,
https://www.avob.org.au/certified-businesses,"Southport First Aid",,,http://www.southportfirstaid.com.au/,N,,,,https://www.facebook.com/southportfirstaid,,,,,,,,,,,,,,,,,,Australia,,,,,,,
https://www.avob.org.au/certified-businesses,"Spearpoint Solutions & Technology",(02) 6298 2100,sales@spearpoint.net.au,https://www.spearpointtechnology.com.au/,Y,spearpoint.net.au,,,https://www.facebook.com/profile.php?id=100063727096556,,,,,,,,,,,,,,,,,,Australia,,,,,,,
https://www.avob.org.au/certified-businesses,"Spinifex Brewing Co.","61 8 6385 6808",admin@spinifexbrewery.com.au,https://www.spinifexbrewery.com.au/,Y,spinifexbrewery.com.au,,,https://www.facebook.com/SpinifexBrewery/,https://twitter.com/adamsperth,,,,,,,,,,,,"7 Sanctuary Road Cable Beach , Broome, WA, Australia",,-17.929943,122.2164594,6726,Australia,"Western Australia","Shire of Broome","Cable Beach",,,,
https://www.avob.org.au/certified-businesses,"Springers Training Wheels",,,http://www.springerstrainingwheels.com/,Y,,,https://www.instagram.com/springerstrainingwheels/,https://www.facebook.com/springerstrainingwheels/,https://twitter.com/springerstw,,,https://www.youtube.com/channel/UCc7d2sUW4XLOT-3-6ZW-cIQ,,,,,,,,,,,,,,Australia,,,,,,,
https://www.avob.org.au/certified-businesses,"Stirling Power Solutions",,,,,,,https://www.instagram.com/stirlingpowersolutions/,https://www.facebook.com/stirlingpowersolutions,,,,,,,,,,,,,,,,,,Australia,,,,,,,
https://www.avob.org.au/certified-businesses,"Stotan Group",,,http://www.stotangroup.com.au/,Y,,https://www.linkedin.com/company/stotangroup/,,,,,,,,,,,,,,,,,,,,Australia,,,,,,,
https://www.avob.org.au/certified-businesses,"Strategic Wildfire Operations",488052410,lindsay@strategicwildfire.com.au,http://www.strategicwildfire.com.au/,Y,strategicwildfire.com.au,,,,,,,,,,,,,,,,,,,,,Australia,,,,,,,
https://www.avob.org.au/certified-businesses,"Strategix Australia","0432 804 011",info@strategixaustralia.com,https://www.strategixaustralia.com/,Y,strategixaustralia.com,http://www.linkedin.com/company/strategix-australia,,,,,,,,,,,,,,,,,,,,Australia,,,,,,,
https://www.avob.org.au/certified-businesses,"Summerland Health",434660924,admin@summerlandhealth.com.au,https://summerlandhealth.com.au/,Y,summerlandhealth.com.au,,https://www.instagram.com/summerland_health/,https://www.facebook.com/summerlandhealthchiropractic,,,,,,,,,,,,,"17 Short St, Port Macquarie NSW 2444",,-31.4322674,152.9067555,2444,Australia,"New South Wales","Port Macquarie-Hastings Council","Port Macquarie",,,,
https://www.avob.org.au/certified-businesses,"Synergy Facility Services",418970000,admin@sfstsv.com.au,https://synergyqld.com.au/,Y,sfstsv.com.au,,,,,,,,,,,,,,,,"Unit 4/17 Mackley St,
Garbutt, QLD 4814",,-19.2707759,146.7697533,4814,Australia,Queensland,"Townsville City",Garbutt,,,,
https://www.avob.org.au/certified-businesses,TACMUDKIT,,,https://tacmudkit.com.au/,N,,,https://www.instagram.com/tacmudkit/,https://www.facebook.com/Tacmudkit/,https://twitter.com/tacmudkit,,,,,,,,,,,,,,,,,Australia,,,,,,,
https://www.avob.org.au/certified-businesses,TEIGE,,,https://www.teige.com.au/,Y,,https://www.linkedin.com/company/teige,https://www.instagram.com/teige_electrical/,https://www.facebook.com/teige.com.au,https://twitter.com/teigeptyltd,,,https://www.youtube.com/channel/UCNmxBdaGkTzr0bIfui8QYWQ,,,,,,,,,,,,,,Australia,,,,,,,
https://www.avob.org.au/certified-businesses,TQCSI,"61 8 8347 0603  ",info@tqcsi.com,https://www.tqcsi.com/,Y,tqcsi.com,https://www.linkedin.com/company/tqcs-international,,https://www.facebook.com/TQCS.International,,,,https://www.youtube.com/channel/UC-VkzxblER6FKbfubBCMEXA,,,,,,,,,"117A Tapleys Hill Road, HENDON
SOUTH AUSTRALIA, 5014",,-34.8773903,138.5129675,5014,Australia,"South Australia","City of Charles Sturt",Hendon,,,,
https://www.avob.org.au/certified-businesses,"Tacmed Australia","1300 862 633",,http://www.tacmedaustralia.com.au/,Y,,https://www.linkedin.com/company/tacmed-australia/?originalSubdomain=au,https://www.instagram.com/tacmedaustralia/?hl=en,https://www.facebook.com/TacmedAustralia/,https://twitter.com/tacmedaus?lang=en,,,https://www.youtube.com/channel/UCus-_Yt3H4GuhB0rg_sXMrg,,,,,,,,,"1/33 Isles Drive
North Boambee Valley NSW",,-30.317701,153.085591,2450,Australia,"New South Wales","Coffs Harbour City Council","North Boambee Valley","Mon - Fri, 8.30am - 5.30pm
Sat-Sun, Closed",,,
https://www.avob.org.au/certified-businesses,"Tempered Strength & Conditioning",,,http://www.temperedsco.com.au/,N,,,https://www.instagram.com/temperedstrengthormeau/,https://www.facebook.com/pages/CrossFit-Tempered/267394000047380,,,,,,,,,,,,,,,,,,Australia,,,,,,,
https://www.avob.org.au/certified-businesses,"The Cloud Men",300116418,sales@thecloudmen.com,https://www.thecloudmen.com/,Y,thecloudmen.com,https://www.linkedin.com/company/thecloudmen,,,,,,,,,,,,,,,,,,,,Australia,,,,,,,
https://www.avob.org.au/certified-businesses,"The Environmental Review",,,https://www.the-environmental-review.com/,N,,https://www.linkedin.com/company/the-environmental/,https://www.instagram.com/the_environmental_review/,https://www.facebook.com/theevironmentalreview,,,,,,,,,,,,,,,,,,Australia,,,,,,,
https://www.avob.org.au/certified-businesses,"The Grind Reaper",,,https://www.thegrindreaper.com/,N,,,https://www.instagram.com/thegrindreaper/,https://www.facebook.com/TheGrindReaper,,,,,,,,,,,,,,,,,,Australia,,,,,,,
https://www.avob.org.au/certified-businesses,"The K9 Centre",61411530861,info@k9centre.com,https://www.k9centre.com/,Y,k9centre.com,https://www.linkedin.com/company/2247122/,https://www.instagram.com/thek9centre/,https://www.facebook.com/TheK9CentreDogTrainersAustralia,https://twitter.com/k9centre,,,,,,,,,,,,"Narangba, QLD",,-27.1837292,152.9425694,4504,Australia,Queensland,"Moreton Bay Region",Narangba,,,,
https://www.avob.org.au/certified-businesses,"The Rifleman's Armoury","0401 636 077",,http://theriflemansarmoury.com.au/,Y,,,,https://www.facebook.com/TheRiflemansArmoury/,,,,,,,,,,,,,,,,,,Australia,,,,,,,
https://www.avob.org.au/certified-businesses,"The Tumba Hotel",,,https://tumbarumbapub.com.au/,N,,,,https://www.facebook.com/TumbarumbaHotel,,,,,,,,,,,,,,,,,,Australia,,,,,,,
https://www.avob.org.au/certified-businesses,"The Whiskey Project Group",,contact@thewhiskeyprojectgroup.com,http://www.thewhiskeyprojectgroup.com.au/,Y,thewhiskeyprojectgroup.com,https://www.linkedin.com/company/the-whiskey-project-group/,,,,,,,,,,,,,,,,,,,,Australia,,,,,,,
https://www.avob.org.au/certified-businesses,"Think Medical Solutions",,,https://www.thinkmedicalsolutions.com.au/,N,,https://www.linkedin.com/company/think-medical-solutions/,https://www.instagram.com/thinkmedicalsolutions/,https://www.facebook.com/ThinkMedicalSolutions/,,,,,,,,,,,,,,,,,,Australia,,,,,,,
https://www.avob.org.au/certified-businesses,"Tiger International",,,,,,,,,,,,,,,,,,,,,,,,,,Australia,,,,,,,
https://www.avob.org.au/certified-businesses,"Tirol Sports",357593063,contact@tirolsports.com.au,https://www.tirolsports.com.au/,Y,tirolsports.com.au,,https://www.instagram.com/tirol_sports_hotham/,https://www.facebook.com/TirolSportsHotham/,https://twitter.com/@TirolSports,,,,,,,,,,,,"1/1 Great Alpine Road,Hotham Heights, 3741",,-36.9935485,147.1535097,3741,Australia,Victoria,"Mount Hotham Alpine Resort (Unincorporated)","Mt Hotham",,,,
https://www.avob.org.au/certified-businesses,"Topps Products Australia",,info@toppsproducts.com.au,https://www.toppsproducts.com.au/,Y,toppsproducts.com.au,,,https://www.facebook.com/toppsproducts,,,,,,,,,,,,," 71 Wellington Street, Port Adelaide SA 5015",,-34.8534232,138.50737,5015,Australia,"South Australia","City of Port Adelaide Enfield","Port Adelaide",,,,
https://www.avob.org.au/certified-businesses,"TouchBoard Australia",1300826273,info@tboard.com.au,https://tboard.com.au/,Y,tboard.com.au,https://www.linkedin.com/company/touchboard-mounting-systems/,https://www.instagram.com/TouchBoard_Australia/,https://www.facebook.com/TouchBoard-Australia-103343758785733,,,,https://www.youtube.com/channel/UCq6ZRhhR6jKDwK5IV2Z3uwg,,,,,,,,,"6/15 Discovery Drive, North Lakes QLD 4509",,-27.2392617,153.0230821,4509,Australia,Queensland,"Moreton Bay Region","North Lakes",,,,
https://www.avob.org.au/certified-businesses,"Tradie HQ",,enquiries@tradiehqwa.com.au,http://www.tradiehq.com.au/,Y,tradiehqwa.com.au,,https://www.instagram.com/tradiehq.wa,https://www.facebook.com/tradiehqwa,,,,,,,,,,,,,"Tradie HQ, 307 Selby St N, Osborne Park WA 6017",,-31.9072734,115.8038161,6017,Australia,"Western Australia","City of Stirling","Osborne Park",,,,
https://www.avob.org.au/certified-businesses,TriHorizon,,,https://trihorizon.com.au/,Y,,https://www.linkedin.com/company/trihorizon/,,,,,,,,,,,,,,,,,,,,Australia,,,,,,,
https://www.avob.org.au/certified-businesses,"Tropik Nutrition",432254978,Hello@tropiknutrition.com.au,https://tropiknutrition.com.au/,Y,tropiknutrition.com.au,,https://www.instagram.com/tropiknutritioncairns_,https://www.facebook.com/tropiknutrition,,,,,,,,,,,,,"Shop 8 Oceana Walk 55 Lake st Cairns City, Queensland 4870",,-16.9233849,145.7763892,4870,Australia,Queensland,"Cairns Regional","Cairns City",,,,
https://www.avob.org.au/certified-businesses,"UBH Group","1300 824 266",enquiries@ubhgroup.com.au,https://www.ubhgroup.com.au/,Y,ubhgroup.com.au,https://www.linkedin.com/company/ubh-group/,,,,,,,,,,,,,,,"Suite 3 , Level 5, 303 Coronation Drive , Milton, QLD",,-27.4738112,153.0038585,4064,Australia,Queensland,"Brisbane City",Milton,,,,
https://www.avob.org.au/certified-businesses,"Unearth Talent",13008632784,info@unearthtalent.com.au,http://www.unearthtalent.com.au/,Y,unearthtalent.com.au,http://www.linkedin.com/company/unearth-group-talent,,https://www.facebook.com/unearthtalent/,,,,,,,,,,,,,"Level 3, Suite 34  ,490 Northbourne Avenue , Dickson, ACT, 2602",,-35.2491039,149.1346739,2612,Australia,"Australian Capital Territory",,Dickson,,,,
https://www.avob.org.au/certified-businesses,"Van Cotter Partners","1300 001 827",info@vcpg.com.au,http://www.vcpg.com.au/,Y,vcpg.com.au,,,https://www.facebook.com/vancotterpartners,,,,,,,,,,,,,"PO Box 1185, Menai Central NSW 2234",,-34.0169635,151.0116028,2234,Australia,"New South Wales","Sutherland Shire Council",Menai,,,,
https://www.avob.org.au/certified-businesses,"Vantage Point Management",286670786,,http://www.vantagepointmanagement.com.au/,Y,,https://www.linkedin.com/company/vantage-point-management,,https://www.facebook.com/vantagepointmanagement/,,,,,,,,,,,,,,,,,,Australia,,,,,,,
https://www.avob.org.au/certified-businesses,Vergex,61413670487,INFO@VERGEX.COM.AU,https://www.vergex.com.au/,Y,VERGEX.COM.AU,https://www.linkedin.com/company/vergex2021,https://www.instagram.com/verg_ex/,https://www.facebook.com/vergex2021,https://twitter.com/Vergex5,,,,,,,,,,,,,,,,,Australia,,,,,,,
https://www.avob.org.au/certified-businesses,"Vita Nova Conveyancing","0460 931 296",admin@vitanova.com.au,https://www.vitanova.com.au/,Y,vitanova.com.au,,https://www.instagram.com/vitanovaconveyancing/,,,,,,,,,,,,,,"Shop 4/42 Barossa Valley Way, Lyndoch SA 5351",,-34.6012431,138.8902581,5351,Australia,"South Australia","The Barossa Council",Lyndoch,,,,
https://www.avob.org.au/certified-businesses,"Voltec Maintenance","(07) 4426 1919",service@voltecmaintenance.com.au,https://www.voltecmaintenance.com.au/,Y,voltecmaintenance.com.au,,https://www.instagram.com/voltecmaintenance/,https://www.facebook.com/voltecmaintenance,,,,,,,,,,,,,"78 Mather Street, Garbutt, Townsville, QLD 4814",,-19.2696622,146.7486886,4814,Australia,Queensland,"Townsville City",Garbutt,,,,
https://www.avob.org.au/certified-businesses,"Wandering Warriors",428835781,info@wanderingwarriors.org,http://www.wanderingwarriors.org/,Y,wanderingwarriors.org,https://www.linkedin.com/company/wandering-warriors/,https://www.instagram.com/wanderingwarriorslimited/,https://www.facebook.com/wanderingwarriors/,https://twitter.com/WanderingSAS,,,https://www.youtube.com/channel/UCf9MNYwTSzReM2LeOHOhonw,,,,,,,,," 29 McDougall Street
 MILTON QLD 4064",,-27.4703007,153.0068244,4064,Australia,Queensland,"Brisbane City",Milton,,,,
https://www.avob.org.au/certified-businesses,"Wheelie Hot Wood Canberra",1300585960,Emma@wheeliehotwood-canberra.com.au,https://wheeliehotwood-canberra.com.au/,Y,wheeliehotwood-canberra.com.au,,https://instagram.com/wheeliehotwoodcbr?igshid=MzRlODBiNWFlZA==,https://www.facebook.com/people/Wheelie-Hot-Wood-Canberra/61554020703546/,,,,,,,,,,,,,"Kendall Ave, Queanbeyan 2620 NSW",,-35.3457999,149.2076302,2620,Australia,"New South Wales","Queanbeyan–Palerang Regional Council",,,,,
https://www.avob.org.au/certified-businesses,Wilpah,,bpahl@wilpah.com.au,https://wilpah.com.au/,Y,wilpah.com.au,https://www.linkedin.com/in/wilpah-company-134092218/,,,,,,,,,,,,,,,,,,,,Australia,,,,,,,
https://www.avob.org.au/certified-businesses,"Wilsons Plumbing and Maintenance",,,,,,,,,,,,,,,,,,,,,,,,,,Australia,,,,,,,
https://www.avob.org.au/certified-businesses,"Wings Public Relations",422504540,info@wingspr.com.au,https://www.wingspr.com.au/,Y,wingspr.com.au,https://www.linkedin.com/company/wingspublicrelations/,https://www.instagram.com/wingspublicrelations/,https://www.facebook.com/wingspublicrelations/,https://twitter.com/wings_pr,,,,,,,,,,,,"PO Box 1401 Paradise Point, Gold Coast, Queensland 4216",,-27.887612,153.3883144,4216,Australia,Queensland,"City of Gold Coast","Paradise Point",,,,
https://www.avob.org.au/certified-businesses,"Yanun Project Services",428465742,info@yanun.com.au,http://www.yanun.com.au/,Y,yanun.com.au,https://www.linkedin.com/in/yanun2david/,,,,,,,,,,,,,,,"LEVEL 13, 99 GAWLER PLACE, ADELAIDE, SOUTH AUSTRALIA 5000",,-34.9249966,138.601907,5000,Australia,"South Australia","Adelaide City Council",Adelaide,,,,
https://www.avob.org.au/certified-businesses,"Your Print Guys","1300 1 PRINT (77468)",team@yourprintguys.com.au,http://yourprintguys.com.au/,Y,yourprintguys.com.au,,https://www.instagram.com/shortstackau/,https://www.facebook.com/shortstackau,,,,,,,,,,,,,"PO Box 89, BROWNS PLAINS QLD 4118",,-27.6592348,153.052446,4118,Australia,Queensland,"Logan City","Browns Plains",,,,
https://www.avob.org.au/certified-businesses,"ZERODROP Australia","1300 769 428",,https://zerodrop.com.au/,Y,,,https://www.instagram.com/zerodrop.au/,,,,,,,,,,,,,,"Suite 108, SHOP 2, 37 FERODALE ROAD, MEDOWIE NSW 2318 ",,-32.7403395,151.8645537,2318,Australia,"New South Wales","Port Stephens Council",Medowie,,,,
https://www.avob.org.au/certified-businesses,"Zangold Pty Ltd","61 (0) 7 3308 9300",sales@epequip.com,https://www.epequip.com/,Y,epequip.com,https://www.linkedin.com/company/explosive-protective-equipment,,https://www.facebook.com/ExplosiveProtectiveEquipment,https://twitter.com/epequip,,,https://www.youtube.com/watch?v=XHmbQa-M0To,,,,,,,,,,,,,,Australia,,,,,,,
https://www.avob.org.au/certified-businesses,"Zilor Group",,info@zilorgroup.com.au,https://www.zilorgroup.com.au/,Y,zilorgroup.com.au,https://www.linkedin.com/company/zilorgroup/,,,,,,,,,,,,,,,,,,,,Australia,,,,,,,
