Source,Name,Main Phone,Main Email,Website,Website Valid,Email extension,Linkedin,Instagram,Facebook,X,Pinterest,TikTok,Youtube,Mission,Veteran Owned Business Y/N,Is certified Veteran Owned Business Y/N,Is Veteran Service Organization Y/N,Is VA or GOV Organization Y/N,VA or GOV Type,VA or GOV Subtype,Service Area,Address Line one,Address Line Two,Latitude,Longitude,Zip Code,Country,State,County,Municipality - Place,Notes,Owner,Owner Phone,Owner Email
https://www.avob.org.au/certified-businesses,3ME Technology,,,https://3me.technology/,,,,,,,,,,,,,,,,,,,,,,,Australia,,,,,,,
https://www.avob.org.au/certified-businesses,AC Fitouts,,,https://acfitouts.com.au/,,,,https://www.instagram.com/acfitouts/,https://www.facebook.com/acfitouts/,https://twitter.com/acfitouts,,,,,,,,,,,,,,,,,Australia,,,,,,,
https://www.avob.org.au/certified-businesses,AEGIR Marine,,,http://www.aegirmarine.com.au,,,https://www.linkedin.com/company/4805595,,https://www.facebook.com/aegirmarineaustralia,https://twitter.com/AEGIR_M_Survey,,,,,,,,,,,,,,,,,Australia,,,,,,,
https://www.avob.org.au/certified-businesses,AG Digital Consultants,,,https://agdigital.com.au/,,,https://www.linkedin.com/company/agdigitalconsultants/,,https://www.facebook.com/agdigitalconsultants,,,,,,,,,,,,,,,,,,Australia,,,,,,,
https://www.avob.org.au/certified-businesses,AKRYPT,,,https://www.akryptstore.com/,,,,https://www.instagram.com/akryptstore/,https://www.facebook.com/people/AKRYPT/100086701953079/,,,,,,,,,,,,,,,,,,Australia,,,,,,,
https://www.avob.org.au/certified-businesses,ANSIC Security,,,https://www.ansic.com.au/,,,https://www.linkedin.com/company/ansic/,https://www.instagram.com/ansicsecurity/,https://www.facebook.com/ansicsec,,,,,,,,,,,,,,,,,,Australia,,,,,,,
https://www.avob.org.au/certified-businesses,AW Mobile Detailing,,,https://awmobiledetailing.com/,,,,https://www.instagram.com/awmobile_detailing,https://www.facebook.com/people/AW-Mobile-Detailing/100094000986498/?mibextid=2JQ9oc,,,,,,,,,,,,,,,,,,Australia,,,,,,,
https://www.avob.org.au/certified-businesses,Aces Plus Finance,,,,,,,,,,,,,,,,,,,,,,,,,,Australia,,,,,,,
https://www.avob.org.au/certified-businesses,Actus Associates,,,http://www.actus.net.au/,,,https://www.linkedin.com/company/actus-associates-pty-ltd/,https://www.instagram.com/actusassociates/,https://www.facebook.com/actusassociates/,,,,,,,,,,,,,,,,,,Australia,,,,,,,
https://www.avob.org.au/certified-businesses,Aerial Images Sunshine Coast,,,http://www.aerialimagessunshinecoast.com.au/,,,,,,,,,https://www.youtube.com/channel/UCG7BqxWrwVlINtsdPlW9ahg,,,,,,,,,,,,,,Australia,,,,,,,
https://www.avob.org.au/certified-businesses,Alacon Aero Pty Ltd,,,http://www.alaconaero.com.au,,,,,https://www.facebook.com/alaconaero/,,,,,,,,,,,,,,,,,,Australia,,,,,,,
https://www.avob.org.au/certified-businesses,Ale Mary Brewing Co,,,https://www.alemary.beer/,,,,https://www.instagram.com/ale_mary_brewing_co,https://www.facebook.com/AleMaryBrewingCo,,,,,,,,,,,,,,,,,,Australia,,,,,,,
https://www.avob.org.au/certified-businesses,Alliance Leasing,,,https://www.allianceleasing.com.au/,,,https://www.linkedin.com/company/alliance-leasing-australia/,https://www.instagram.com/allianceleasing_/,https://www.facebook.com/Allianceleasingau/,,,,https://www.youtube.com/watch?v=2YOQkNyepJc&amp;feature=youtu.be,,,,,,,,,,,,,,Australia,,,,,,,
https://www.avob.org.au/certified-businesses,Amptech Electrical,,,http://www.amptechelectrical.com.au/,,,https://www.linkedin.com/in/amptech-electrical-4bb67699/,https://www.instagram.com/AmptechElectrical/,https://www.facebook.com/AmptechElectrical,,,,,,,,,,,,,,,,,,Australia,,,,,,,
https://www.avob.org.au/certified-businesses,Analysed Clubs,,,https://analysedclubs.com/,,,,,,,,,,,,,,,,,,,,,,,Australia,,,,,,,
https://www.avob.org.au/certified-businesses,Andare Consulting Group,,,https://www.andareconsulting.com.au/,,,,,,,,,,,,,,,,,,,,,,,Australia,,,,,,,
https://www.avob.org.au/certified-businesses,Animal Control Experts,,,https://www.animalcontrolexperts.com.au/,,,,,,,,,,,,,,,,,,,,,,,Australia,,,,,,,
https://www.avob.org.au/certified-businesses,Arc Professional Services,,,https://arcps.com.au/,,,,,,,,,,,,,,,,,,,,,,,Australia,,,,,,,
https://www.avob.org.au/certified-businesses,Arresti VPN,,,https://arresti.com/,,,https://www.linkedin.com/company/arresti/,https://www.instagram.com/arrestivpn/,https://www.facebook.com/arrestiVPN/,https://twitter.com/arrestivpn,,,,,,,,,,,,,,,,,Australia,,,,,,,
https://www.avob.org.au/certified-businesses,Ascent Professional Services,,,https://www.ascentps.com.au/,,,,,https://www.facebook.com/ascentprofessionalservices,https://twitter.com/Ascent_PS,,,,,,,,,,,,,,,,,Australia,,,,,,,
https://www.avob.org.au/certified-businesses,Asset College,,,https://www.asset.edu.au/,,,https://www.linkedin.com/school/asset-training-australia/,,https://www.facebook.com/AssetCollege,https://twitter.com/asset_training,,,,,,,,,,,,,,,,,Australia,,,,,,,
https://www.avob.org.au/certified-businesses,Atlin,,,https://www.atlin.com.au/,,,https://www.linkedin.com/company/atlin/,,,,,,,,,,,,,,,,,,,,Australia,,,,,,,
https://www.avob.org.au/certified-businesses,Atm2go Rockhampton,,,https://www.atm2go.com.au,,,,https://www.instagram.com/atm2go_rockhampton/,https://www.facebook.com/ATM2GORockhampton/,,,,,,,,,,,,,,,,,,Australia,,,,,,,
https://www.avob.org.au/certified-businesses,AusSTE,,,https://ausste.com.au/,,,https://www.linkedin.com/company/ausste/,,,,,,,,,,,,,,,,,,,,Australia,,,,,,,
https://www.avob.org.au/certified-businesses,Australian International Equipment Group,,,https://www.aiegroup.com.au/,,,,https://www.instagram.com/aiegrouppl/,https://www.facebook.com/aiegrouppl,https://twitter.com/australian_ltd,,,,,,,,,,,,,,,,,Australia,,,,,,,
https://www.avob.org.au/certified-businesses,Australian Training Institute,,,https://atiaustralia.edu.au/,,,https://www.linkedin.com/company/australian-training-institute-ati-pty-ltd/,https://www.instagram.com/atiaustralia/,https://www.facebook.com/ATI.Australia/,https://twitter.com/ATIAustralia,,,,,,,,,,,,,,,,,Australia,,,,,,,
https://www.avob.org.au/certified-businesses,Australian Veterans Advocacy and Consulting Services,,,https://www.avac-services.com/,,,,,https://www.facebook.com/AVACServices,,,,,,,,,,,,,,,,,,Australia,,,,,,,
https://www.avob.org.au/certified-businesses,Axon Property Group Pty Ltd,,,http://www.axonproperty.com.au/,,,https://www.linkedin.com/company-beta/18005571/?pathWildcard=18005571,,https://www.facebook.com/axonproperty/,https://twitter.com/AxonProperty,,,,,,,,,,,,,,,,,Australia,,,,,,,
https://www.avob.org.au/certified-businesses,Azguard Security,,,https://www.azguardsecurity.com.au/,,,,,,,,,,,,,,,,,,,,,,,Australia,,,,,,,
https://www.avob.org.au/certified-businesses,BOUW Range and Training Area Subject Matter Experts,,,http://www.bouw.com.au/,,,https://www.linkedin.com/company/bouw-consulting/,https://www.instagram.com/BOUWConsulting/,https://www.facebook.com/BOUWConsultants/,,,,https://www.youtube.com/channel/UCG8nVwHQKcQffJlHGpa7dOQ,,,,,,,,,,,,,,Australia,,,,,,,
https://www.avob.org.au/certified-businesses,Bailey Abbott Group,,,https://baileyabbott.com.au/,,,https://www.linkedin.com/company/bailey-abbott/,,,,,,,,,,,,,,,,,,,,Australia,,,,,,,
https://www.avob.org.au/certified-businesses,Bay Islands Security,,,https://bayislandssecurity.com/,,,,,,,,,,,,,,,,,,,,,,,Australia,,,,,,,
https://www.avob.org.au/certified-businesses,Bellco Homes,,,https://bellcohomes.net/,,,,,https://www.facebook.com/people/Bellco-Homes/100064098091237/,,,,,,,,,,,,,,,,,,Australia,,,,,,,
https://www.avob.org.au/certified-businesses,Biorg Pty Ltd,,,http://biorg.com.au/,,,https://www.linkedin.com/company/biorg-pty-ltd/,,,,,,,,,,,,,,,,,,,,Australia,,,,,,,
https://www.avob.org.au/certified-businesses,Blackthorne Group,,,https://blackthorne.net.au/,,,https://www.linkedin.com/company/blackthorne-group/,,,https://twitter.com/BGCoPtyLtd,,,,,,,,,,,,,,,,,Australia,,,,,,,
https://www.avob.org.au/certified-businesses,Bluerydge,,,https://www.bluerydge.com/,,,https://www.linkedin.com/company/bluerydge,,,,,,,,,,,,,,,,,,,,Australia,,,,,,,
https://www.avob.org.au/certified-businesses,BosTECK,,,https://bosteck.com.au/,,,https://www.linkedin.com/company/bosteck/,,,,,,,,,,,,,,,,,,,,Australia,,,,,,,
https://www.avob.org.au/certified-businesses,Broken Hearts Barbershop,,,http://www.brokenheartsbarbershop.com.au/,,,,https://www.instagram.com/broken_hearts_barbershop/,https://www.facebook.com/brokenheartsbarbershop,,,,,,,,,,,,,,,,,,Australia,,,,,,,
https://www.avob.org.au/certified-businesses,Business Risk,,,http://businessrisk.com/,,,https://www.linkedin.com/in/ian-stewart-705292184/,,,,,,,,,,,,,,,,,,,,Australia,,,,,,,
https://www.avob.org.au/certified-businesses,C3 Systems,,,http://www.c3systems.com.au/,,,,,,,,,,,,,,,,,,,,,,,Australia,,,,,,,
https://www.avob.org.au/certified-businesses,Cardiac Mentors,,,https://www.cardiacmentors.com/,,,,,https://www.facebook.com/people/Cardiac-Mentors/100090652593855/,,,,,,,,,,,,,,,,,,Australia,,,,,,,
https://www.avob.org.au/certified-businesses,Castle Solar,,,https://castlesolar.com.au/,,,,https://www.instagram.com/castlesolar/,https://www.facebook.com/castlesolar,,,,,,,,,,,,,,,,,,Australia,,,,,,,
https://www.avob.org.au/certified-businesses,Caulicooler,,,https://caulicooler.com/,,,,,https://www.facebook.com/caulicooler,http://www.twitter.com/caulicooler,,,,,,,,,,,,,,,,,Australia,,,,,,,
https://www.avob.org.au/certified-businesses,Clements Medical,,,https://www.clementsmedical.com.au/,,,,,https://www.facebook.com/clementsmedicalgroup,,,,,,,,,,,,,,,,,,Australia,,,,,,,
https://www.avob.org.au/certified-businesses,Coherics,,,https://www.coherics.com.au/,,,https://www.linkedin.com/company/coherics/,,,https://twitter.com/coherics,,,,,,,,,,,,,,,,,Australia,,,,,,,
https://www.avob.org.au/certified-businesses,Commando Steve,,,https://bio.site/commandosteve,,,,http://instagram.com/commandosteve,https://www.facebook.com/pages/Commando-Steve/131654670216915?fref=ts,https://twitter.com/commandosteve,,,,,,,,,,,,,,,,,Australia,,,,,,,
https://www.avob.org.au/certified-businesses,Complete Business Online,,,https://www.cbo.me/,,,https://www.linkedin.com/company/complete-business-online/,https://www.instagram.com/cbo.me/,https://www.facebook.com/cbodigital,https://twitter.com/CompBusOnline,,,,,,,,,,,,,,,,,Australia,,,,,,,
https://www.avob.org.au/certified-businesses,Complete Management Systems,,,https://cmswa.com.au/,,,https://www.linkedin.com/in/craig-howell-0210b325/,,,,,,,,,,,,,,,,,,,,Australia,,,,,,,
https://www.avob.org.au/certified-businesses,Connect3i,,,http://www.connect3i.com.au/,,,,,,https://twitter.com/connect3i,,,,,,,,,,,,,,,,,Australia,,,,,,,
https://www.avob.org.au/certified-businesses,Conscia Pty Ltd,,,http://www.conscia.com.au/,,,https://www.linkedin.com/company/conscia-pty-ltd/,,,,,,,,,,,,,,,,,,,,Australia,,,,,,,
https://www.avob.org.au/certified-businesses,Core Security Group,,,https://coresecurity.com.au/,,,https://www.linkedin.com/company/core-security-group-pty-ltd/?viewAsMember=true,https://www.instagram.com/core_security_australia/,https://www.facebook.com/coresectraining/,,,,,,,,,,,,,,,,,,Australia,,,,,,,
https://www.avob.org.au/certified-businesses,Core Security Training,,,https://coresecurity.wa.edu.au/,,,,https://www.instagram.com/core_security_training/,https://www.facebook.com/coresectraining/,,,,,,,,,,,,,,,,,,Australia,,,,,,,
https://www.avob.org.au/certified-businesses,Cryptic Conditioning,,,https://crypticconditioning.com.au/,,,,https://www.instagram.com/crypticconditioning/,,,,,,,,,,,,,,,,,,,Australia,,,,,,,
https://www.avob.org.au/certified-businesses,DEWC Services,,,https://www.dewc.com/,,,,,,,,,https://www.youtube.com/@dewcservices,,,,,,,,,,,,,,Australia,,,,,,,
https://www.avob.org.au/certified-businesses,Defence Finance Pty Ltd,,,https://defencefinance.com.au/,,,,,https://www.facebook.com/defencefinance/,,,,,,,,,,,,,,,,,,Australia,,,,,,,
https://www.avob.org.au/certified-businesses,Dive Repairs,,,http://www.diverepairs.com.au/,,,,http://instagram.com/diverepairs,https://www.facebook.com/DiveRepairs,,,,,,,,,,,,,,,,,,Australia,,,,,,,
https://www.avob.org.au/certified-businesses,ECLIPS Pty Ltd,,,https://eclips.engineering/,,,https://www.linkedin.com/company/eclips-engineering/,https://www.instagram.com/eclips.engineering/,https://www.facebook.com/ECLIPS.engineering/,https://twitter.com/ECLIPS_Eng,,,,,,,,,,,,,,,,,Australia,,,,,,,
https://www.avob.org.au/certified-businesses,EJ Medical,,,http://www.ejmedical.com.au/,,,,https://www.instagram.com/ej_medical/,https://www.facebook.com/EJ-Medical-103433385582429,,,,,,,,,,,,,,,,,,Australia,,,,,,,
https://www.avob.org.au/certified-businesses,EPE Trusted to Protect,,,https://www.epequip.com,,,https://www.linkedin.com/company/explosive-protective-equipment,,https://www.facebook.com/ExplosiveProtectiveEquipment,https://twitter.com/epequip,,,,,,,,,,,,,,,,,Australia,,,,,,,
https://www.avob.org.au/certified-businesses,EZE-FLOW Plumbing,,,http://www.eze-flowplumbing.com.au/,,,,https://www.instagram.com/ezeflow_plumbing/,https://www.facebook.com/ezeflowplumbing/,,,,https://www.youtube.com/channel/UCBzfAapSakoLy4IkJuZ0ycw,,,,,,,,,,,,,,Australia,,,,,,,
https://www.avob.org.au/certified-businesses,EdifyConnect,,,https://edifyconnect.com.au/,,,https://www.linkedin.com/company/edifyconnect/,,,,,,,,,,,,,,,,,,,,Australia,,,,,,,
https://www.avob.org.au/certified-businesses,Effective People,,,http://www.effectivepeople.com.au/,,,https://www.linkedin.com/company/effective-people-pty-ltd/,https://www.instagram.com/effectivepeople.com.au/,https://www.facebook.com/EffectivePeopleAU/,,,,,,,,,,,,,,,,,,Australia,,,,,,,
https://www.avob.org.au/certified-businesses,Eltcon,,,https://eltcon.com.au/,,,,https://www.instagram.com/eltcon/,https://www.facebook.com/people/Eltcon/100091061341508/,,,,,,,,,,,,,,,,,,Australia,,,,,,,
https://www.avob.org.au/certified-businesses,Emergency Australia,,,http://www.emergencyaustralia.com.au/,,,http://au.linkedin.com/pub/sean-o-loughlin/50/583/8b,,https://www.facebook.com/emergencyaustralia,,,,,,,,,,,,,,,,,,Australia,,,,,,,
https://www.avob.org.au/certified-businesses,Empire Executive Protection,,,https://www.empireprotection.com.au/,,,,,https://www.facebook.com/empireprotectionptyltd/,,,,,,,,,,,,,,,,,,Australia,,,,,,,
https://www.avob.org.au/certified-businesses,Empowered Learning,,,http://www.empoweredlearning.com/,,,,,,,,,,,,,,,,,,,,,,,Australia,,,,,,,
https://www.avob.org.au/certified-businesses,Envy - Lawn | Garden | Legend,,,https://envy-inc.com/,,,,https://www.instagram.com/envy.lawn_garden_legend/,https://www.facebook.com/EnvyLGL,,,,,,,,,,,,,,,,,,Australia,,,,,,,
https://www.avob.org.au/certified-businesses,Envy Aesthetics,,,http://www.envyaesthetics.com.au/,,,,,https://www.facebook.com/envyaestheticsnorthlakes,,,,,,,,,,,,,,,,,,Australia,,,,,,,
https://www.avob.org.au/certified-businesses,Etch Me,,,https://www.etchme.com.au/,,,,https://www.instagram.com/etchmeau/,https://www.facebook.com/EtchMeAU,https://twitter.com/etchmeau,,,https://www.youtube.com/channel/UCkASj4GkaNc5AdItPhdt34g,,,,,,,,,,,,,,Australia,,,,,,,
https://www.avob.org.au/certified-businesses,Eva&#x27;s Ridge Enterprises,,,https://evasridgeenterprises.com.au/,,,,,,,,,,,,,,,,,,,,,,,Australia,,,,,,,
https://www.avob.org.au/certified-businesses,Exas Group,,,https://www.exasgroup.com.au/,,,,,,,,,,,,,,,,,,,,,,,Australia,,,,,,,
https://www.avob.org.au/certified-businesses,Executive Risk Solutions,,,http://www.executiverisksolutions.com.au/,,,https://www.linkedin.com/company/executive-risk-solutions,,,https://twitter.com/ERS_Aus,,,https://www.youtube.com/channel/UCFLDV3Dvfy5mD0TWqRgehvw,,,,,,,,,,,,,,Australia,,,,,,,
https://www.avob.org.au/certified-businesses,Extra Specialists,,,https://www.extraspecialists.com,,,,https://www.instagram.com/extra_specialists/,https://www.facebook.com/extraspecialists,,,,,,,,,,,,,,,,,,Australia,,,,,,,
https://www.avob.org.au/certified-businesses,Firevolt,,,http://www.firevolt.com.au,,,https://www.linkedin.com/company/firevolt/,https://www.instagram.com/firevolt._,https://www.facebook.com/people/Firevolt/100086488210335/,,,,,,,,,,,,,,,,,,Australia,,,,,,,
https://www.avob.org.au/certified-businesses,First Strike Consultancy,,,,,,,https://www.instagram.com/first_strike_consultancy/,https://www.facebook.com/firststrikeconsultancy,,,,,,,,,,,,,,,,,,Australia,,,,,,,
https://www.avob.org.au/certified-businesses,GSDN Tech Programs,,,https://www.gsdntp.com.au/,,,https://www.linkedin.com/company/gsdn-tech-programs/,,,,,,,,,,,,,,,,,,,,Australia,,,,,,,
https://www.avob.org.au/certified-businesses,Gascoyne Gateway,,,http://www.gascoynegateway.com.au/,,,https://www.linkedin.com/company/gascoyne-gateway-limited/,,,https://twitter.com/GascoyneGateway,,,,,,,,,,,,,,,,,Australia,,,,,,,
https://www.avob.org.au/certified-businesses,Get Commando Fit,,,http://www.getcommandofit.com.au/,,,,http://instagram.com/getcommandofit,https://www.facebook.com/getcommandofit,https://twitter.com/getcommandofit,,,,,,,,,,,,,,,,,Australia,,,,,,,
https://www.avob.org.au/certified-businesses,Gibborim,,,,,,,,,,,,,,,,,,,,,,,,,,Australia,,,,,,,
https://www.avob.org.au/certified-businesses,Graveyard Designs,,,https://www.graveyarddesigns.com/,,,,https://www.instagram.com/thisisgraveyarddesigns/,https://www.facebook.com/Graveyarddesigns/,,,,,,,,,,,,,,,,,,Australia,,,,,,,
https://www.avob.org.au/certified-businesses,Gripfast Consulting,,,https://gripfastprojects.com.au/,,,,,,,,,,,,,,,,,,,,,,,Australia,,,,,,,
https://www.avob.org.au/certified-businesses,Guardio,,,https://www.guardio.com.au/,,,,,,,,,,,,,,,,,,,,,,,Australia,,,,,,,
https://www.avob.org.au/certified-businesses,Harris Stability Systems,,,http://www.harrisstabilitysystems.com.au/,,,,http://www.instagram.com/harrisstabilitysystems,https://www.facebook.com/harrisstabilitysystem?fref=ts,http://www.twitter.com/harrisstability,,,,,,,,,,,,,,,,,Australia,,,,,,,
https://www.avob.org.au/certified-businesses,Harwin Research and Developments,,,https://www.harwin.com.au/,,,,,,,,,,,,,,,,,,,,,,,Australia,,,,,,,
https://www.avob.org.au/certified-businesses,Hebron Films,,,https://hebronfilms.com/,,,,https://www.instagram.com/hebronfilms,https://www.facebook.com/HebronFilms/,,,,https://www.youtube.com/HebronFilms,,,,,,,,,,,,,,Australia,,,,,,,
https://www.avob.org.au/certified-businesses,Holan Group,,,https://www.holan.com.au/,,,,,,,,,,,,,,,,,,,,,,,Australia,,,,,,,
https://www.avob.org.au/certified-businesses,HomeFront Australia,,,https://www.homefrontaustralia.com.au/services/dva-household-services/,,,https://www.linkedin.com/company/homefront-australia/,https://www.instagram.com/homefrontaustralia/,https://www.facebook.com/HomeFrontAustralia/,,,,https://www.youtube.com/channel/UCiTOn5T9tmSZQP-0C3tRLZg,,,,,,,,,,,,,,Australia,,,,,,,
https://www.avob.org.au/certified-businesses,Hoplite,,,https://hoplite.au/,,,,https://www.instagram.com/hoplitementor/,https://www.facebook.com/HopliteMentor,https://twitter.com/Hoplite04250699,,,,,,,,,,,,,,,,,Australia,,,,,,,
https://www.avob.org.au/certified-businesses,Horsell,,,https://www.horsell.com.au/,,,https://www.linkedin.com/company/horsell-consulting/,,http://www.facebook.com/horsellconsulting,https://twitter.com/jobsathorsell,,,,,,,,,,,,,,,,,Australia,,,,,,,
https://www.avob.org.au/certified-businesses,Human Engineered,,,http://www.humanengineered.com.au/,,,,,,,,,,,,,,,,,,,,,,,Australia,,,,,,,
https://www.avob.org.au/certified-businesses,Human Quotient Group,,,https://humanquotient.com.au/,,,,,,,,,,,,,,,,,,,,,,,Australia,,,,,,,
https://www.avob.org.au/certified-businesses,Impact Firearms Training,,,http://www.impactfirearmstraining.com.au/,,,https://www.linkedin.com/company/imperium-engineering/about/,,https://www.facebook.com/ImpactFirearmsTrainingAustralia/,,,,,,,,,,,,,,,,,,Australia,,,,,,,
https://www.avob.org.au/certified-businesses,Imperium Engineering Pty Ltd,,,https://www.imperiumeng.com.au/,,,,,,,,,,,,,,,,,,,,,,,Australia,,,,,,,
https://www.avob.org.au/certified-businesses,Indigitech,,,http://www.indigitech.com.au/,,,,,,,,,,,,,,,,,,,,,,,Australia,,,,,,,
https://www.avob.org.au/certified-businesses,Industry Risk,,,https://industryrisk.com.au/,,,https://www.linkedin.com/company/industry-risk/,,,https://twitter.com/IndustryRisk,,,,,,,,,,,,,,,,,Australia,,,,,,,
https://www.avob.org.au/certified-businesses,Integrated Training and Documentation,,,https://www.itad.com.au/,,,https://www.linkedin.com/in/dave-newdick-6261016/,,,,,,,,,,,,,,,,,,,,Australia,,,,,,,
https://www.avob.org.au/certified-businesses,Intrinsic Safety,,,https://intrinsicsafety.com.au/,,,https://www.linkedin.com/company/intrinsic-safety-training/,https://www.instagram.com/intrinsicsafetytraining/,https://www.facebook.com/intrinsicsafetytraining/,,,,,,,,,,,,,,,,,,Australia,,,,,,,
https://www.avob.org.au/certified-businesses,Ironside Resources,,,https://www.ironsideresources.com.au,,,https://www.linkedin.com/company/ironside-resources/,,https://www.facebook.com/Ironside.Resources,,,,,,,,,,,,,,,,,,Australia,,,,,,,
https://www.avob.org.au/certified-businesses,JDR Electrical Contractor,,,https://jdrelectrical.com/,,,,,,,,,,,,,,,,,,,,,,,Australia,,,,,,,
https://www.avob.org.au/certified-businesses,JKG Global Group,,,http://www.jkg.com.au/,,,,,,,,,,,,,,,,,,,,,,,Australia,,,,,,,
https://www.avob.org.au/certified-businesses,JSC Property Investments,,,https://jscpropertyinvestments.com.au/,,,,https://www.instagram.com/jscpropertyinvestments/,https://www.facebook.com/profile.php?id=100092251659449,,,,https://www.youtube.com/channel/UCGPPPJQ2nbgNoVFoOuqJxkQ,,,,,,,,,,,,,,Australia,,,,,,,
https://www.avob.org.au/certified-businesses,JY Australia,,,https://jyaustralia.com.au/,,,https://www.linkedin.com/company/jlb-yaran/,,,,,,,,,,,,,,,,,,,,Australia,,,,,,,
https://www.avob.org.au/certified-businesses,JYHQ,,,http://www.jyhq.com.au/,,,,,,,,,,,,,,,,,,,,,,,Australia,,,,,,,
https://www.avob.org.au/certified-businesses,Jade Financial Group,,,http://www.jadefg.com.au/,,,https://www.linkedin.com/company/jade-financial-group,,https://www.facebook.com/JadeFinancialGroup/,https://twitter.com/Jade_FG,,,,,,,,,,,,,,,,,Australia,,,,,,,
https://www.avob.org.au/certified-businesses,Jericho Australia,,,https://jerichoaustralia.com/,,,,https://www.instagram.com/jerichoaustralia_/,https://www.facebook.com/jerichoaustralia,,,,,,,,,,,,,,,,,,Australia,,,,,,,
https://www.avob.org.au/certified-businesses,K9 Territory,,,http://www.k9territory.com.au/,,,,https://www.instagram.com/k9t_the_handler,,,,,,,,,,,,,,,,,,,Australia,,,,,,,
https://www.avob.org.au/certified-businesses,Kailash,,,http://www.kailash.co/,,,,https://www.instagram.com/kailashcollective/,https://www.facebook.com/KailashGrampians,,,,https://www.youtube.com/channel/UCwTKVQzxdGgmyoTYj9TY6UQ,,,,,,,,,,,,,,Australia,,,,,,,
https://www.avob.org.au/certified-businesses,Kalliso | Home of PEM,,,https://kalliso.com/,,,,,,,,,,,,,,,,,,,,,,,Australia,,,,,,,
https://www.avob.org.au/certified-businesses,Kasic &amp; Associates,,,,,,,,,,,,,,,,,,,,,,,,,,Australia,,,,,,,
https://www.avob.org.au/certified-businesses,KatchyaL8r Gone Fishing,,,https://katchyal8rgonefishing.com/,,,,,,,,,,,,,,,,,,,,,,,Australia,,,,,,,
https://www.avob.org.au/certified-businesses,Ken Newton Consulting,,,https://www.kennmc.com.au,,,https://www.linkedin.com/company/kennmc/,,https://www.facebook.com/kennmc.com.au,,,,,,,,,,,,,,,,,,Australia,,,,,,,
https://www.avob.org.au/certified-businesses,Keyland Air Services,,,http://www.sbair.com.au/,,,,,https://www.facebook.com/KeylandAir/,,,,,,,,,,,,,,,,,,Australia,,,,,,,
https://www.avob.org.au/certified-businesses,Kinexus Defence Services,,,https://www.kinexus.com.au/,,,https://www.linkedin.com/company/kinexus-australia/,https://www.instagram.com/kinexus_au/,,,,,,,,,,,,,,,,,,,Australia,,,,,,,
https://www.avob.org.au/certified-businesses,LRM Fire &amp; Rescue,,,https://www.lrmfireandrescue.com.au/,,,,,https://www.facebook.com/lrmfireandrescue,,,,,,,,,,,,,,,,,,Australia,,,,,,,
https://www.avob.org.au/certified-businesses,Larapinta Trail Trek Support,,,https://www.larapintatrailtreksupport.com.au/,,,,https://www.instagram.com/larapintatrailtreksupport/,https://www.facebook.com/larapintatrailtreksupport/,,,,,,,,,,,,,,,,,,Australia,,,,,,,
https://www.avob.org.au/certified-businesses,Learning &amp; Development Solutions,,,http://www.ldsolutions.com.au/,,,,https://instagram.com/lds_aus/,https://www.facebook.com/LDSolutions,https://twitter.com/lds_aus,,,,,,,,,,,,,,,,,Australia,,,,,,,
https://www.avob.org.au/certified-businesses,Life International Training,,,https://lifeint.com.au/,,,https://www.linkedin.com/company/lifeinternationaltraining/,,https://www.facebook.com/LifeInternationalTraining,,,,,,,,,,,,,,,,,,Australia,,,,,,,
https://www.avob.org.au/certified-businesses,Lifetime Care Disability Services,,,http://www.lifetimecaredisability.com.au/,,,,https://www.instagram.com/lifetime_care_disability_/,https://www.facebook.com/people/Lifetime-Care-Disability-Services/100090097904727/?mibextid=LQQJ4d,,,,,,,,,,,,,,,,,,Australia,,,,,,,
https://www.avob.org.au/certified-businesses,Limitless Movement,,,https://limitlessmovement.co/,,,,https://www.instagram.com/limitlessmovement_aus/,https://www.facebook.com/limitlessmovementaus,,,,https://www.youtube.com/channel/UCpwm_aC1dYST7I4t_W7N33A,,,,,,,,,,,,,,Australia,,,,,,,
https://www.avob.org.au/certified-businesses,Limitless Performance Centre,,,http://limitlessperformancecentre.com.au/,,,,https://www.instagram.com/limitlessperformance_aus/,https://www.facebook.com/limitlessperformanceaus,,,,,,,,,,,,,,,,,,Australia,,,,,,,
https://www.avob.org.au/certified-businesses,Lockforce Consultancy,,,http://www.lockforce.com.au/,,,,,,,,,https://www.youtube.com/watch?v=h62rKqtiC_0,,,,,,,,,,,,,,Australia,,,,,,,
https://www.avob.org.au/certified-businesses,M&amp;R Solutions,,,https://mandrsolutions.com.au/,,,https://www.linkedin.com/company/m-r-solutions-pty-ltd/,,,,,,,,,,,,,,,,,,,,Australia,,,,,,,
https://www.avob.org.au/certified-businesses,MARS Maritime,,,http://www.marsmaritime.com.au/,,,,https://www.instagram.com/marsmaritime/,https://www.facebook.com/MARSmaritimeAustralia/,,,,,,,,,,,,,,,,,,Australia,,,,,,,
https://www.avob.org.au/certified-businesses,Macarthur Real Estate Agency,,,https://www.macarthurrealestate.com.au/,,,https://www.linkedin.com/company/macarthurrealestate/,https://www.instagram.com/macarthurrealestate/,https://www.facebook.com/macarthurrealestate/,,,,,,,,,,,,,,,,,,Australia,,,,,,,
https://www.avob.org.au/certified-businesses,Macleay Valley Hub,,,https://macleayvalleyhub.com.au/,,,,https://www.instagram.com/macleayvalleyhub/,https://www.facebook.com/macleayvalleyhub,https://twitter.com/MacleayHub,,,,,,,,,,,,,,,,,Australia,,,,,,,
https://www.avob.org.au/certified-businesses,Major Training Services,,,http://www.majortraining.com.au/,,,https://www.linkedin.com/company/majortraining/,,https://www.facebook.com/majortraining/,,,,,,,,,,,,,,,,,,Australia,,,,,,,
https://www.avob.org.au/certified-businesses,Marcel Pacific,,,https://marcelpacific.com/,,,,,,,,,,,,,,,,,,,,,,,Australia,,,,,,,
https://www.avob.org.au/certified-businesses,Masot,,,,,,,,,,,,,,,,,,,,,,,,,,Australia,,,,,,,
https://www.avob.org.au/certified-businesses,Me and Me Brew,,,https://meandmebrew.com.au/,,,,https://www.instagram.com/meandmebrew/,https://www.facebook.com/MeAndMeBrew/,,,,,,,,,,,,,,,,,,Australia,,,,,,,
https://www.avob.org.au/certified-businesses,Military Grade Transport,,,https://militarygradetransport.com.au/,,,,,,,,,,,,,,,,,,,,,,,Australia,,,,,,,
https://www.avob.org.au/certified-businesses,Milligan Group,,,http://www.milligangroup.com.au/,,,,,,,,,,,,,,,,,,,,,,,Australia,,,,,,,
https://www.avob.org.au/certified-businesses,MobileLock,,,https://www.mobilelock.com.au/,,,,,https://www.facebook.com/locksmithgordonvalecairnsedmontonhome/,,,,,,,,,,,,,,,,,,Australia,,,,,,,
https://www.avob.org.au/certified-businesses,Monaro Air Conditioning &amp; Refrigeration,,,,,,,,,,,,,,,,,,,,,,,,,,Australia,,,,,,,
https://www.avob.org.au/certified-businesses,Montane Protective Security,,,https://www.montaneps.com.au/,,,https://www.linkedin.com/company/integersec,https://www.instagram.com/montaneps/,,https://twitter.com/MontanePS,,,,,,,,,,,,,,,,,Australia,,,,,,,
https://www.avob.org.au/certified-businesses,Mortgage Choice Glebe,,,https://www.mortgagechoice.com.au/james.slattery/,,,,,,,,,,,,,,,,,,,,,,,Australia,,,,,,,
https://www.avob.org.au/certified-businesses,Mortgage Choice Pip Need,,,https://www.mortgagechoice.com.au/pip.need/,,,,https://www.instagram.com/mortgagechoicepipneed/,https://www.facebook.com/MortgageChoicePipNeed,,,,,,,,,,,,,,,,,,Australia,,,,,,,
https://www.avob.org.au/certified-businesses,Mountain Monk Brewers,,,https://www.mountainmonkbrewers.com.au/,,,,https://www.instagram.com/mountainmonkbrewers/,https://www.facebook.com/mountainmonkbrewers/,,,,,,,,,,,,,,,,,,Australia,,,,,,,
https://www.avob.org.au/certified-businesses,Murray Consulting Solutions,,,https://www.murrayconsultingsolutions.com/,,,,https://www.instagram.com/murrayconsulting/,https://www.facebook.com/murrayconsultingsolutions/,,,,,,,,,,,,,,,,,,Australia,,,,,,,
https://www.avob.org.au/certified-businesses,NHN Group,,,http://www.nhngroup.com.au/,,,https://www.linkedin.com/company/nhngroup/,,,,,,,,,,,,,,,,,,,,Australia,,,,,,,
https://www.avob.org.au/certified-businesses,Nathan Laing,,,https://www.njlaing.com/,,,,https://www.instagram.com/laing_at_law/,https://www.facebook.com/njlaingbarrister/,,,,,,,,,,,,,,,,,,Australia,,,,,,,
https://www.avob.org.au/certified-businesses,Nautical Systems,,,http://nauticalsystems.com.au/,,,https://www.linkedin.com/company/nautical-systems/,,,,,,,,,,,,,,,,,,,,Australia,,,,,,,
https://www.avob.org.au/certified-businesses,Neptune Electrical,,,https://netnt.com.au/services/,,,,,https://www.facebook.com/p/Neptune-Electrical-Technology-100063708272137/,,,,,,,,,,,,,,,,,,Australia,,,,,,,
https://www.avob.org.au/certified-businesses,Neptune NT,,,https://www.neptunent.com/,,,,,https://www.facebook.com/NeptuneNTSec/,,,,,,,,,,,,,,,,,,Australia,,,,,,,
https://www.avob.org.au/certified-businesses,Next Peak,,,https://www.nextpeak.com.au/,,,,,,,,,,,,,,,,,,,,,,,Australia,,,,,,,
https://www.avob.org.au/certified-businesses,North Coast Photography,,,,,,,https://www.instagram.com/cambo2901/,https://www.facebook.com/Cambo2901,,,,,,,,,,,,,,,,,,Australia,,,,,,,
https://www.avob.org.au/certified-businesses,Northern Maritime &amp; Industrial Services,,,http://www.nmis.com.au/,,,,,https://www.facebook.com/nmis.com.au,https://twitter.com/NMISAUSTRALIA,,,,,,,,,,,,,,,,,Australia,,,,,,,
https://www.avob.org.au/certified-businesses,Numb Skulled,,,https://www.numbskulled.com/,,,,https://www.instagram.com/_numb_skulled/,https://www.facebook.com/numbskulled/,,,,,,,,,,,,,,,,,,Australia,,,,,,,
https://www.avob.org.au/certified-businesses,OCRT Trading,,,https://www.ocrt.com.au/,,,https://www.linkedin.com/company/ocrt/,,,,,,,,,,,,,,,,,,,,Australia,,,,,,,
https://www.avob.org.au/certified-businesses,OTHRSIDE,,,,,,,,https://www.facebook.com/othrside/,,,,,,,,,,,,,,,,,,Australia,,,,,,,
https://www.avob.org.au/certified-businesses,On Track Meals,,,https://ontrackmeals.com/,,,,https://www.instagram.com/on_track_meals/,https://www.facebook.com/ontrackmealsaustralia/,,,,,,,,,,,,,,,,,,Australia,,,,,,,
https://www.avob.org.au/certified-businesses,OneSource Customs &amp; Logistics,,,https://www.oscl.com.au/,,,https://www.linkedin.com/company/onesource-customs-logistics/,https://www.instagram.com/onesource_customs/,https://www.facebook.com/profile.php?id=100078684794666,,,,,,,,,,,,,,,,,,Australia,,,,,,,
https://www.avob.org.au/certified-businesses,Orbost Club Hotel,,,http://orbostclubhotel.com.au/,,,,,http://www.facebook.com/OrbostClubHotel/,,,,,,,,,,,,,,,,,,Australia,,,,,,,
https://www.avob.org.au/certified-businesses,Ordinem,,,https://ordinem.com.au/,,,https://www.linkedin.com/company/ordinemau/,,,,,,,,,,,,,,,,,,,,Australia,,,,,,,
https://www.avob.org.au/certified-businesses,Origin Project Management,,,http://www.originpm.com.au,,,,,,,,,,,,,,,,,,,,,,,Australia,,,,,,,
https://www.avob.org.au/certified-businesses,Oz Airports,,,https://ozairports.com.au/,,,,,,,,,,,,,,,,,,,,,,,Australia,,,,,,,
https://www.avob.org.au/certified-businesses,PD Mining Consultants,,,https://pdminingconsultants.com.au/,,,https://www.linkedin.com/company/pd-mining-consultants/,,,,,,,,,,,,,,,,,,,,Australia,,,,,,,
https://www.avob.org.au/certified-businesses,Parish Business Services,,,http://www.parishbusinessservices.com/,,,,,https://www.facebook.com/ParishBusinessServices,https://twitter.com/parishbusser,,,,,,,,,,,,,,,,,Australia,,,,,,,
https://www.avob.org.au/certified-businesses,PayMe Australia Pty Ltd,,,http://www.payme.com.au/,,,https://www.linkedin.com/company/2247174/admin/,,https://www.facebook.com/PayMeAustralia,,,,,,,,,,,,,,,,,,Australia,,,,,,,
https://www.avob.org.au/certified-businesses,Phoenix Resilience,,,https://phoenixresilience.com/,,,https://www.linkedin.com/company/phoenix-resilience/,https://www.instagram.com/phoenixresilience/,https://www.facebook.com/YourPhoenixResilience,,,,,,,,,,,,,,,,,,Australia,,,,,,,
https://www.avob.org.au/certified-businesses,Powerwave Solutions,,,https://www.powerwavesolutions.com.au/,,,,,,,,,,,,,,,,,,,,,,,Australia,,,,,,,
https://www.avob.org.au/certified-businesses,Praesidium Cyber,,,https://www.praesidiumcyber.com/,,,https://www.linkedin.com/company/praesidium-cyber/,https://www.instagram.com/praesidiumcyber/,https://www.facebook.com/praesidiumcyber/,,,,,,,,,,,,,,,,,,Australia,,,,,,,
https://www.avob.org.au/certified-businesses,Pro Leaders Academy,,,https://proleaders.com.au/,,,https://www.linkedin.com/company/proleadersacademy/,,https://www.facebook.com/proleadersacademy/,,,,,,,,,,,,,,,,,,Australia,,,,,,,
https://www.avob.org.au/certified-businesses,Property Development Concepts,,,https://www.pdconcept.com.au/,,,,,,,,,,,,,,,,,,,,,,,Australia,,,,,,,
https://www.avob.org.au/certified-businesses,Protecteur Services,,,http://www.protecteur.com.au/,,,,,,,,,,,,,,,,,,,,,,,Australia,,,,,,,
https://www.avob.org.au/certified-businesses,Provocatus,,,https://www.theprovocatus.com/,,,https://www.linkedin.com/company/provocatus/,,https://www.facebook.com/Provocatus-102195291989112,,,,,,,,,,,,,,,,,,Australia,,,,,,,
https://www.avob.org.au/certified-businesses,Puliyapang Pty Ltd,,,http://www.puliyapang.com.au/,,,https://www.linkedin.com/company/puliyapang/,,,,,,,,,,,,,,,,,,,,Australia,,,,,,,
https://www.avob.org.au/certified-businesses,Quattrofy,,,https://www.quattrofy.com/,,,,https://www.instagram.com/quattrofy/,https://www.facebook.com/Quattrofy-513414182326139/,,,,,,,,,,,,,,,,,,Australia,,,,,,,
https://www.avob.org.au/certified-businesses,RAInfidel,,,http://www.rainfidel.com/,,,,http://instagram.com/rainfidel,https://www.facebook.com/rainfidel,,,,,,,,,,,,,,,,,,Australia,,,,,,,
https://www.avob.org.au/certified-businesses,RGC Aust,,,https://rgcagroup.com.au/,,,,,https://www.facebook.com/people/RGC-Aust-Pty-Ltd/100089618000647/,,,,,,,,,,,,,,,,,,Australia,,,,,,,
https://www.avob.org.au/certified-businesses,Real Estate On Yorke,,,https://www.realestateonyorke.com.au/,,,,https://www.instagram.com/realestateonyorke/,https://www.facebook.com/people/Real-Estate-On-Yorke/100069828514401/,,,,,,,,,,,,,,,,,,Australia,,,,,,,
https://www.avob.org.au/certified-businesses,Red Risk Management,,,https://redriskmanagement.com/,,,https://www.linkedin.com/company/redriskmanagement/,https://www.instagram.com/redriskmanagement/,https://www.facebook.com/redriskmanagement,,,,,,,,,,,,,,,,,,Australia,,,,,,,
https://www.avob.org.au/certified-businesses,Richard McLaren Photography,,,https://www.richardmclarenphotography.photos/,,,,,,,,,,,,,,,,,,,,,,,Australia,,,,,,,
https://www.avob.org.au/certified-businesses,Ryno Fabrication Sheetmetal,,,http://www.rynofab.com.au/,,,,https://www.instagram.com/ryno.fabrication/,https://www.facebook.com/RynoFab/,,,,,,,,,,,,,,,,,,Australia,,,,,,,
https://www.avob.org.au/certified-businesses,SYNCORSWMS,,,https://syncorswms.com.au/,,,,https://www.instagram.com/syncorswms,https://www.facebook.com/syncorswms,,,,,,,,,,,,,,,,,,Australia,,,,,,,
https://www.avob.org.au/certified-businesses,SYPAQ Systems,,,https://www.sypaq.com.au/,,,https://www.linkedin.com/company/sypaq-systems/?viewAsMember=true,,,https://twitter.com/SYPAQ_Official,,,,,,,,,,,,,,,,,Australia,,,,,,,
https://www.avob.org.au/certified-businesses,Safeguard Transport Consultants,,,,,,,,https://www.facebook.com/SafegurdConsultants/,,,,,,,,,,,,,,,,,,Australia,,,,,,,
https://www.avob.org.au/certified-businesses,Salient Operations Group,,,https://www.salientoperationsgroup.com/,,,https://www.linkedin.com/company/74759198/,https://www.instagram.com/salientoperationsgroup/,,,,,,,,,,,,,,,,,,,Australia,,,,,,,
https://www.avob.org.au/certified-businesses,Sayres Australia,,,https://www.sayresaustralia.com/,,,https://www.linkedin.com/company/sayres-australia-pty-ltd/,,,,,,,,,,,,,,,,,,,,Australia,,,,,,,
https://www.avob.org.au/certified-businesses,Scarp Vantage Consulting,,,https://www.svconsulting.com.au/,,,https://www.linkedin.com/company/scarp-vantage-consulting/,,,https://twitter.com/ScarpVantage,,,,,,,,,,,,,,,,,Australia,,,,,,,
https://www.avob.org.au/certified-businesses,Sectara,,,https://sectara.com/,,,,,,,,,,,,,,,,,,,,,,,Australia,,,,,,,
https://www.avob.org.au/certified-businesses,Security Consulting Group Pty Ltd,,,http://www.securityconsultinggroup.com.au/,,,https://www.linkedin.com/company/security-consulting-group/,,,,,,,,,,,,,,,,,,,,Australia,,,,,,,
https://www.avob.org.au/certified-businesses,Site Security and Traffic Control,,,https://sstc.net.au/,,,https://www.linkedin.com/company/site-security-traffic-control-pty-ltd/,https://www.instagram.com/sitesecurityandtrafficcontrol/,https://www.facebook.com/sstcptyltd/,,,,,,,,,,,,,,,,,,Australia,,,,,,,
https://www.avob.org.au/certified-businesses,South-East Water Tanks,,,https://south-eastwatertanks.godaddysites.com/,,,,https://www.instagram.com/southeastwatertanks/,https://www.facebook.com/southeastwatertanks/,,,,,,,,,,,,,,,,,,Australia,,,,,,,
https://www.avob.org.au/certified-businesses,Southport First Aid,,,http://www.southportfirstaid.com.au/,,,,,https://www.facebook.com/southportfirstaid,,,,,,,,,,,,,,,,,,Australia,,,,,,,
https://www.avob.org.au/certified-businesses,Spearpoint Solutions &amp; Technology,,,https://www.spearpointtechnology.com.au/,,,,,https://www.facebook.com/profile.php?id=100063727096556,,,,,,,,,,,,,,,,,,Australia,,,,,,,
https://www.avob.org.au/certified-businesses,Spinifex Brewing Co.,,,https://www.spinifexbrewery.com.au/,,,,,https://www.facebook.com/SpinifexBrewery/,https://twitter.com/adamsperth,,,,,,,,,,,,,,,,,Australia,,,,,,,
https://www.avob.org.au/certified-businesses,Springers Training Wheels,,,http://www.springerstrainingwheels.com/,,,,https://www.instagram.com/springerstrainingwheels/,https://www.facebook.com/springerstrainingwheels/,https://twitter.com/springerstw,,,https://www.youtube.com/channel/UCc7d2sUW4XLOT-3-6ZW-cIQ,,,,,,,,,,,,,,Australia,,,,,,,
https://www.avob.org.au/certified-businesses,Stirling Power Solutions,,,,,,,https://www.instagram.com/stirlingpowersolutions/,https://www.facebook.com/stirlingpowersolutions,,,,,,,,,,,,,,,,,,Australia,,,,,,,
https://www.avob.org.au/certified-businesses,Stotan Group,,,http://www.stotangroup.com.au/,,,https://www.linkedin.com/company/stotangroup/,,,,,,,,,,,,,,,,,,,,Australia,,,,,,,
https://www.avob.org.au/certified-businesses,Strategic Wildfire Operations,,,http://www.strategicwildfire.com.au/,,,,,,,,,,,,,,,,,,,,,,,Australia,,,,,,,
https://www.avob.org.au/certified-businesses,Strategix Australia,,,https://www.strategixaustralia.com/,,,https://www.linkedin.com/company/strategix-australia/about/,,,,,,,,,,,,,,,,,,,,Australia,,,,,,,
https://www.avob.org.au/certified-businesses,Summerland Health,,,https://summerlandhealth.com.au/,,,,https://www.instagram.com/summerland_health/,https://www.facebook.com/summerlandhealthchiropractic/,,,,,,,,,,,,,,,,,,Australia,,,,,,,
https://www.avob.org.au/certified-businesses,Synergy Facility Services,,,https://synergyqld.com.au/,,,,,,,,,,,,,,,,,,,,,,,Australia,,,,,,,
https://www.avob.org.au/certified-businesses,TACMUDKIT,,,https://tacmudkit.com.au/,,,,https://www.instagram.com/tacmudkit/,https://www.facebook.com/Tacmudkit/,https://twitter.com/tacmudkit,,,,,,,,,,,,,,,,,Australia,,,,,,,
https://www.avob.org.au/certified-businesses,TEIGE,,,https://www.teige.com.au/,,,https://www.linkedin.com/company/teige/,,https://www.facebook.com/teige.com.au,https://twitter.com/teigeptyltd,,,,,,,,,,,,,,,,,Australia,,,,,,,
https://www.avob.org.au/certified-businesses,TQCSI,,,https://www.tqcsi.com/,,,https://www.linkedin.com/company/tqcs-international/,,https://www.facebook.com/TQCS.International,,,,https://www.youtube.com/channel/UC-VkzxblER6FKbfubBCMEXA,,,,,,,,,,,,,,Australia,,,,,,,
https://www.avob.org.au/certified-businesses,Tacmed Australia,,,http://www.tacmedaustralia.com.au/,,,,http://instagram.com/tacmedaustralia,https://www.facebook.com/TacmedAustralia,https://twitter.com/TacmedAus,,,,,,,,,,,,,,,,,Australia,,,,,,,
https://www.avob.org.au/certified-businesses,Tempered Strength &amp; Conditioning,,,http://www.temperedsco.com.au/,,,,https://www.instagram.com/temperedstrengthormeau/,https://www.facebook.com/pages/CrossFit-Tempered/267394000047380,,,,,,,,,,,,,,,,,,Australia,,,,,,,
https://www.avob.org.au/certified-businesses,The Cloud Men,,,https://www.thecloudmen.com/,,,https://www.linkedin.com/company/thecloudmen/,,,,,,,,,,,,,,,,,,,,Australia,,,,,,,
https://www.avob.org.au/certified-businesses,The Environmental Review,,,https://www.the-environmental-review.com/,,,https://www.linkedin.com/company/the-environmental/,https://www.instagram.com/the_environmental_review/,https://www.facebook.com/theevironmentalreview,,,,,,,,,,,,,,,,,,Australia,,,,,,,
https://www.avob.org.au/certified-businesses,The Grind Reaper,,,https://www.thegrindreaper.com/,,,,https://www.instagram.com/thegrindreaper/,https://www.facebook.com/TheGrindReaper,,,,,,,,,,,,,,,,,,Australia,,,,,,,
https://www.avob.org.au/certified-businesses,The K9 Centre,,,https://www.k9centre.com/,,,https://www.linkedin.com/in/martindominick,https://www.instagram.com/thek9centre/,https://www.facebook.com/TheK9CentreDogTrainersAustralia,,,,,,,,,,,,,,,,,,Australia,,,,,,,
https://www.avob.org.au/certified-businesses,The Rifleman&#x27;s Armoury,,,http://theriflemansarmoury.com.au/,,,,,https://www.facebook.com/filmarmourer/?modal=admin_todo_tour,,,,,,,,,,,,,,,,,,Australia,,,,,,,
https://www.avob.org.au/certified-businesses,The Tumba Hotel,,,https://tumbarumbapub.com.au/,,,,,https://www.facebook.com/TumbarumbaHotel,,,,,,,,,,,,,,,,,,Australia,,,,,,,
https://www.avob.org.au/certified-businesses,The Whiskey Project Group,,,http://www.thewhiskeyprojectgroup.com.au/,,,,,,,,,,,,,,,,,,,,,,,Australia,,,,,,,
https://www.avob.org.au/certified-businesses,Think Medical Solutions,,,https://www.thinkmedicalsolutions.com.au/,,,https://www.linkedin.com/company/think-medical-solutions/,https://www.instagram.com/thinkmedicalsolutions/,https://www.facebook.com/ThinkMedicalSolutions/,,,,,,,,,,,,,,,,,,Australia,,,,,,,
https://www.avob.org.au/certified-businesses,Tiger International,,,,,,,,,,,,,,,,,,,,,,,,,,Australia,,,,,,,
https://www.avob.org.au/certified-businesses,Tirol Sports,,,https://www.tirolsports.com.au/,,,,https://www.instagram.com/Tirol_Sports_Hotham/,https://www.facebook.com/TirolSportsHotham/,,,,,,,,,,,,,,,,,,Australia,,,,,,,
https://www.avob.org.au/certified-businesses,Topps Products Australia,,,https://www.toppsproducts.com.au/,,,,,https://www.facebook.com/toppsproducts,,,,,,,,,,,,,,,,,,Australia,,,,,,,
https://www.avob.org.au/certified-businesses,TouchBoard Australia,,,https://tboard.com.au/,,,,,,,,,,,,,,,,,,,,,,,Australia,,,,,,,
https://www.avob.org.au/certified-businesses,Tradie HQ,,,http://www.tradiehq.com.au/,,,,https://www.instagram.com/tradiehq.wa,https://www.facebook.com/tradiehqwa,,,,,,,,,,,,,,,,,,Australia,,,,,,,
https://www.avob.org.au/certified-businesses,TriHorizon,,,https://trihorizon.com.au/,,,,,,,,,,,,,,,,,,,,,,,Australia,,,,,,,
https://www.avob.org.au/certified-businesses,Tropik Nutrition,,,https://tropiknutrition.com.au/,,,,https://www.instagram.com/tropik.nutrition/,https://www.facebook.com/tropiknutrition,,,,,,,,,,,,,,,,,,Australia,,,,,,,
https://www.avob.org.au/certified-businesses,UBH Group,,,https://www.ubhgroup.com.au/,,,https://www.linkedin.com/company/ubh-group/,,,,,,,,,,,,,,,,,,,,Australia,,,,,,,
https://www.avob.org.au/certified-businesses,Unearth Talent,,,http://www.unearthtalent.com.au/,,,,,https://www.facebook.com/unearthtalent,,,,,,,,,,,,,,,,,,Australia,,,,,,,
https://www.avob.org.au/certified-businesses,Van Cotter Partners,,,http://www.vcpg.com.au/,,,,,https://www.facebook.com/vancotterpartners,,,,,,,,,,,,,,,,,,Australia,,,,,,,
https://www.avob.org.au/certified-businesses,Vantage Point Management,,,http://www.vantagepointmanagement.com.au/,,,https://www.linkedin.com/in/markskrzypiec/,,,,,,,,,,,,,,,,,,,,Australia,,,,,,,
https://www.avob.org.au/certified-businesses,Vergex,,,https://www.vergex.com.au/,,,,https://www.instagram.com/verg_ex/,https://www.facebook.com/vergex2021,https://twitter.com/Vergex5,,,,,,,,,,,,,,,,,Australia,,,,,,,
https://www.avob.org.au/certified-businesses,Vita Nova Conveyancing,,,https://www.vitanova.com.au/,,,,https://www.instagram.com/vitanovaconveyancing/,,,,,,,,,,,,,,,,,,,Australia,,,,,,,
https://www.avob.org.au/certified-businesses,Voltec Maintenance,,,https://www.voltecmaintenance.com.au/,,,,https://www.instagram.com/voltecmaintenance/,https://www.facebook.com/voltecmaintenance,,,,,,,,,,,,,,,,,,Australia,,,,,,,
https://www.avob.org.au/certified-businesses,Wandering Warriors,,,http://www.wanderingwarriors.org/,,,,,https://www.facebook.com/wanderingwarriors/,https://twitter.com/WanderingSAS,,,,,,,,,,,,,,,,,Australia,,,,,,,
https://www.avob.org.au/certified-businesses,Wheelie Hot Wood Canberra,,,https://wheeliehotwood-canberra.com.au/,,,,https://www.instagram.com/wheeliehotwoodcbr/,https://www.facebook.com/people/Wheelie-Hot-Wood-Canberra/100091770587299/,,,,,,,,,,,,,,,,,,Australia,,,,,,,
https://www.avob.org.au/certified-businesses,Wilpah,,,https://wilpah.com.au/,,,https://www.linkedin.com/in/wilpah-company-134092218/,,,,,,,,,,,,,,,,,,,,Australia,,,,,,,
https://www.avob.org.au/certified-businesses,Wilsons Plumbing and Maintenance,,,,,,,,,,,,,,,,,,,,,,,,,,Australia,,,,,,,
https://www.avob.org.au/certified-businesses,Wings Public Relations,,,https://www.wingspr.com.au/,,,https://www.linkedin.com/company/wingspublicrelations/,https://www.instagram.com/wingspublicrelations/,https://www.facebook.com/wingspublicrelations,https://twitter.com/wings_pr,,,,,,,,,,,,,,,,,Australia,,,,,,,
https://www.avob.org.au/certified-businesses,Yanun Project Services,,,http://www.yanun.com.au/,,,https://www.linkedin.com/in/yanun2david/,,,,,,,,,,,,,,,,,,,,Australia,,,,,,,
https://www.avob.org.au/certified-businesses,Your Print Guys,,,http://yourprintguys.com.au/,,,,https://www.instagram.com/shortstackau/,https://www.facebook.com/shortstackau,,,,,,,,,,,,,,,,,,Australia,,,,,,,
https://www.avob.org.au/certified-businesses,ZERODROP Australia,,,https://zerodrop.com.au/,,,,https://www.instagram.com/zerodrop.au/,,,,,,,,,,,,,,,,,,,Australia,,,,,,,
https://www.avob.org.au/certified-businesses,Zangold Pty Ltd,,,https://www.epequip.com/,,,https://www.linkedin.com/company/explosive-protective-equipment,,https://www.facebook.com/ExplosiveProtectiveEquipment,https://twitter.com/epequip,,,https://www.youtube.com/user/epequip,,,,,,,,,,,,,,Australia,,,,,,,
https://www.avob.org.au/certified-businesses,Zilor Group,,,https://www.zilorgroup.com.au/,,,https://www.linkedin.com/company/zilorgroup/,,,,,,,,,,,,,,,,,,,,Australia,,,,,,,